{"type": "Feature","id": "5735","bbox": [24.3091,56.30973,25.01351,56.71364],"geometry": {"type": "Polygon","coordinates": [[[24.55605,56.70698,63.3283],[24.52189,56.71364,58.0775],[24.48236,56.7047,61.7676],[24.4434,56.68424,43.4272],[24.42789,56.67768,58.6593],[24.41498,56.67427,36.8685],[24.38366,56.67086,51.7937],[24.37606,56.6684,28.4891],[24.37296,56.66631,24.4792],[24.37405,56.65959,45.5382],[24.35536,56.66156,26.0812],[24.3681,56.61903,50.0869],[24.3091,56.61188,41.4388],[24.32162,56.56361,23.5844],[24.34844,56.5654,33.8024],[24.38777,56.55288,26.7501],[24.38062,56.52964,43.4513],[24.40028,56.50997,30.0374],[24.4271,56.49388,27.1985],[24.43783,56.47422,25.1261],[24.47358,56.48315,33.953],[24.51292,56.45455,43.1214],[24.5308,56.40985,55.5402],[24.5147,56.39734,55.7658],[24.44677,56.38125,36.6162],[24.45213,56.36695,47.8636],[24.50577,56.36158,35.3542],[24.49146,56.3437,55.668],[24.46822,56.33119,32.284],[24.48074,56.30973,36.0602],[24.52901,56.32225,25.7588],[24.57277,56.30981,55.174],[24.63915,56.35997,39.7924],[24.67863,56.37728,35.9389],[24.71504,56.38625,47.3309],[24.80554,56.40855,58.3375],[24.81557,56.40881,45.8966],[24.83769,56.40395,55.1458],[24.84585,56.40493,54.7012],[24.85216,56.41366,47.7701],[24.8534,56.42472,45.1949],[24.85712,56.43537,58.7465],[24.87097,56.4426,55.8372],[24.87764,56.45455,51.6841],[24.90088,56.45991,65.3302],[24.9116,56.47243,72.6165],[24.92054,56.48673,88.1013],[25.01351,56.49567,74.9689],[24.99563,56.55109,71.3474],[24.9563,56.55109,75.3927],[24.94999,56.57857,89.1526],[24.73248,56.54425,54.8245],[24.65708,56.54358,38.461],[24.66437,56.55683,41.0129],[24.67134,56.56678,40.3677],[24.68142,56.57133,47.2046],[24.69723,56.57624,45.7241],[24.69713,56.57887,49.3717],[24.69119,56.58166,49.8318],[24.67367,56.58655,68.4507],[24.66607,56.58717,56.3457],[24.66142,56.58833,55.4492],[24.66033,56.5905,54.5361],[24.66297,56.59396,59.4658],[24.66251,56.59686,60.5643],[24.65677,56.5998,52.807],[24.6299,56.60145,39.928],[24.61719,56.60719,36.158],[24.59967,56.62068,51.0603],[24.59285,56.64303,46.2602],[24.58974,56.66104,53.49],[24.63408,56.67685,48.5382],[24.60091,56.70703,54.6353],[24.55605,56.70698,63.3283]]]}
,"properties": {"ISO3166-1-Alpha-3": "LVA","country": "Latvia","fill": "#F00","name": "Vecumnieku","area_km2": 868.3136,"hist_schema_id": "Elevation0-9000","hist_area_km2": {"25": 234.7583,"50": 514.2082,"75": 116.4471,"100": 2.9}}}