{"type":"Feature","properties":{"ISO3166-1-Alpha-3":"LVA","country":"Latvia","fill":"#000","id":"5733","name":"Viesites"},
"geometry":{"type": "Polygon","coordinates": [[[25.67604,56.36659,100.6598],[25.65823,56.39331,96.0214],[25.63596,56.40889,101.2427],[25.61148,56.43115,110.8831],[25.61593,56.44674,88.3923],[25.59464,56.46715,104.1987],[25.59072,56.46084,93.0639],[25.58343,56.45857,91.5],[25.57382,56.45286,91.5],[25.56669,56.44761,91.5],[25.54777,56.44488,104.2483],[25.52354,56.44482,103.3247],[25.5054,56.4364,97.8928],[25.4762,56.41888,91.0242],[25.45558,56.41335,92.2441],[25.39352,56.41098,83.4416],[25.3313,56.42129,81.1864],[25.29621,56.42082,78.414],[25.29358,56.4079,88.8658],[25.29823,56.37708,85.5738],[25.29854,56.36555,87.1158],[25.3021,56.34938,99.4406],[25.29823,56.3425,93.8605],[25.29621,56.33695,77.0576],[25.29916,56.33416,96.3955],[25.30536,56.33067,93.0536],[25.36138,56.33475,85.7342],[25.37027,56.32731,81.2298],[25.36293,56.32266,91.3116],[25.342,56.31703,85.1549],[25.32433,56.30933,94.739],[25.31094,56.29775,95.611],[25.31048,56.28737,78.6211],[25.3375,56.27589,82.317],[25.35642,56.26163,94.0936],[25.37223,56.25579,93.9925],[25.40344,56.23156,97.6887],[25.39554,56.2021,94.476],[25.40809,56.18246,88.6456],[25.40856,56.17859,90.1293],[25.40375,56.17549,89.6215],[25.37182,56.17414,88.1774],[25.35952,56.1682,91.6788],[25.34954,56.16024,90.3159],[25.34909,56.15988,90.3159],[25.45481,56.14965,97.5402],[25.52276,56.15657,120.0062],[25.57289,56.14303,110.1049],[25.59004,56.14112,126.5337],[25.64968,56.14381,113.8714],[25.67381,56.18405,105.4468],[25.69384,56.20854,88.3773],[25.69384,56.22857,91.9321],[25.68049,56.29313,117.0691],[25.73392,56.29981,116.5499],[25.73614,56.32875,119.2649],[25.73392,56.35101,99.4602],[25.72724,56.36882,98.3064],[25.67604,56.36659,100.6598]]]}}