{"type":"Feature","properties":{"ISO3166-1-Alpha-3":"LVA","country":"Latvia","fill":"#FF0","id":"5786","name":"Erglu"},
"geometry":{"type": "Polygon","coordinates": [[[25.77944,56.98102,191.0164],[25.76952,56.9835,193.2715],[25.75489,56.99329,188.2086],[25.72714,56.99869,199.4239],[25.70544,56.99368,197.6543],[25.69733,56.98613,194.3109],[25.62953,56.96309,195.4074],[25.63356,56.97487,192.9947],[25.63914,56.98448,180.4344],[25.63697,56.99022,181.841],[25.63852,56.99296,200.4942],[25.63852,56.99476,196.5412],[25.63402,56.99471,194.4655],[25.60271,56.98438,195.2515],[25.58235,56.9819,196.0239],[25.56514,56.9821,207.1324],[25.51718,56.99513,220.0034],[25.504,56.99482,206.2035],[25.50392,56.99482,206.2035],[25.48819,56.99445,211.8136],[25.49269,56.98128,193.3516],[25.50773,56.97275,188.9598],[25.50835,56.96448,194.5313],[25.51687,56.95632,212.2408],[25.52276,56.9435,189.6338],[25.5316,56.93265,191.9767],[25.53222,56.92141,184.814],[25.524,56.91363,175.0737],[25.5192,56.9079,158.7546],[25.51625,56.90319,152.3413],[25.51594,56.89792,152.8571],[25.52075,56.8942,162.8553],[25.52772,56.89007,149.4968],[25.53408,56.88495,150.2922],[25.55568,56.87394,137.3782],[25.48364,56.86718,121.6689],[25.48488,56.85705,134.0643],[25.48395,56.85384,127.4327],[25.49207,56.84625,128.0164],[25.50106,56.84196,132.5371],[25.50478,56.83307,141.4119],[25.50648,56.82671,142.0053],[25.5054,56.8131,131.8938],[25.56173,56.80258,149.0187],[25.60519,56.80248,138.9841],[25.64162,56.79212,142.6383],[25.6688,56.78899,157.4519],[25.69221,56.77049,153.9796],[25.73024,56.78232,165.3708],[25.73427,56.78935,154.1961],[25.74637,56.80113,179.737],[25.74885,56.80883,188.4911],[25.74838,56.81467,177.2929],[25.7397,56.81837,186.4934],[25.74637,56.82594,181.1487],[25.76549,56.82819,179.7952],[25.75755,56.8515,201.4823],[25.74815,56.86715,186.9436],[25.76851,56.87968,191.7472],[25.77477,56.89064,220.6198],[25.80765,56.89534,226.3412],[25.83583,56.90003,206.3469],[25.85932,56.9063,198.5],[25.89063,56.90003,223.5793],[25.91568,56.9063,230.9933],[25.94699,56.9063,265.282],[25.95326,56.92508,218.2859],[25.94386,56.93291,217.4784],[25.92038,56.94387,201.4738],[25.88636,56.96422,196.9615],[25.85406,56.96257,196.2259],[25.85034,56.96637,193.1079],[25.84491,56.97027,188.1136],[25.84181,56.97384,197.8178],[25.83747,56.97678,198.0771],[25.83391,56.97973,194.4151],[25.82972,56.98241,195.712],[25.82259,56.985,183.8784],[25.8137,56.98675,186.5934],[25.79603,56.985,200.7281],[25.7875,56.98169,201.7591],[25.77944,56.98102,191.0164]]]}}