{"type": "Feature","id": "5728","bbox": [25.49358,56.57629,25.93571,56.82819],"geometry": {"type": "Polygon","coordinates": [[[25.93209,56.63784,82.9218],[25.92982,56.64985,87.166],[25.92512,56.65427,97.2604],[25.91628,56.65902,99.5236],[25.9138,56.66481,105.8828],[25.91566,56.66887,92.7034],[25.92698,56.67148,91.9531],[25.93333,56.67592,109.7618],[25.93571,56.68155,93.8113],[25.90682,56.69726,103.3106],[25.83437,56.71228,111.9134],[25.82554,56.74077,151.7418],[25.82693,56.74933,153.9983],[25.83732,56.75659,158.0335],[25.84383,56.76444,164.7662],[25.8508,56.77033,174.5431],[25.84274,56.78925,175.2997],[25.82771,56.80095,192.2095],[25.812,56.8018,190.474],[25.80626,56.80475,203.6084],[25.79711,56.81183,200.2444],[25.7858,56.8187,197.6899],[25.76549,56.82819,179.7952],[25.74637,56.82594,181.1487],[25.7397,56.81837,186.4934],[25.74838,56.81467,177.2929],[25.74885,56.80883,188.4911],[25.74637,56.80113,179.737],[25.73427,56.78935,154.1961],[25.73024,56.78232,165.3708],[25.69221,56.77049,153.9796],[25.656,56.75395,113.6901],[25.62706,56.76285,122.544],[25.60035,56.76508,115.662],[25.59589,56.75172,115.0809],[25.61593,56.73837,122.2726],[25.61593,56.7161,102.5596],[25.56918,56.71165,116.4988],[25.58254,56.67603,95.53],[25.53133,56.64264,110.3403],[25.5202,56.6137,83.2808],[25.49553,56.61184,74.2125],[25.49879,56.60236,69.5],[25.49358,56.58906,84.523],[25.50904,56.5788,98.7383],[25.56979,56.5767,88.9355],[25.5794,56.57629,89.7274],[25.60147,56.57892,69.5],[25.64673,56.59639,75.9967],[25.68833,56.60078,69.5],[25.71133,56.60585,76.6662],[25.74404,56.61727,73.2315],[25.75691,56.61226,69.5],[25.78828,56.60931,76.8533],[25.83096,56.61324,78.4068],[25.88326,56.62357,84.7979],[25.93209,56.63784,82.9218]]]}
,"properties": {"ISO3166-1-Alpha-3": "LVA","country": "Latvia","fill": "#F0F","name": "Plavinu","area_km2": 392.6775,"hist_schema_id": "Elevation0-9000","hist_area_km2": {"75": 38.9443,"100": 200.553,"125": 61.0501,"150": 57.7581,"175": 24.6427,"200": 9.706,"225": 0.0232}}}