{"type": "Feature","id": "1092","bbox": [22.81805,56.69241,23.50676,57.26529],"geometry": {"type": "Polygon","coordinates": [[[23.1488,56.92118,38.6207],[23.14164,56.93548,42.3579],[23.1774,56.95514,64.2969],[23.19707,56.96766,53.8752],[23.16846,56.98554,65.7907],[23.1774,57.01236,79.0322],[23.21316,57.03917,46.7602],[23.23104,57.06599,31.9844],[23.20422,57.10532,28.0292],[23.15058,57.1232,26.7134],[23.11304,57.1375,18.4401],[23.10052,57.15538,21.7013],[23.12019,57.17147,6.5376],[23.1327,57.20902,-1.0],[23.12913,57.24299,-0.3477],[23.11278,57.26529,-1.0],[23.08038,57.23847,-0.3776],[23.03987,57.2102,27.6922],[22.97749,57.18705,25.1756],[22.96726,57.18354,26.2171],[22.94891,57.16788,36.3057],[22.94674,57.16034,26.9918],[22.94147,57.15245,32.4537],[22.93093,57.14457,32.2313],[22.95571,57.12678,56.3213],[22.94141,57.11426,61.8799],[22.9128,57.10354,93.9641],[22.89671,57.08923,80.9677],[22.84129,57.07851,60.2436],[22.85559,57.05705,43.7508],[22.86632,57.03739,54.699],[22.87883,57.01951,56.1068],[22.86274,57.01057,65.4112],[22.83056,57.00699,75.228],[22.81805,56.97481,68.6812],[22.83056,56.94978,76.2785],[22.87347,56.92475,74.2977],[22.91638,56.91581,69.3062],[22.91816,56.88899,81.8069],[22.92353,56.87469,84.5202],[22.94319,56.85503,84.8431],[22.92353,56.83357,87.2153],[22.93247,56.81033,104.0128],[22.97538,56.80139,93.8231],[23.03616,56.80675,58.0346],[23.05583,56.79424,57.6891],[23.07013,56.76027,76.368],[23.09337,56.72094,70.9995],[23.12332,56.69881,65.5484],[23.17174,56.69241,60.6044],[23.19365,56.70496,68.5554],[23.21582,56.71106,72.1373],[23.27231,56.71029,60.4601],[23.29964,56.71535,42.9428],[23.32522,56.74946,29.2112],[23.31499,56.76548,32.4491],[23.31592,56.77416,31.8939],[23.32197,56.78212,29.901],[23.37504,56.80077,13.8013],[23.38946,56.79398,16.3243],[23.39721,56.79224,10.9485],[23.40884,56.7924,5.2135],[23.45167,56.7994,29.7084],[23.48661,56.81591,27.1263],[23.46196,56.88423,14.8507],[23.50676,56.89462,9.3977],[23.49203,56.93464,22.5462],[23.47715,56.93647,24.3823],[23.442,56.92654,20.9528],[23.37228,56.91045,16.196],[23.27752,56.91581,35.9864],[23.20064,56.93011,62.7477],[23.1488,56.92118,38.6207]]]}
,"properties": {"ISO3166-1-Alpha-3": "LVA","country": "Latvia","fill": "#000","name": "Tukums","area_km2": 1166.5126,"hist_schema_id": "Elevation0-9000","hist_area_km2": {"0": 43.437,"25": 235.7806,"50": 453.7395,"75": 381.8388,"100": 50.735,"125": 0.9817}}}