{"type":"Feature","properties":{"GID_2":"LVA.3.4_1","GID_0":"LVA","country":"Latvia","GID_1":"LVA.3_1","province":"Riga","NL_NAME_1":"NA","county":"Tukums","VARNAME_2":"Tukkum","NL_NAME_2":"NA","TYPE_2":"Aprinki|rajoni","ENGTYPE_2":"District","CC_2":"NA","HASC_2":"LV.TU","name":"Tukums.county"},
"geometry":{"type": "MultiPolygon","coordinates": [[[[22.4605,56.9252,103.7013],[22.4687,56.925,103.6766],[22.469,56.9295,107.0034],[22.4937,56.929,98.2752],[22.4934,56.9245,99.8064],[22.518,56.924,92.7046],[22.5184,56.9285,93.0458],[22.5348,56.9282,99.604],[22.5345,56.9237,94.5305],[22.5427,56.9235,93.0852],[22.5421,56.9145,86.0227],[22.5257,56.9149,93.0252],[22.5253,56.9104,96.4664],[22.5171,56.9105,95.9701],[22.5168,56.9061,100.8406],[22.525,56.9059,94.1788],[22.5241,56.8924,91.8654],[22.5159,56.8926,91.9917],[22.5153,56.8836,94.1809],[22.5235,56.8834,100.838],[22.5232,56.8789,99.8627],[22.5068,56.8793,104.1377],[22.5065,56.8748,120.3751],[22.4983,56.875,100.9876],[22.4974,56.8615,90.1561],[22.5056,56.8613,100.8915],[22.5053,56.8568,107.0424],[22.5135,56.8567,94.8647],[22.5132,56.8522,94.0161],[22.5214,56.852,101.5638],[22.5211,56.8475,101.6217],[22.5621,56.8467,107.6369],[22.5624,56.8512,97.5949],[22.5706,56.851,99.2445],[22.5788,56.8508,90.8808],[22.5785,56.8463,102.4616],[22.6031,56.8458,112.1674],[22.6028,56.8413,113.6069],[22.611,56.8411,111.8558],[22.61,56.8277,115.9802],[22.6182,56.8275,128.4933],[22.6186,56.832,112.4872],[22.635,56.8316,112.3701],[22.6346,56.8271,128.0049],[22.6428,56.827,119.3056],[22.6419,56.8135,107.2227],[22.6747,56.8128,131.8262],[22.675,56.8173,123.7536],[22.6832,56.8171,129.9817],[22.6829,56.8126,130.3176],[22.6911,56.8124,124.1374],[22.6904,56.8034,129.0404],[22.7068,56.8031,124.7321],[22.7065,56.7986,132.581],[22.7147,56.7984,142.14],[22.715,56.8029,136.5051],[22.7232,56.8027,131.8433],[22.7235,56.8072,131.9842],[22.7563,56.8065,136.6781],[22.7566,56.8109,136.627],[22.7648,56.8108,137.7837],[22.7645,56.8063,140.8757],[22.7809,56.8059,123.0638],[22.7816,56.8149,125.1583],[22.7897,56.8147,120.9396],[22.7887,56.8012,130.8832],[22.7969,56.801,126.588],[22.7966,56.7965,128.7851],[22.8048,56.7964,121.3296],[22.8041,56.7874,134.1056],[22.8123,56.7872,108.5962],[22.812,56.7827,100.6822],[22.8201,56.7825,99.6301],[22.8195,56.7735,98.4285],[22.8277,56.7733,105.2827],[22.8266,56.7599,118.8726],[22.8184,56.7601,103.1209],[22.8178,56.7511,117.5608],[22.8259,56.7509,128.6634],[22.8242,56.7285,108.8724],[22.8324,56.7283,103.6365],[22.8321,56.7238,105.7216],[22.8157,56.7242,111.6183],[22.8154,56.7197,120.9978],[22.8072,56.7198,126.4058],[22.8069,56.7154,119.6087],[22.8232,56.715,108.0752],[22.8219,56.697,118.1786],[22.8464,56.6965,117.175],[22.8474,56.7099,106.903],[22.8556,56.7097,116.1681],[22.8552,56.7052,106.2431],[22.8716,56.7049,99.2593],[22.8723,56.7138,100.8729],[22.8804,56.7136,99.384],[22.8801,56.7091,104.3397],[22.8883,56.709,101.4509],[22.8886,56.7134,107.6946],[22.8968,56.7132,103.5374],[22.8971,56.7177,97.2246],[22.938,56.7168,96.4064],[22.9376,56.7123,95.5159],[22.9703,56.7115,88.8356],[22.9707,56.716,96.6952],[22.9952,56.7154,83.6078],[22.9956,56.7198,84.7249],[23.0201,56.7192,90.7765],[23.0194,56.7103,83.8266],[23.0275,56.7101,85.3246],[23.0268,56.7011,79.9544],[23.0677,56.7001,78.726],[23.0673,56.6956,71.2895],[23.0836,56.6952,69.549],[23.0833,56.6907,61.4878],[23.1078,56.69,60.4985],[23.1081,56.6945,70.5595],[23.1163,56.6943,58.9339],[23.1167,56.6988,72.3154],[23.1248,56.6986,63.7187],[23.1252,56.7031,64.4638],[23.1579,56.7022,62.3146],[23.1575,56.6978,67.4971],[23.182,56.6971,65.4787],[23.1824,56.7016,64.1843],[23.1906,56.7014,68.2634],[23.1914,56.7104,66.6153],[23.1832,56.7106,67.7022],[23.1839,56.7195,66.3672],[23.1921,56.7193,64.0172],[23.1925,56.7238,69.3844],[23.2089,56.7234,64.3885],[23.2092,56.7279,61.7099],[23.2174,56.7277,63.4494],[23.217,56.7232,70.7467],[23.2497,56.7223,60.2074],[23.2493,56.7178,62.01],[23.2657,56.7174,58.0415],[23.2653,56.7129,60.4042],[23.2735,56.7127,58.762],[23.2731,56.7082,60.3931],[23.2894,56.7077,49.908],[23.2898,56.7122,46.8479],[23.298,56.712,46.9798],[23.2992,56.7255,42.8968],[23.3073,56.7252,35.594],[23.3077,56.7297,34.9836],[23.3159,56.7295,32.9932],[23.3163,56.734,32.3816],[23.3327,56.7336,31.0974],[23.3339,56.747,32.233],[23.342,56.7468,26.9311],[23.3429,56.7558,25.2516],[23.3347,56.756,26.683],[23.3351,56.7605,41.5255],[23.3269,56.7607,29.5326],[23.3273,56.7652,29.0453],[23.3191,56.7654,31.3334],[23.3199,56.7744,31.7058],[23.3363,56.7739,26.219],[23.3375,56.7874,29.4241],[23.3457,56.7872,26.4564],[23.3461,56.7917,24.7059],[23.3543,56.7914,25.3578],[23.3547,56.7959,21.9213],[23.3629,56.7957,16.3643],[23.3633,56.8002,16.0803],[23.3715,56.8,14.1545],[23.3719,56.8044,16.1801],[23.3883,56.804,25.6686],[23.3874,56.795,19.0737],[23.3956,56.7948,11.7611],[23.3952,56.7903,8.2806],[23.428,56.7894,14.1528],[23.4284,56.7939,12.326],[23.4366,56.7936,27.5738],[23.4361,56.7891,25.3802],[23.4443,56.7889,24.9924],[23.4439,56.7844,7.8635],[23.4521,56.7842,25.7949],[23.4517,56.7797,4.4229],[23.4599,56.7795,12.8022],[23.459,56.7705,4.2377],[23.4918,56.7696,10.7777],[23.4913,56.7651,6.6743],[23.5241,56.7641,3.9824],[23.5245,56.7686,14.129],[23.5327,56.7684,3.1579],[23.5335,56.7774,11.4575],[23.5417,56.7771,5.0205],[23.5421,56.7816,12.55],[23.5503,56.7814,-0.0694],[23.5516,56.7948,6.6422],[23.5598,56.7946,-0.2021],[23.5607,56.8036,8.3042],[23.5689,56.8033,-0.4166],[23.5697,56.8123,1.3174],[23.5615,56.8125,3.0702],[23.5624,56.8215,5.8266],[23.5706,56.8213,0.6174],[23.5714,56.8302,0.3885],[23.5469,56.831,8.8225],[23.5473,56.8354,3.5461],[23.5555,56.8352,2.343],[23.5559,56.8397,3.2221],[23.5477,56.8399,6.5817],[23.5482,56.8444,22.0171],[23.5645,56.8439,1.1911],[23.565,56.8484,0.8813],[23.5732,56.8482,0.26],[23.574,56.8572,2.1865],[23.5822,56.8569,0.5907],[23.5831,56.8659,2.4927],[23.5913,56.8656,1.4251],[23.5918,56.8701,2.421],[23.6,56.8699,0.4566],[23.6017,56.8878,0.1338],[23.6099,56.8876,-0.0022],[23.6103,56.8921,-0.1657],[23.6186,56.8918,0.1069],[23.6194,56.9008,-0.2663],[23.5948,56.9015,7.3117],[23.5944,56.897,8.2184],[23.5779,56.8975,13.014],[23.5775,56.893,14.9374],[23.5529,56.8938,25.1822],[23.5533,56.8982,11.6928],[23.5451,56.8985,5.8783],[23.5287,56.899,16.8819],[23.5283,56.8945,14.3991],[23.5118,56.895,9.3982],[23.5123,56.8994,9.2339],[23.504,56.8997,9.5641],[23.5062,56.9221,21.3539],[23.498,56.9223,20.7778],[23.4988,56.9313,14.7219],[23.4906,56.9315,26.9565],[23.491,56.936,15.862],[23.4828,56.9363,21.2042],[23.4832,56.9408,16.7958],[23.475,56.941,18.7217],[23.4758,56.95,13.8955],[23.4841,56.9497,7.5777],[23.4858,56.9677,6.817],[23.494,56.9674,6.6291],[23.4944,56.9719,6.9973],[23.5109,56.9715,9.6804],[23.5113,56.9759,7.382],[23.536,56.9752,13.4385],[23.5364,56.9797,3.5999],[23.5525,56.9796,3.4801],[23.5431,56.986,1.6749],[23.5297,56.991,3.8335],[23.5236,56.9951,4.7229],[23.5192,56.9996,0.8443],[23.5192,57.0026,0.0],[23.5131,57.0121,0.0],[23.5036,57.0215,1.1346],[23.4981,57.0249,0.6609],[23.4925,57.0326,0.0],[23.4825,57.0363,0.0],[23.4486,57.0351,13.8517],[23.4053,57.0387,13.2009],[23.3625,57.046,7.4755],[23.3319,57.0546,2.5401],[23.3103,57.0621,0.0],[23.2781,57.0774,0.0],[23.2636,57.0863,11.035],[23.2508,57.0982,2.5435],[23.2392,57.106,0.0],[23.2369,57.109,9.2322],[23.2347,57.1215,11.83],[23.2364,57.1279,0.0],[23.2308,57.1354,10.9916],[23.2303,57.1413,0.0],[23.2331,57.149,0.0],[23.2319,57.1587,0.0],[23.2397,57.1624,0.0],[23.2325,57.1621,0.0],[23.2325,57.1657,0.1792],[23.2297,57.1671,0.3331],[23.2225,57.1782,10.7746],[23.2125,57.1882,2.8603],[23.2025,57.2082,0.0],[23.1875,57.2218,17.5947],[23.1836,57.229,0.0],[23.1786,57.234,3.176],[23.1764,57.2401,2.8175],[23.1758,57.2499,1.0946],[23.1764,57.2554,3.4261],[23.1803,57.2601,0.0],[23.1797,57.2635,0.0784],[23.1686,57.2732,11.4107],[23.1647,57.2924,7.781],[23.1603,57.3035,2.583],[23.1503,57.3138,0.0],[23.1419,57.319,12.2686],[23.1403,57.3229,2.0562],[23.1367,57.3234,2.0562],[23.1363,57.3189,15.8579],[23.1114,57.3196,23.2496],[23.111,57.3151,9.5909],[23.1027,57.3153,3.175],[23.1008,57.2929,8.5074],[23.1091,57.2926,-0.0949],[23.1068,57.2657,-0.6235],[23.1151,57.2655,-0.3068],[23.1143,57.2565,-0.8051],[23.0894,57.2572,-1.0],[23.089,57.2527,0.2719],[23.0807,57.2529,-0.1072],[23.0804,57.2484,-1.0],[23.0887,57.2482,-1.0],[23.0875,57.2347,0.2413],[23.0709,57.2351,0.3281],[23.0706,57.2307,4.4218],[23.0623,57.2309,11.75],[23.0615,57.2219,20.3813],[23.0532,57.2221,13.9044],[23.0525,57.2131,5.9916],[23.0359,57.2135,10.8058],[23.0355,57.209,20.0271],[23.0273,57.2092,22.5847],[23.0269,57.2048,13.1513],[23.002,57.2054,27.1083],[23.0017,57.2009,26.6751],[22.9934,57.2011,33.9394],[22.993,57.1966,33.1172],[22.9847,57.1968,34.7679],[22.9844,57.1923,23.0111],[22.9761,57.1925,32.6874],[22.9754,57.1835,23.339],[22.9671,57.1837,26.2171],[22.9664,57.1748,31.0667],[22.9581,57.175,42.267],[22.9577,57.1705,44.1284],[22.9495,57.1707,34.4426],[22.9491,57.1662,39.5974],[22.9408,57.1664,31.1004],[22.9405,57.1619,26.8021],[22.9322,57.1621,43.0362],[22.9304,57.1396,31.2132],[22.8973,57.1404,56.2312],[22.8977,57.1449,47.681399999999996],[22.8729,57.1455,68.1115],[22.8732,57.15,62.7983],[22.8649,57.1502,59.4443],[22.8646,57.1457,61.0693],[22.8563,57.1459,75.0535],[22.8481,57.1461,68.5085],[22.8484,57.1506,61.7279],[22.8319,57.151,95.6111],[22.8315,57.1465,103.7113],[22.8232,57.1467,112.121],[22.8229,57.1422,108.4919],[22.8146,57.1424,121.317],[22.815,57.1468,124.8837],[22.8067,57.147,119.9534],[22.806,57.1381,96.5309],[22.7978,57.1382,113.5452],[22.7974,57.1338,104.3716],[22.7891,57.1339,107.4787],[22.7888,57.1295,103.9187],[22.7723,57.1298,88.8348],[22.7713,57.1164,84.9858],[22.7465,57.1169,82.7813],[22.7461,57.1124,73.7208],[22.7379,57.1126,77.7113],[22.7382,57.1171,81.3222],[22.7299,57.1173,83.8803],[22.7296,57.1128,83.5435],[22.7131,57.1132,83.5285],[22.7127,57.1087,89.9083],[22.6714,57.1096,93.8509],[22.6711,57.1051,95.1403],[22.6628,57.1053,93.3192],[22.6625,57.1008,93.7437],[22.6543,57.101,91.6334],[22.6546,57.1055,94.8765],[22.6463,57.1056,97.9323],[22.646,57.1012,91.2547],[22.6377,57.1013,91.1229],[22.6355,57.0699,87.5812],[22.6437,57.0697,89.3477],[22.6434,57.0652,88.8076],[22.6517,57.0651,76.0441],[22.6504,57.0471,86.6687],[22.6586,57.0469,88.7967],[22.658,57.0379,77.3605],[22.6497,57.0381,83.0878],[22.6484,57.0202,35.8825],[22.632,57.0205,82.8296],[22.6323,57.025,97.3847],[22.6075,57.0255,56.3324],[22.6079,57.03,64.5736],[22.5996,57.0302,41.8216],[22.5999,57.0347,85.8807],[22.5917,57.0349,44.1324],[22.5914,57.0304,29.8426],[22.5831,57.0306,49.624],[22.5828,57.0261,80.4449],[22.5765,57.0262,81.1021],[22.5749,57.0307,75.6393],[22.5584,57.0311,80.9936],[22.5581,57.0266,82.9696],[22.5698,57.0263,82.6369],[22.5744,57.0234,80.9917],[22.5743,57.0218,84.489],[22.5825,57.0216,88.0935],[22.5822,57.0171,102.9461],[22.5739,57.0173,92.0862],[22.5736,57.0128,86.0876],[22.5407,57.0135,86.4157],[22.541,57.018,86.3018],[22.5327,57.0181,92.4574],[22.533,57.0226,85.879],[22.5248,57.0228,84.6307],[22.5251,57.0273,84.0507],[22.5086,57.0276,86.2348],[22.5077,57.0141,98.5715],[22.4995,57.0143,89.3646],[22.4991,57.0098,87.2895],[22.4909,57.01,91.8428],[22.4903,57.001,89.2116],[22.4821,57.0012,88.4277],[22.4812,56.9877,94.7545],[22.4647,56.988,82.2184],[22.4635,56.9701,87.675],[22.4553,56.9702,90.3028],[22.455,56.9658,97.1308],[22.4547,56.9613,99.876],[22.4629,56.9611,96.2302],[22.4623,56.9521,102.9744],[22.4458,56.9525,104.3571],[22.4449,56.939,92.7341],[22.4532,56.9388,100.9588],[22.4523,56.9254,109.6247],[22.4605,56.9252,103.7013]]]]}}