{"type": "Feature","id": "5710","bbox": [21.39149,56.90381,21.70606,57.08561],"geometry": {"type": "Polygon","coordinates": [[[21.4934,56.90381,26.9926],[21.51859,56.91059,25.3107],[21.56431,56.91059,33.6613],[21.58489,56.93117,35.6841],[21.63976,56.93345,55.6146],[21.66491,56.94946,66.2342],[21.70606,56.95631,81.2387],[21.69234,56.99747,54.0],[21.65576,57.0089,76.9304],[21.6329,57.03405,55.0071],[21.63976,57.04776,50.0579],[21.60546,57.06148,14.7891],[21.5738,57.08561,26.7177],[21.53903,57.07057,28.8382],[21.50616,57.07561,18.6819],[21.50301,57.05827,24.715],[21.48921,57.05101,30.0458],[21.48487,57.02851,36.5709],[21.47355,57.01295,23.7691],[21.47495,56.98644,24.9764],[21.472,56.97135,29.4037],[21.45433,56.9603,20.5181],[21.44668,56.94965,21.2989],[21.39583,56.94242,29.283],[21.39149,56.93448,28.2158],[21.39723,56.92939,36.5233],[21.40606,56.92345,31.9458],[21.4473,56.91208,18.4727],[21.4934,56.90381,26.9926]]]}
,"properties": {"ISO3166-1-Alpha-3": "LVA","country": "Latvia","fill": "#F0F","name": "Alsungas","area_km2": 205.7588,"hist_schema_id": "Elevation0-9000","hist_area_km2": {"0": 14.7263,"25": 112.8721,"50": 56.4393,"75": 20.7619,"100": 0.9592}}}