{"type":"Feature","properties":{"ISO3166-1-Alpha-3":"LVA","country":"Latvia","fill":"#F0F","id":"5787","name":"Jaunpiebalgas"},
"geometry":{"type": "Polygon","coordinates": [[[26.11678,57.07807,169.6629],[26.13322,57.09708,171.1099],[26.13988,57.10845,163.1375],[26.16133,57.12884,182.6012],[26.16582,57.13424,186.2168],[26.16815,57.14344,188.0985],[26.13167,57.17201,228.6699],[26.10252,57.20126,177.4393],[26.08929,57.20989,171.689],[26.07611,57.21473,163.2245],[26.06216,57.21718,152.6743],[26.01343,57.22106,197.0638],[25.98927,57.20691,188.9184],[25.94543,57.19125,182.8175],[25.89376,57.18499,174.2732],[25.86871,57.18499,180.6438],[25.84992,57.19595,175.9506],[25.81861,57.20691,187.6109],[25.79825,57.20847,188.776],[25.77164,57.19908,187.1159],[25.76381,57.16933,176.0229],[25.77477,57.15367,180.8874],[25.80452,57.13488,197.8445],[25.83896,57.12079,209.2793],[25.86245,57.12079,218.8136],[25.88123,57.09731,219.0174],[25.9231,57.09745,252.2477],[25.94966,57.10039,248.1103],[26.02258,57.07951,224.2707],[26.03839,57.07685,213.4232],[26.04883,57.07677,208.1374],[26.05286,57.08026,211.4754],[26.05627,57.08442,197.3675],[26.06495,57.08871,182.7391],[26.07704,57.08822,173.6738],[26.0896,57.08613,181.7609],[26.11678,57.07807,169.6629]]]}}