{"type":"Feature","properties":{"GID_2":"LVA.1.2_1","GID_0":"LVA","country":"Latvia","GID_1":"LVA.1_1","province":"Kurzeme","NL_NAME_1":"NA","county":"Liepaja","VARNAME_2":"Libau","NL_NAME_2":"NA","TYPE_2":"Aprinki|rajoni","ENGTYPE_2":"District","CC_2":"NA","HASC_2":"LV.LP","name":"Liepaja.county"},
"geometry":{"type": "MultiPolygon","coordinates": [[[[21.3995,56.9465,23.8745],[21.3997,56.9509,30.7805],[21.3915,56.951,28.1839],[21.3918,56.96,20.4705],[21.3836,56.9601,31.2581],[21.3837,56.9646,30.2107],[21.3755,56.9647,30.215699999999998],[21.3757,56.9692,30.01],[21.3674,56.9693,24.313],[21.3676,56.9738,18.7324],[21.3594,56.9739,14.4283],[21.3595,56.9784,12.1081],[21.3525,56.9846,4.9978],[21.3442,56.979,10.3614],[21.3242,56.971,5.451],[21.3203,56.9668,11.9727],[21.3119,56.9635,8.7411],[21.3047,56.9579,1.7473],[21.2892,56.9538,2.244],[21.2803,56.9474,0.0],[21.2786,56.9443,0.0],[21.2797,56.9437,4.9744],[21.2697,56.9346,1.0841],[21.2475,56.9204,9.8617],[21.2469,56.9188,1.0993],[21.2247,56.9085,10.9137],[21.2197,56.9079,4.9043],[21.2058,56.9007,2.9171],[21.1964,56.8982,0.0],[21.1953,56.8965,5.5321],[21.1919,56.8968,1.7901],[21.1847,56.8932,3.9335],[21.1731,56.8901,3.0168],[21.1681,56.8901,3.5103],[21.1653,56.8868,9.1235],[21.1569,56.8826,8.0709],[21.1264,56.8721,0.0],[21.1142,56.8662,6.2036],[21.0964,56.8537,6.4859],[21.0658,56.8426,0.5847],[21.0558,56.8321,0.0],[21.0564,56.8288,6.9859],[21.0536,56.8232,1.7426],[21.0542,56.8115,5.8894],[21.0558,56.7985,1.1775],[21.0592,56.791,2.3676],[21.0581,56.7807,1.4395],[21.0603,56.7496,9.0052],[21.0592,56.746,0.0],[21.0608,56.7432,11.4483],[21.0586,56.7012,3.0975],[21.0558,56.6946,1.2195],[21.0525,56.6724,4.7135],[21.0453,56.6593,0.6741],[21.0408,56.6454,1.5479],[21.0403,56.6365,4.8286],[21.0347,56.6282,0.0],[21.0342,56.6235,1.8335],[21.0297,56.616,3.3686],[21.0286,56.6107,4.1963],[21.0258,56.6079,1.6626],[21.0331,56.6071,6.2262],[21.0264,56.6049,4.3764],[21.0192,56.5999,3.3066],[21.0114,56.5863,0.0],[21.0069,56.5687,15.5881],[21.0031,56.5674,1.0382],[21.0014,56.5649,0.0],[21.0031,56.5593,5.6387],[20.9947,56.5574,0.0],[20.9992,56.5551,5.0893],[20.9986,56.546,0.0],[21.0142,56.5454,0.0],[21.0308,56.5418,0.0],[21.0336,56.5426,0.662],[21.0358,56.5462,0.0],[21.0347,56.5499,4.3402],[21.0386,56.5507,3.7827],[21.0392,56.5488,0.0],[21.0375,56.5482,0.5944],[21.0381,56.5451,2.5867],[21.0364,56.5435,0.0],[21.0442,56.5412,0.0],[21.0514,56.5421,1.9162],[21.0519,56.5407,3.8748],[21.0264,56.5407,2.0995],[21.0125,56.5443,1.0191],[20.9986,56.5451,0.0],[20.9981,56.5324,2.7648],[20.9953,56.5318,1.3152],[20.9958,56.5285,0.9481],[20.9936,56.5276,0.3582],[20.9953,56.5268,1.6672],[20.9953,56.5246,1.1174],[20.9875,56.5218,2.2443],[20.9819,56.5238,0.0989],[20.9836,56.521,0.6862],[20.9886,56.5196,0.3916],[20.9986,56.5221,2.2655],[20.9919,56.5185,1.1055],[20.9858,56.5193,1.0148],[20.9847,56.5179,1.9834],[20.9919,56.506,1.1994],[20.9981,56.4813,0.8044],[21.0008,56.4785,2.6486],[21.0031,56.4549,6.1127],[21.0008,56.4524,1.7211],[21.0008,56.4443,5.2952],[20.9986,56.4412,6.8939],[20.9903,56.4126,5.0994],[20.9797,56.391,0.0],[20.9781,56.381,5.2158],[20.9731,56.3732,2.6134],[20.9714,56.3563,0.0],[20.9719,56.3465,6.5584],[20.9753,56.3343,4.5048],[20.9842,56.3112,4.7473],[20.9864,56.2921,4.4882],[20.9853,56.2729,7.1862],[20.9803,56.249,4.1921],[20.9808,56.2285,0.0],[20.9831,56.2176,3.8098],[20.9986,56.189,3.0922],[21.0008,56.1888,7.5765],[21.0075,56.1768,1.6708],[21.0181,56.1637,2.1117],[21.0192,56.1601,2.2521],[21.0225,56.1576,4.5952],[21.0225,56.1543,1.8277],[21.0253,56.1529,4.9926],[21.0281,56.1451,0.0],[21.0347,56.1374,1.82],[21.0336,56.1362,0.0],[21.0436,56.1199,9.9047],[21.0514,56.099,0.0],[21.0586,56.0863,2.4112],[21.0664,56.0645,2.3332],[21.0855,56.0643,0.5827],[21.0857,56.0688,0.3116],[21.0937,56.0687,0.2929],[21.0938,56.0732,0.3853],[21.1099,56.0731,19.0858],[21.11,56.0776,5.8413],[21.1261,56.0774,18.5641],[21.1263,56.0819,22.7519],[21.1665,56.0815,20.4366],[21.1663,56.077,26.5806],[21.1985,56.0767,14.5125],[21.1986,56.0812,12.2183],[21.2147,56.0811,21.3254],[21.215,56.09,11.4403],[21.2231,56.09,24.561],[21.2235,56.1034,12.7262],[21.2315,56.1034,25.5613],[21.2318,56.1124,12.8593],[21.2399,56.1123,28.5763],[21.2405,56.1302,21.8025],[21.2324,56.1303,27.8211],[21.2329,56.1438,26.9013],[21.2248,56.1439,20.8588],[21.2251,56.1529,20.3352],[21.2331,56.1528,25.9117],[21.2334,56.1618,28.633],[21.2576,56.1615,44.2754],[21.2578,56.166,17.5962],[21.2739,56.1658,32.7118],[21.2742,56.1748,19.3678],[21.2823,56.1747,23.5103],[21.2824,56.1792,20.2695],[21.2905,56.1792,47.6162],[21.2906,56.1836,46.9623],[21.2987,56.1836,38.8028],[21.299,56.1925,24.5131],[21.3071,56.1925,28.2081],[21.3072,56.1969,22.9268],[21.3153,56.1969,31.3944],[21.3156,56.2058,26.88],[21.3237,56.2058,26.8183],[21.3238,56.2103,25.2299],[21.3319,56.2102,30.8396],[21.332,56.2147,24.7113],[21.3401,56.2146,27.2306],[21.3403,56.2191,33.2919],[21.3484,56.219,29.2757],[21.3485,56.2235,30.8307],[21.3566,56.2234,28.6475],[21.3567,56.2279,43.214],[21.381,56.2276,30.3199],[21.3811,56.2321,46.8608],[21.3973,56.2319,31.7254],[21.3974,56.2364,49.2656],[21.4136,56.2362,32.2472],[21.4138,56.2407,30.4514],[21.4299,56.2405,39.1147],[21.4301,56.245,45.7949],[21.4462,56.2448,35.0553],[21.4464,56.2493,44.6056],[21.4545,56.2492,34.5386],[21.4547,56.2537,43.2201],[21.4627,56.2536,30.287],[21.4633,56.2671,31.355],[21.4713,56.267,30.424],[21.4719,56.2804,33.6748],[21.48,56.2803,22.852],[21.4803,56.2893,15.9951],[21.4965,56.2891,17.7432],[21.4967,56.2936,17.3782],[21.5128,56.2934,35.094],[21.5126,56.2889,22.6299],[21.5207,56.2888,18.4382],[21.5288,56.2887,20.0414],[21.529,56.2932,26.334],[21.5452,56.293,23.1897],[21.5454,56.2975,21.9624],[21.5535,56.2974,24.2662],[21.5536,56.3019,25.5474],[21.5617,56.3018,24.4266],[21.5619,56.3063,20.3199],[21.57,56.3062,21.8745],[21.5702,56.3107,24.2116],[21.5783,56.3106,22.2596],[21.5785,56.315,29.7086],[21.5946,56.3148,33.1035],[21.5948,56.3193,33.9858],[21.6029,56.3192,20.9627],[21.6031,56.3237,21.3687],[21.6112,56.3236,23.6505],[21.611,56.3191,23.0549],[21.6596,56.3185,36.376],[21.6594,56.314,33.5354],[21.6917,56.3135,30.6752],[21.6915,56.309,34.5622],[21.6996,56.3089,40.6249],[21.6998,56.3134,32.4375],[21.7241,56.313,36.1051],[21.7243,56.3175,45.2702],[21.7324,56.3174,42.5341],[21.7326,56.3219,59.4935],[21.7407,56.3218,58.1233],[21.7409,56.3263,65.0781],[21.749,56.3262,70.2926],[21.7492,56.3307,78.7505],[21.7654,56.3304,99.3782],[21.7656,56.3349,115.5913],[21.7737,56.3348,119.1552],[21.7739,56.3393,108.017],[21.7901,56.3391,116.2236],[21.7903,56.3435,107.0643],[21.8065,56.3433,113.9704],[21.807,56.3523,109.3048],[21.8151,56.3522,115.7456],[21.8153,56.3567,117.2205],[21.8234,56.3565,116.032],[21.8236,56.361,118.0359],[21.8398,56.3608,128.2451],[21.84,56.3653,119.7923],[21.8562,56.365,126.336],[21.8564,56.3695,126.6352],[21.8645,56.3694,132.2292],[21.8643,56.3649,118.9421],[21.8805,56.3646,117.6242],[21.8803,56.3602,119.0549],[21.9046,56.3598,125.1353],[21.9048,56.3643,119.4393],[21.9291,56.3639,128.3656],[21.9294,56.3684,123.2061],[21.9456,56.3681,119.448],[21.9458,56.3726,118.821],[21.9539,56.3725,113.5755],[21.9541,56.377,112.0129],[21.9703,56.3767,101.2018],[21.9706,56.3812,112.8323],[21.9787,56.3811,97.7357],[21.9789,56.3855,98.2954],[21.987,56.3854,98.8521],[21.9875,56.3944,105.3254],[21.9956,56.3943,110.3919],[21.9968,56.4167,113.7738],[22.0455,56.4159,91.8796],[22.046,56.4249,86.3142],[22.0378,56.425,89.1046],[22.0381,56.4295,94.6505],[22.03,56.4297,93.4635],[22.0305,56.4386,90.435],[22.0223,56.4388,95.0684],[22.0228,56.4478,112.9418],[22.0147,56.4479,109.0435],[22.0149,56.4524,103.0986],[22.0068,56.4525,113.3245],[22.0071,56.457,106.4466],[21.9989,56.4571,117.3071],[21.9992,56.4616,111.2108],[21.9748,56.462,116.9763],[21.975,56.4665,120.5191],[21.9669,56.4667,116.3663],[21.9672,56.4711,109.8981],[21.959,56.4713,104.4239],[21.9593,56.4758,103.9892],[21.9511,56.4759,117.7285],[21.9514,56.4804,110.2773],[21.9595,56.4803,99.2522],[21.96,56.4893,99.8421],[21.9437,56.4895,95.7202],[21.9439,56.494,87.6819],[21.9521,56.4939,96.8734],[21.9525,56.5029,100.1536],[21.9607,56.5027,82.1232],[21.9611,56.5117,87.5138],[21.9693,56.5116,73.9828],[21.9697,56.5206,64.8972],[21.9453,56.521,92.3746],[21.9451,56.5165,103.3027],[21.9288,56.5167,100.1668],[21.9286,56.5122,107.6548],[21.9205,56.5124,102.0538],[21.9207,56.5168,98.453],[21.9126,56.517,109.5671],[21.9133,56.5305,87.5815],[21.9051,56.5306,85.6647],[21.9053,56.5351,106.9187],[21.8972,56.5352,118.9071],[21.897,56.5307,99.2927],[21.8726,56.5311,116.9951],[21.8723,56.5266,113.3614],[21.8642,56.5267,113.7836],[21.8644,56.5312,121.4826],[21.8319,56.5317,129.0211],[21.8321,56.5362,134.094],[21.8158,56.5365,129.365],[21.816,56.5409,136.2161],[21.8079,56.5411,94.5138],[21.8088,56.559,122.721],[21.7843,56.5594,110.5265],[21.7848,56.5684,112.3334],[21.7929,56.5683,99.3265],[21.7931,56.5728,92.2644],[21.785,56.5729,106.2296],[21.7852,56.5774,102.956],[21.7933,56.5772,97.4362],[21.7936,56.5817,91.2186],[21.8017,56.5816,119.8051],[21.8019,56.5861,110.9338],[21.7938,56.5862,110.7],[21.7946,56.6042,125.7745],[21.7865,56.6043,114.444],[21.7867,56.6088,126.1273],[21.7785,56.6089,120.8813],[21.7788,56.6134,111.7228],[21.7706,56.6135,124.1307],[21.7712,56.627,122.8767],[21.7876,56.6268,129.5528],[21.7878,56.6313,127.197],[21.7959,56.6311,132.1174],[21.8041,56.631,122.8938],[21.8039,56.6265,118.8079],[21.812,56.6264,120.1667],[21.8125,56.6354,117.2298],[21.8206,56.6353,114.3923],[21.8213,56.6487,107.8498],[21.8294,56.6486,107.5462],[21.8301,56.6621,124.8578],[21.8219,56.6622,116.402],[21.8222,56.6667,112.4054],[21.814,56.6668,119.1031],[21.8151,56.6893,101.1927],[21.8233,56.6892,110.0943],[21.8235,56.6937,111.1512],[21.8071,56.6939,98.4389],[21.8073,56.6984,102.7122],[21.7992,56.6985,96.3093],[21.7994,56.703,100.8356],[21.7749,56.7034,95.0104],[21.7751,56.7079,92.0768],[21.7587,56.7081,72.3795],[21.7591,56.7171,92.4953],[21.7755,56.7168,107.4889],[21.7764,56.7348,84.4893],[21.7682,56.7349,76.3677],[21.7684,56.7394,70.2414],[21.7602,56.7395,71.6636],[21.7604,56.744,61.9545],[21.7686,56.743899999999996,57.6597],[21.769,56.7529,52.1955],[21.7608,56.753,48.0264],[21.7613,56.762,51.7379],[21.7531,56.7621,45.6707],[21.7533,56.7666,48.8017],[21.7451,56.7667,48.8032],[21.7455,56.7757,48.6648],[21.7373,56.7758,46.0208],[21.7375,56.7803,46.5927],[21.7294,56.7804,43.4384],[21.7291,56.7759,44.1639],[21.721,56.7761,41.9755],[21.7214,56.785,41.16],[21.7132,56.7852,40.813],[21.7134,56.7896,41.9827],[21.697,56.7899,40.7057],[21.6974,56.7989,55.0422],[21.6892,56.799,41.6419],[21.6894,56.8035,46.9745],[21.6812,56.8036,43.8044],[21.681,56.7991,41.7949],[21.64,56.7996,49.6334],[21.6402,56.8041,48.1835],[21.632,56.8042,53.9299],[21.6318,56.7998,51.746],[21.6154,56.8,53.8415],[21.616,56.8134,54.5081],[21.6078,56.8136,57.1253],[21.6084,56.827,45.4128],[21.6002,56.8271,59.0397],[21.6004,56.8316,43.8789],[21.6086,56.8315,45.9786],[21.6092,56.845,36.7844],[21.601,56.8451,31.6274],[21.6012,56.8496,33.6676],[21.593,56.8497,33.6028],[21.5932,56.8542,34.4672],[21.5849,56.8543,34.076],[21.5848,56.8498,40.8046],[21.5683,56.85,32.2786],[21.5681,56.8455,31.4241],[21.5435,56.8458,30.3773],[21.5437,56.8503,35.1115],[21.5273,56.8505,41.2299],[21.5271,56.8461,29.5523],[21.5107,56.8463,25.3183],[21.5118,56.8732,21.9992],[21.5036,56.8733,21.834],[21.5038,56.8778,27.196],[21.4463,56.8785,32.1201],[21.4461,56.874,37.9522],[21.4297,56.8742,27.9642],[21.4298,56.8787,19.6661],[21.438,56.8786,28.1248],[21.4382,56.8831,33.7746],[21.4793,56.8826,23.7507],[21.4798,56.8961,26.1398],[21.4716,56.8962,23.9283],[21.4718,56.9007,27.5463],[21.4882,56.9005,27.5422],[21.4886,56.9095,23.4376],[21.4968,56.9094,24.3422],[21.497,56.9138,27.1385],[21.4888,56.9139,20.6481],[21.489,56.9184,23.5105],[21.4561,56.9188,19.8044],[21.4562,56.9233,32.184],[21.448,56.9234,22.3738],[21.4482,56.9279,35.5437],[21.44,56.928,26.1404],[21.4398,56.9235,22.5953],[21.4316,56.9236,27.7057],[21.4317,56.9281,27.0268],[21.4071,56.9284,36.2196],[21.4072,56.9329,38.4215],[21.399,56.933,22.0756],[21.3995,56.9465,23.8745]]]]}}