{"type": "Feature","id": "4848","bbox": [20.9922,56.44587,21.10322,56.61505],"geometry": {"type": "MultiPolygon","coordinates": [[[[21.01954,56.44708,0.6951],[21.02202,56.45699,2.1724],[21.024,56.47136,4.0884],[21.03582,56.47394,0.8757],[21.03053,56.50015,-0.0274],[21.02426,56.51048,4.0306],[21.00636,56.51996,5.2083],[21.0005,56.51065,6.394],[21.00327,56.49258,6.2499],[21.01059,56.47573,4.0785],[21.00554,56.46552,6.1347],[21.00538,56.44587,3.5753],[21.01954,56.44708,0.6951]]],
[[[21.06725,56.60574,4.629],[21.02064,56.61505,0.0],[21.01051,56.5987,0.0],[21.00034,56.55768,3.2332],[20.99513,56.55337,0.0],[20.9922,56.5489,0.0],[20.99635,56.53783,1.6311],[21.0031,56.53002,8.8998],[21.01051,56.52778,8.6588],[21.01954,56.52709,5.8102],[21.03053,56.52416,4.1118],[21.04811,56.51561,0.2375],[21.05291,56.51105,0.0],[21.07271,56.52328,0.4906],[21.10322,56.53277,4.4292],[21.09376,56.56877,5.6238],[21.07741,56.56283,7.5461],[21.06725,56.60574,4.629]]]]}
,"properties": {"ISO3166-1-Alpha-3": "LVA","country": "Latvia","fill": "#FF0","name": "Liepāja","area_km2": 59.03452,"hist_schema_id": "Elevation0-9000","hist_area_km2": {"0": 52.50543,"25": 6.52909}}}