{"type": "Feature","id": "5769","bbox": [24.79975,56.62039,25.09747,56.8096],"geometry": {"type": "Polygon","coordinates": [[[25.09747,56.73716,92.0911],[25.07497,56.75395,86.5447],[25.05938,56.76953,78.6855],[25.04157,56.78957,78.6452],[25.00596,56.79402,76.7557],[24.96811,56.79847,74.5368],[24.94362,56.8096,81.9508],[24.92359,56.8007,86.6476],[24.90355,56.78734,65.4569],[24.87239,56.76731,74.046],[24.85235,56.76285,54.0647],[24.84567,56.73837,67.1285],[24.81896,56.72946,47.7656],[24.79975,56.71521,33.3172],[24.81777,56.7119,37.1647],[24.83456,56.70881,31.0],[24.85239,56.70171,31.0],[24.86817,56.69542,31.0],[24.87817,56.68252,43.5179],[24.9052,56.64765,38.0983],[24.91969,56.6402,32.38],[24.93808,56.63821,38.4605],[24.95711,56.63189,38.3112],[24.97514,56.62589,69.9865],[24.99171,56.62039,82.8798],[25.02434,56.62455,61.1702],[25.02124,56.63212,75.9615],[25.01489,56.64094,80.4983],[25.01737,56.67168,70.1443],[25.0169,56.6815,94.3488],[25.01954,56.68755,92.2889],[25.0245,56.69055,85.7436],[25.03272,56.69282,81.8927],[25.04176,56.69416,80.0989],[25.05525,56.70137,87.8981],[25.0537,56.7061,83.7066],[25.04656,56.70822,81.4726],[25.04191,56.71308,82.4721],[25.03613,56.7168,85.1257],[25.03664,56.72078,88.0069],[25.02868,56.72713,78.1887],[25.09747,56.73716,92.0911]]]}
,"properties": {"ISO3166-1-Alpha-3": "LVA","country": "Latvia","fill": "#F0F","name": "Lielvardes","area_km2": 196.3819,"hist_schema_id": "Elevation0-9000","hist_area_km2": {"25": 4.9604,"50": 46.2377,"75": 134.0888,"100": 11.095}}}