{"type":"Feature","properties":{"ISO3166-1-Alpha-3":"LVA","country":"Latvia","fill":"#00F","id":"5749","name":"Ilukstes"},
"geometry":{"type": "Polygon","coordinates": [[[26.34535,56.09345,89.6296],[26.31631,56.12272,89.538],[26.31507,56.13073,91.3581],[26.31863,56.135,89.125],[26.3207,56.14153,88.7568],[26.31755,56.14593,94.7355],[26.31305,56.15037,105.7816],[26.30499,56.15347,103.2142],[26.2822,56.15895,89.3331],[26.25719,56.16208,94.8556],[26.24339,56.16706,106.7767],[26.21967,56.16603,115.0641],[26.20582,56.1636,114.4518],[26.13895,56.1311,114.9069],[26.15136,56.12102,103.6213],[26.15306,56.11828,104.0428],[26.15244,56.10919,117.3621],[26.12934,56.09838,89.3744],[26.1205,56.10071,89.118],[26.10857,56.10149,103.415],[26.09756,56.09601,108.8955],[26.09239,56.0896,117.8536],[26.07937,56.0788,128.7609],[26.05891,56.06774,133.7663],[26.0463,56.06635,138.7491],[26.037,56.06857,146.0911],[26.02552,56.07942,144.5194],[26.00769,56.08727,133.4589],[25.98956,56.08053,133.133],[25.98222,56.07588,134.3642],[25.95447,56.06288,146.8244],[25.94176,56.06172,143.0178],[25.9262,56.07069,139.8868],[25.91597,56.08007,134.1943],[25.83127,56.12285,101.5092],[25.83468,56.10962,123.7837],[25.83809,56.10428,116.0308],[25.85096,56.09314,146.5859],[25.85391,56.08867,131.1071],[25.8598,56.08185,129.8414],[25.84879,56.07487,128.1615],[25.8446,56.06544,127.8918],[25.83763,56.0581,128.0019],[25.8106,56.04821,124.7636],[25.79572,56.04025,138.8762],[25.7955,56.04013,138.8762],[25.87127,55.99214,130.2447],[25.96125,55.95846,132.0519],[26.01762,55.93736,125.9941],[26.07942,55.89814,174.6793],[26.17864,55.84959,152.1741],[26.20375,55.82745,159.3853],[26.22691,55.79693,151.9354],[26.25842,55.80492,168.8624],[26.29151,55.80658,159.5612],[26.34942,55.80989,148.483],[26.33618,55.83967,136.0],[26.27662,55.88103,194.8414],[26.31964,55.9075,149.5567],[26.30309,55.91743,111.3908],[26.28655,55.92405,110.5993],[26.29151,55.94059,104.5107],[26.31798,55.95052,115.2663],[26.33784,55.96541,113.4527],[26.37258,55.95383,121.9801],[26.39297,55.97773,90.2592],[26.37656,55.99775,100.1498],[26.36549,56.02167,89.5887],[26.36964,56.04377,96.7371],[26.35703,56.05545,89.0063],[26.3484,56.07319,89.2012],[26.34535,56.09345,89.6296]]]}}