{"type": "Feature","id": "5743","bbox": [27.41662,56.83661,27.74578,57.03146],"geometry": {"type": "Polygon","coordinates": [[[27.64438,56.84177,100.7572],[27.62837,56.84415,97.5271],[27.64873,56.87927,104.2044],[27.71513,56.9574,92.2262],[27.71855,56.96872,97.0863],[27.72077,56.98867,93.07],[27.72335,56.9988,91.7742],[27.72955,57.00985,106.1805],[27.74578,57.03146,112.2948],[27.69003,57.02297,110.0244],[27.63762,57.01842,106.8732],[27.66496,56.9888,97.078],[27.61256,56.98424,110.9697],[27.51915,56.95462,116.6211],[27.53737,56.93412,118.004],[27.49408,56.91361,117.6154],[27.44396,56.91589,117.0444],[27.41662,56.90222,111.7774],[27.43484,56.88399,124.2624],[27.4467,56.85266,117.2024],[27.51814,56.85798,120.4],[27.52993,56.86289,126.4242],[27.54962,56.86694,112.1309],[27.5616,56.87074,116.9199],[27.56765,56.86733,118.8312],[27.57184,56.86382,137.0749],[27.58129,56.85762,110.4604],[27.60083,56.85245,109.504],[27.61499,56.84501,99.4876],[27.63716,56.83661,104.4453],[27.64438,56.84177,100.7572]]]}
,"properties": {"ISO3166-1-Alpha-3": "LVA","country": "Latvia","fill": "#F0F","name": "Baltinavas","area_km2": 185.6616,"hist_schema_id": "Elevation0-9000","hist_area_km2": {"75": 3.2685,"100": 96.2272,"125": 84.741,"150": 1.4248}}}