{"type":"Feature","properties":{"ISO3166-1-Alpha-3":"LVA","country":"Latvia","fill":"#F0F","id":"5761","name":"Ikskiles"},
"geometry":{"type": "Polygon","coordinates": [[[24.57435,56.88666,42.328],[24.52019,56.90007,20.1143],[24.50701,56.89648,17.2971],[24.51135,56.87787,18.4879],[24.50779,56.87301,18.6373],[24.49988,56.87035,31.8132],[24.49182,56.87162,35.0626],[24.48562,56.87537,36.9803],[24.47973,56.88048,24.9888],[24.46929,56.88418,21.4322],[24.45735,56.88684,40.762],[24.43983,56.88748,8.8818],[24.43565,56.88402,18.7073],[24.43782,56.87823,19.0117],[24.44448,56.87237,35.7994],[24.4482,56.86555,26.7126],[24.44758,56.85756,23.4899],[24.44293,56.84529,18.987],[24.44402,56.83767,15.0],[24.45218,56.83793,15.0],[24.45776,56.83754,15.0],[24.47585,56.83222,15.5125],[24.50531,56.81852,17.4398],[24.5127,56.8171,19.3587],[24.52556,56.81428,17.7807],[24.56593,56.81643,16.5],[24.58766,56.8122,18.2564],[24.61661,56.82463,61.3887],[24.66667,56.85324,58.5508],[24.70064,56.83893,59.0553],[24.7364,56.86575,53.8851],[24.70243,56.87469,67.0689],[24.69327,56.89547,62.8369],[24.57435,56.88666,42.328]]]}}