{"type":"Feature","properties":{"ISO3166-1-Alpha-3":"LVA","country":"Latvia","fill":"#FF0","id":"5711","name":"Brocenu"},
"geometry":{"type": "Polygon","coordinates": [[[22.64201,56.80821,98.5564],[22.64588,56.81635,98.2307],[22.63426,56.82413,99.82],[22.5863,56.83715,116.035],[22.52765,56.8416,102.0846],[22.49085,56.85152,94.7949],[22.46281,56.80542,108.9362],[22.44223,56.77113,146.7799],[22.46052,56.73683,121.8522],[22.48796,56.72312,124.431],[22.4971,56.68425,106.1629],[22.50168,56.63852,117.8281],[22.53597,56.62023,140.1786],[22.54969,56.57908,136.1142],[22.57484,56.56765,131.4603],[22.60456,56.59966,122.8455],[22.65486,56.60423,140.5479],[22.69372,56.58823,120.3689],[22.71207,56.56537,130.1199],[22.73229,56.56528,120.1041],[22.7359,56.56554,120.6971],[22.75513,56.56203,131.7104],[22.77342,56.5675,120.5763],[22.79812,56.56833,120.1768],[22.79192,56.57898,116.5047],[22.78861,56.58135,109.8293],[22.78443,56.58577,108.5596],[22.77869,56.58781,118.0042],[22.77699,56.59179,106.3143],[22.77668,56.59665,109.9321],[22.77699,56.60135,119.6988],[22.78086,56.60611,128.9115],[22.79316,56.60729,113.9028],[22.81719,56.60735,109.5578],[22.82928,56.6105,112.4092],[22.84076,56.61719,100.7493],[22.8543,56.63086,115.5795],[22.85926,56.64424,91.0133],[22.83781,56.65845,114.2342],[22.82866,56.67158,125.5048],[22.80525,56.67838,131.3882],[22.80014,56.69602,132.1233],[22.82603,56.69809,113.2417],[22.81843,56.70822,124.646],[22.81487,56.71106,120.4989],[22.8144,56.71525,114.4808],[22.8189,56.71783,118.4768],[22.82479,56.71979,114.1893],[22.82866,56.72597,111.0508],[22.82665,56.73375,105.1467],[22.8206,56.77155,102.1151],[22.78768,56.79679,134.0416],[22.78892,56.80387,128.998],[22.7188,56.80201,139.3112],[22.67906,56.80956,128.2473],[22.64201,56.80821,98.5564]]]}}