{"type": "Feature","id": "5785","bbox": [26.17088,56.92822,26.40574,57.09791],"geometry": {"type": "Polygon","coordinates": [[[26.36938,57.04463,134.4913],[26.32892,57.07187,130.9179],[26.32132,57.09791,125.5153],[26.27166,57.08711,139.6437],[26.21518,57.08913,154.9891],[26.18319,57.08261,138.7753],[26.18654,57.05817,171.248],[26.17558,57.03468,172.1841],[26.17715,57.0065,219.2021],[26.18654,56.98458,245.8375],[26.17245,56.96579,247.3935],[26.17088,56.95327,250.9859],[26.18184,56.95327,249.0364],[26.20063,56.9517,257.1824],[26.22255,56.92822,245.4193],[26.24291,56.92978,223.534],[26.26796,56.93135,210.0242],[26.28674,56.94074,206.7662],[26.32589,56.93135,125.2677],[26.35877,56.93135,112.4853],[26.3525,56.94857,120.3436],[26.37442,56.9564,106.0119],[26.39321,56.97049,111.5862],[26.40574,56.98928,109.8432],[26.38382,57.00493,116.4986],[26.37599,57.03155,132.0422],[26.36938,57.04463,134.4913]]]}
,"properties": {"ISO3166-1-Alpha-3": "LVA","country": "Latvia","fill": "#F0F","name": "Cesvaines","area_km2": 195.3155,"hist_schema_id": "Elevation0-9000","hist_area_km2": {"100": 8.8626,"125": 66.8698,"150": 41.6295,"175": 22.6017,"200": 22.5388,"225": 21.1257,"250": 11.1556,"275": 0.4971,"300": 0.0347}}}