{"type":"Feature","properties":{"ISO3166-1-Alpha-3":"LVA","country":"Latvia","fill":"#00F","id":"5729","name":"Kokneses"},
"geometry":{"type": "Polygon","coordinates": [[[25.69221,56.77049,153.9796],[25.6688,56.78899,157.4519],[25.64162,56.79212,142.6383],[25.60519,56.80248,138.9841],[25.56173,56.80258,149.0187],[25.5054,56.8131,131.8938],[25.43745,56.77519,100.2984],[25.39119,56.76126,97.2674],[25.37802,56.76005,112.951],[25.3651,56.76284,102.9652],[25.35347,56.76253,99.3476],[25.35394,56.75933,90.5648],[25.35611,56.75338,102.4649],[25.32603,56.75798,93.4476],[25.29528,56.75452,91.3227],[25.26815,56.74522,105.2489],[25.25709,56.73612,88.7041],[25.29311,56.72336,82.4871],[25.29807,56.71933,85.1586],[25.29652,56.71628,82.0408],[25.29559,56.71302,94.0554],[25.27839,56.69685,93.6544],[25.29313,56.67603,90.2413],[25.29313,56.63151,103.0958],[25.29337,56.59111,68.0],[25.33017,56.5976,76.1182],[25.36671,56.61437,85.1409],[25.39845,56.63072,69.5],[25.42311,56.62731,91.800299999999993],[25.46477,56.6129,90.6418],[25.48723,56.61347,71.345],[25.49553,56.61184,74.2125],[25.5202,56.6137,83.2808],[25.53133,56.64264,110.3403],[25.58254,56.67603,95.53],[25.56918,56.71165,116.4988],[25.61593,56.7161,102.5596],[25.61593,56.73837,122.2726],[25.59589,56.75172,115.0809],[25.60035,56.76508,115.662],[25.62706,56.76285,122.544],[25.656,56.75395,113.6901],[25.69221,56.77049,153.9796]]]}}