{"type":"Feature","properties":{"ISO3166-1-Alpha-3":"LVA","country":"Latvia","fill":"#FF0","id":"5755","name":"Alojas"},
"geometry":{"type": "Polygon","coordinates": [[[24.81681,57.97667,52.9191],[24.79077,57.97899,52.3964],[24.76472,57.98791,53.8776],[24.73351,57.9922,57.0342],[24.71883,57.98184,53.4041],[24.70044,57.95419,52.316],[24.68483,57.94758,54.3153],[24.62406,57.94396,47.3482],[24.58245,57.94601,55.4629],[24.588,57.92089,46.6268],[24.59078,57.89447,42.4934],[24.5741,57.88195,38.1029],[24.59774,57.87082,42.6926],[24.64919,57.7707,58.2599],[24.6923,57.76096,61.4894],[24.7076,57.74983,63.0396],[24.74793,57.73176,76.023],[24.79939,57.73315,74.9453],[24.82859,57.71924,76.0973],[24.82442,57.69977,84.8975],[24.83137,57.66639,71.6665],[24.89256,57.65249,83.6441],[24.88144,57.62467,83.3803],[24.93453,57.61204,92.1401],[24.96631,57.62842,85.6956],[24.99148,57.63648,85.3962],[25.00016,57.63586,86.8012],[25.00574,57.63612,86.9785],[25.01907,57.63814,88.6749],[25.02403,57.63736,98.3219],[25.0276,57.63426,83.4045],[25.03303,57.63018,101.6709],[25.04238,57.62584,84.7946],[25.0616,57.62395,80.1737],[25.0678,57.62646,79.3724],[25.0847,57.62976,69.0463],[25.08331,57.63411,81.82],[25.07587,57.6387,75.6864],[25.06331,57.64811,79.4688],[25.06222,57.6524,82.5612],[25.06703,57.65498,87.883],[25.09375,57.65312,80.8768],[25.08532,57.67462,78.5904],[25.09245,57.68824,80.3261],[25.08222,57.69689,82.5083],[25.07571,57.70594,74.6992],[25.07618,57.71451,72.3556],[25.08021,57.72123,78.8888],[25.08718,57.72717,72.7944],[25.0909,57.73126,70.8604],[25.09871,57.73601,67.3187],[25.08362,57.75415,73.7301],[25.07726,57.76717,67.6879],[25.01747,57.79647,69.5671],[25.00745,57.80138,68.9043],[24.96569,57.80831,67.4797],[24.95329,57.80009,69.4818],[24.946,57.81753,66.1164],[24.94197,57.81862,66.9778],[24.93825,57.81906,67.635],[24.93313,57.81756,70.9682],[24.92616,57.81709,57.7704],[24.90936,57.82066,62.1949],[24.90115,57.82551,66.4722],[24.89572,57.8312,56.9782],[24.8934,57.84337,58.971],[24.88781,57.85854,58.469],[24.88518,57.87153,55.3812],[24.88347,57.88375,59.2048],[24.88502,57.88908,57.8225],[24.88192,57.893,50.6634],[24.8734,57.89802,47.1058],[24.86404,57.90032,51.7889],[24.84234,57.90094,66.7791],[24.82761,57.98013,52.5652],[24.82742,57.98188,56.4442],[24.81681,57.97667,52.9191]]]}}