{"type": "Feature","id": "5748","bbox": [26.88847,55.98226,27.339,56.21078],"geometry": {"type": "Polygon","coordinates": [[[27.29594,56.20303,166.8713],[27.17305,56.2083,163.8163],[27.1623,56.21078,166.7393],[27.15083,56.20843,174.2125],[27.12587,56.19585,160.8623],[27.10241,56.18908,156.8567],[27.09962,56.18639,156.2161],[27.0976,56.182,144.5],[27.09822,56.17957,154.1072],[27.10163,56.17076,151.7181],[27.0776,56.17091,145.2316],[27.05419,56.17332,144.5],[27.04407,56.17595,144.5],[27.03802,56.18011,144.5],[26.99963,56.17056,144.5],[26.96819,56.16891,159.7775],[26.9318,56.15733,157.1508],[26.92021,56.14575,151.4945],[26.93676,56.13582,167.9242],[26.92849,56.12424,159.8588],[26.88847,56.12887,157.9747],[26.89079,56.10505,151.9037],[26.9311,56.0587,149.6693],[26.96867,56.0602,152.8754],[26.95193,56.04102,144.9891],[26.95363,56.03431,167.2258],[26.95828,56.02712,150.2301],[26.96944,56.01364,166.043],[26.96774,56.00785,154.9863],[26.99988,55.99003,163.8079],[27.0413,55.98226,170.4065],[27.10343,55.98744,206.1135],[27.14743,55.98485,210.1897],[27.19403,56.01074,175.2435],[27.18886,56.05475,159.7806],[27.26393,56.07287,173.925],[27.24063,56.1117,160.7177],[27.30794,56.12464,181.7774],[27.339,56.14018,193.419],[27.33124,56.16089,212.4576],[27.30017,56.1816,172.2189],[27.29594,56.20303,166.8713]]]}
,"properties": {"ISO3166-1-Alpha-3": "LVA","country": "Latvia","fill": "#F0F","name": "Aglonas","area_km2": 440.5253,"hist_schema_id": "Elevation0-9000","hist_area_km2": {"125": 2.1175,"150": 173.8799,"175": 224.2415,"200": 37.5728,"225": 2.7017,"250": 0.0119}}}