{"type": "Feature","id": "5712","bbox": [21.77674,56.50404,22.18922,56.82371],"geometry": {"type": "Polygon","coordinates": [[[22.16266,56.79503,56.4003],[22.11301,56.80771,45.5301],[22.09244,56.82371,35.6539],[22.03071,56.82371,43.062],[21.9827,56.82142,43.1998],[21.93468,56.79856,39.6484],[21.95983,56.73226,41.6942],[21.93011,56.71854,37.1258],[21.88667,56.72083,84.2048],[21.84095,56.70483,123.7162],[21.82299,56.68786,110.4173],[21.80935,56.66933,116.6663],[21.81524,56.66192,115.0326],[21.82438,56.64714,106.9982],[21.82051,56.63915,113.0103],[21.81384,56.62964,113.1931],[21.80299,56.62285,113.4568],[21.77674,56.6137,111.7228],[21.77772,56.61019,120.8813],[21.79059,56.59706,107.852],[21.79524,56.58864,117.605],[21.79369,56.58342,98.1419],[21.79539,56.57334,90.1718],[21.79322,56.55438,112.7465],[21.80749,56.53846,114.6696],[21.81803,56.53084,99.4015],[21.83307,56.52397,101.2363],[21.85079,56.52115,104.6573],[21.86614,56.52043,101.937],[21.89348,56.52301,98.8058],[21.90417,56.52151,102.7037],[21.90836,56.51745,114.5749],[21.91006,56.51205,118.5981],[21.91239,56.50792,114.7632],[21.92061,56.50694,115.995],[21.95693,56.51417,89.2191],[21.9667,56.50663,85.3188],[21.99786,56.50593,87.4577],[22.0097,56.50797,75.2462],[22.02427,56.50746,83.5473],[22.03745,56.50404,81.2279],[22.05605,56.50906,60.1107],[22.05744,56.52327,48.5393],[22.04907,56.52906,61.1769],[22.01822,56.5426,69.1347],[22.01171,56.5475,37.5447],[22.0114,56.55505,39.3004],[22.0606,56.56451,80.2881],[22.09997,56.56854,77.7356],[22.12127,56.57634,80.5909],[22.12607,56.58221,82.7719],[22.12344,56.58763,78.2024],[22.11858,56.59236,66.1721],[22.11537,56.60381,60.5172],[22.11253,56.60952,56.4801],[22.10928,56.61362,59.5101],[22.11191,56.62569,55.3355],[22.11145,56.64667,51.7239],[22.10354,56.67287,67.7058],[22.11222,56.68295,45.7601],[22.12545,56.69013,63.6744],[22.15599,56.70031,66.6759],[22.167,56.70822,65.8975],[22.17398,56.71597,56.211],[22.181,56.72853,63.6449],[22.18891,56.73566,69.5486],[22.18922,56.74176,56.1778],[22.18596,56.74811,71.9459],[22.17449,56.76589,56.9014],[22.16266,56.79503,56.4003]]]}
,"properties": {"ISO3166-1-Alpha-3": "LVA","country": "Latvia","fill": "#00F","name": "Skrundas","area_km2": 552.4213,"hist_schema_id": "Elevation0-9000","hist_area_km2": {"0": 0.0232,"25": 105.4847,"50": 219.1001,"75": 105.4317,"100": 79.154,"125": 42.1996,"150": 0.9695,"175": 0.0585}}}