{"type":"Feature","properties":{"id":103989.0,"name":"Babites Ezers","lge_id":null,"pfafstette":121.0,"lke_type":"N","altitude":-2,"objectid":56767,"scalerank":12,"featurecla":"Lake","note":null,"funkyname":0,"min_zoom":7.0,"min_label":8.0},
"geometry":{"type": "Polygon","coordinates": [[[23.653086784771233,56.893988348431577,0.1174],[23.653086784771233,56.893988348431577,0.1174],[23.677500847271233,56.894598699994077,0.0689],[23.698496941021233,56.899176336712827,-0.1759],[23.723155144146233,56.901922918744077,0.9414],[23.740977409771233,56.909857489056577,0.0447],[23.758921745708733,56.913458563275327,0.0544],[23.806895378521233,56.927130438275327,0.5501],[23.837290886333733,56.945379949994077,-0.248],[23.823008659771233,56.948126532025327,0.4302],[23.794444206646233,56.941107489056577,0.0419],[23.772593620708733,56.935675360150327,0.0295],[23.748301628521233,56.931463934369077,0.412],[23.708750847271233,56.924750067181577,0.3588],[23.685923698833733,56.919256903119077,0.0034],[23.667124870708733,56.913458563275327,-0.2254],[23.645518425396233,56.904974676556577,-0.2769],[23.653086784771233,56.893988348431577,0.1174]]]}}