{"type":"Feature","properties":{"id":103571.0,"name":"Lake Usmas","lge_id":null,"pfafstette":397.0,"lke_type":"N","altitude":21,"objectid":56172,"scalerank":11,"featurecla":"Lake","note":null,"funkyname":0,"min_zoom":6.7,"min_label":7.7},
"geometry":{"type": "Polygon","coordinates": [[[22.176036003521233,57.127936102337827,20.0],[22.176036003521233,57.127936102337827,20.0],[22.187266472271233,57.131598211712827,20.0],[22.196665886333733,57.154974676556577,20.0],[22.203868034771233,57.174444891400327,20.0],[22.209361198833733,57.185980535931577,20.8543],[22.205821159771233,57.201178289837827,45.325],[22.198496941021233,57.212408758587827,20.1653],[22.204600456646233,57.222723699994077,20.0],[22.211192253521233,57.230353094525327,36.4645],[22.200938347271233,57.234930731244077,21.4968],[22.181407097271233,57.241949774212827,43.5101],[22.167491081646233,57.235480047650327,29.8675],[22.157115105083733,57.219366766400327,30.3904],[22.134043816021233,57.217596746869077,27.357],[22.112437370708733,57.206061102337827,36.5991],[22.110606316021233,57.182928778119077,20.4802],[22.126231316021233,57.175909735150327,20.0],[22.147959831646233,57.176275946087827,20.0],[22.151377800396233,57.163824774212827,26.1066],[22.158091667583733,57.150763250775327,20.0],[22.170909050396233,57.137945867962827,31.2241],[22.176036003521233,57.127936102337827,20.0]],
[[22.152598503521233,57.177740789837827,20.0],[22.152598503521233,57.177740789837827,20.0],[22.153819206646233,57.186285711712827,20.0],[22.172007683208733,57.193243719525327,20.0],[22.178965691021233,57.189337469525327,21.1972],[22.170176628521233,57.180182196087827,38.6475],[22.152598503521233,57.177740789837827,20.0]]]}}