{"type":"Feature","properties":{"id":104512.0,"name":"Pljavinjas","lge_id":null,"pfafstette":1791.0,"lke_type":"N","altitude":72,"objectid":57968,"scalerank":12,"featurecla":"Lake","note":null,"funkyname":0,"min_zoom":7.0,"min_label":8.0},
"geometry":{"type": "Polygon","coordinates": [[[25.528086784771233,56.580206610150327,94.2919],[25.528086784771233,56.580206610150327,94.2919],[25.561289909771233,56.578070379681577,76.6802],[25.575205925396233,56.577765203900327,90.1619],[25.605723503521233,56.584112860150327,71.6466],[25.629161003521233,56.589911199994077,71.8944],[25.649180534771233,56.594183660931577,69.5],[25.660411003521233,56.604864813275327,79.3088],[25.644541862896233,56.605108953900327,104.5202],[25.616953972271233,56.596930242962827,87.5054],[25.592051628521233,56.588751532025327,91.5057],[25.562266472271233,56.585333563275327,89.8845],[25.543711784771233,56.587164617962827,80.7872],[25.522105339458733,56.587469793744077,90.3992],[25.495616081646233,56.590216375775327,81.8246],[25.496226433208733,56.604254461712827,69.5],[25.482188347271233,56.623053289837827,84.4242],[25.453623894146233,56.640692449994077,87.0101],[25.433360222271233,56.650397039837827,86.1397],[25.392954948833733,56.643683172650327,111.3148],[25.357432487896233,56.630011297650327,84.1376],[25.347300651958733,56.624273992962827,86.0722],[25.329966667583733,56.614569403119077,90.712],[25.281260612896233,56.603949285931577,88.2876],[25.252696159771233,56.595465399212827,68.0],[25.270030144146233,56.586004949994077,68.0],[25.300181511333733,56.590216375775327,68.0],[25.331797722271233,56.604498602337827,71.4748],[25.359385612896233,56.620978094525327,69.0],[25.377452019146233,56.630682684369077,69.0],[25.404429558208733,56.637945867962827,85.6542],[25.446299675396233,56.631842352337827,69.5],[25.476817253521233,56.618536688275327,80.835],[25.490489128521233,56.610907293744077,69.5],[25.484629753521233,56.598761297650327,90.7758],[25.486582878521233,56.586554266400327,70.6539],[25.528086784771233,56.580206610150327,94.2919]]]}}