{"type": "Feature","id": "5781","bbox": [25.09057,56.9343,25.6182,57.29615],"geometry": {"type": "Polygon","coordinates": [[[25.31759,57.23196,159.3804],[25.31916,57.25857,122.5835],[25.28784,57.28049,134.7951],[25.23148,57.29615,107.9114],[25.23148,57.28519,112.1271],[25.20643,57.26484,117.8159],[25.16572,57.26327,97.5781],[25.13128,57.2664,31.1551],[25.09057,57.24761,88.2051],[25.10466,57.23352,104.008],[25.1391,57.23352,101.5123],[25.15946,57.22726,68.2098],[25.17198,57.20691,121.7564],[25.17825,57.18186,134.6525],[25.18921,57.16307,179.8458],[25.21269,57.14584,201.4377],[25.19547,57.13332,210.3629],[25.17355,57.11766,214.9638],[25.13754,57.1114,210.3727],[25.11249,57.10983,162.3151],[25.13754,57.08948,167.5271],[25.16885,57.06756,148.2973],[25.13284,57.0519,115.5889],[25.15006,57.03312,110.4801],[25.16885,57.01433,116.9179],[25.16729,56.99867,117.098],[25.14754,56.98939,104.1735],[25.13808,56.98006,101.5853],[25.14258,56.95079,106.5699],[25.23399,56.9343,122.7608],[25.25167,56.93487,140.3002],[25.24841,56.93715,134.0096],[25.24671,56.93963,120.8208],[25.24733,56.94267,116.4944],[25.25699,56.94722,146.0266],[25.2618,56.95285,148.3391],[25.27482,56.95854,159.5531],[25.28412,56.96482,158.7926],[25.32743,56.97725,190.9928],[25.3437,56.97743,185.6581],[25.35456,56.97363,179.7842],[25.36169,56.96683,169.569],[25.36717,56.95957,158.6495],[25.37027,56.95298,169.8204],[25.37161,56.94805,172.5731],[25.37223,56.94143,172.8263],[25.39585,56.9373,146.7655],[25.4267,56.94867,157.93],[25.45264,56.96962,184.4399],[25.45016,56.97743,200.164],[25.44737,56.98192,200.256],[25.4469,56.99159,191.5914],[25.46876,56.98836,195.7884],[25.47264,56.98903,218.3936],[25.48819,56.99445,211.8136],[25.50392,56.99482,206.2035],[25.504,56.99482,206.2035],[25.51017,57.00806,223.6762],[25.49295,57.02685,222.5979],[25.50704,57.03625,213.559],[25.52896,57.02059,197.063],[25.54775,57.02059,210.977],[25.58689,57.05034,218.4804],[25.61664,57.066,230.49],[25.6182,57.08009,220.8063],[25.59472,57.10983,208.427],[25.56497,57.11297,208.3306],[25.54148,57.12236,218.9765],[25.5634,57.14741,215.7065],[25.53209,57.1568,216.3064],[25.5086,57.1568,200.8106],[25.49608,57.15211,199.9545],[25.4585,57.1568,198.9563],[25.44441,57.1709,193.0582],[25.41153,57.18655,171.694],[25.38022,57.18812,161.4693],[25.36456,57.20534,160.7512],[25.36926,57.21943,181.1653],[25.35986,57.23196,196.4734],[25.31759,57.23196,159.3804]]]}
,"properties": {"ISO3166-1-Alpha-3": "LVA","country": "Latvia","fill": "#F0F","name": "Amatas","area_km2": 699.2811,"hist_schema_id": "Elevation0-9000","hist_area_km2": {"25": 0.1376,"50": 2.0414,"75": 8.0629,"100": 40.3281,"125": 65.034,"150": 67.909,"175": 123.6125,"200": 244.501,"225": 136.537,"250": 11.1059,"275": 0.0115}}}