{"type": "Feature","id": "5746","bbox": [27.84122,56.14067,28.21727,56.43788],"geometry": {"type": "Polygon","coordinates": [[[28.06903,56.42235,119.4393],[28.02244,56.43788,129.1248],[27.97843,56.43271,149.4174],[27.99137,56.40423,169.1612],[28.01208,56.38352,129.4258],[27.99137,56.37575,154.4556],[27.95513,56.37834,157.1214],[27.91371,56.35504,175.0479],[27.87747,56.33174,183.0391],[27.84122,56.32139,200.9483],[27.86452,56.28515,185.6382],[27.9163,56.28515,171.8676],[27.93183,56.30845,183.7626],[28.00432,56.33174,157.0262],[28.04315,56.31362,153.9748],[28.09492,56.29809,158.2472],[28.12081,56.27479,166.0965],[28.08974,56.23855,152.5415],[28.07041,56.20851,158.2136],[28.07754,56.19673,164.0929],[28.06261,56.1821,166.6692],[28.04369,56.15802,169.2087],[28.04726,56.15089,172.3721],[28.05093,56.14112,145.4011],[28.0511,56.14067,145.4011],[28.06824,56.14758,141.983],[28.11098,56.15681,141.0283],[28.14891,56.14241,148.0943],[28.16911,56.16174,148.6785],[28.17862,56.18391,132.5241],[28.18441,56.20753,129.6365],[28.19314,56.23104,168.2472],[28.20136,56.24168,169.7185],[28.20942,56.24814,158.5414],[28.21531,56.256,165.0882],[28.21727,56.27073,123.9605],[28.21479,56.28137,121.9595],[28.17443,56.34964,117.6865],[28.16715,56.36987,126.5291],[28.16425,56.39281,126.7051],[28.16787,56.42713,118.2542],[28.11822,56.42235,131.2742],[28.06903,56.42235,119.4393]]]}
,"properties": {"ISO3166-1-Alpha-3": "LVA","country": "Latvia","fill": "#F0F","name": "Zilupes","area_km2": 316.5694,"hist_schema_id": "Elevation0-9000","hist_area_km2": {"100": 2.5102,"125": 120.1674,"150": 138.5866,"175": 33.3845,"200": 21.1448,"225": 0.7759}}}