{"type": "Feature","id": "5792","bbox": [25.26123,57.78934,25.66608,58.00825],"geometry": {"type": "Polygon","coordinates": [[[25.55182,57.94986,87.4362],[25.55025,57.955329999999996,88.754],[25.54168,57.96282,91.3616],[25.53196,57.96644,95.8669],[25.49661,57.9706,91.6539],[25.45718,57.98406,86.9347],[25.41973,58.00825,77.836],[25.40683,57.99131,71.9873],[25.4037,57.97096,74.3256],[25.37082,57.96939,65.7125],[25.34577,57.96626,63.9244],[25.34108,57.98505,58.2501],[25.32698,57.99131,64.1101],[25.30193,57.97096,72.6507],[25.27845,57.95373,62.3858],[25.26123,57.93808,54.8808],[25.27062,57.91303,49.3041],[25.30037,57.9052,45.1459],[25.33638,57.90363,59.6037],[25.3583,57.88171,60.073],[25.38178,57.88328,59.8704],[25.40683,57.84727,60.1037],[25.41779,57.81595,61.0201],[25.45224,57.81595,53.1952],[25.45537,57.78934,76.7664],[25.49451,57.78934,56.5993],[25.55289,57.79239,59.8477],[25.55506,57.79957,62.8275],[25.56018,57.80758,54.588],[25.55537,57.81606,58.127],[25.54235,57.82066,68.0856],[25.52602,57.82996,55.0314],[25.51114,57.84099,59.4056],[25.46633,57.85979,51.891],[25.46946,57.87388,52.7463],[25.50121,57.86823,48.2924],[25.5223,57.86887,49.706],[25.53501,57.8744,68.8836],[25.54653,57.87688,68.1463],[25.55661,57.88003,56.5752],[25.56591,57.87993,70.4302],[25.57413,57.88083,69.5735],[25.58281,57.88313,59.6076],[25.6135,57.86606,78.0017],[25.65337,57.86365,69.1167],[25.65734,57.87858,84.5739],[25.66047,57.89267,85.7571],[25.66608,57.91437,85.7908],[25.65009,57.91143,96.8573],[25.62508,57.91029,94.8155],[25.60152,57.9122,101.0745],[25.5794,57.91946,97.3713],[25.55832,57.93424,93.2385],[25.55294,57.94217,87.642],[25.55211,57.94882,91.5888],[25.55182,57.94986,87.4362]]]}
,"properties": {"ISO3166-1-Alpha-3": "LVA","country": "Latvia","fill": "#F0F","name": "Nauksenu","area_km2": 257.8327,"hist_schema_id": "Elevation0-9000","hist_area_km2": {"50": 117.2864,"75": 125.2503,"100": 15.2961}}}