{"type": "Feature","id": "5713","bbox": [21.66554,56.32373,21.99538,56.57334],"geometry": {"type": "Polygon","coordinates": [[[21.86614,56.52043,101.937],[21.85079,56.52115,104.6573],[21.83307,56.52397,101.2363],[21.81803,56.53084,99.4015],[21.80749,56.53846,114.6696],[21.79322,56.55438,112.7465],[21.79539,56.57334,90.1718],[21.75295,56.56274,103.9102],[21.71244,56.54995,116.6747],[21.70818,56.50518,120.6627],[21.73376,56.49878,150.3077],[21.73376,56.4732,153.2053],[21.68046,56.46467,98.5042],[21.68473,56.43269,114.4249],[21.66554,56.41777,95.4083],[21.70178,56.39645,90.6322],[21.7231,56.38152,115.4726],[21.75082,56.38152,104.9831],[21.75082,56.36873,88.6624],[21.72524,56.35594,86.9824],[21.73651,56.32373,59.017],[21.96532,56.38368,112.5436],[21.98317,56.38835,105.1429],[21.98267,56.38878,108.626],[21.98081,56.39036,105.0616],[21.94557,56.41671,131.0737],[21.95135,56.42113,133.9546],[21.96158,56.42627,120.8363],[21.97693,56.42911,126.3686],[21.98778,56.43252,108.7686],[21.99538,56.43932,113.2775],[21.98949,56.44612,119.2741],[21.95461,56.47064,102.359],[21.95755,56.48084,97.0928],[21.95399,56.48782,97.8398],[21.95647,56.49361,98.0025],[21.9667,56.50663,85.3188],[21.95693,56.51417,89.2191],[21.92061,56.50694,115.995],[21.91239,56.50792,114.7632],[21.91006,56.51205,118.5981],[21.90836,56.51745,114.5749],[21.90417,56.52151,102.7037],[21.89348,56.52301,98.8058],[21.86614,56.52043,101.937]]]}
,"properties": {"ISO3166-1-Alpha-3": "LVA","country": "Latvia","fill": "#FF0","name": "Vainodes","area_km2": 320.6211,"hist_schema_id": "Elevation0-9000","hist_area_km2": {"50": 0.047,"75": 7.5819,"100": 72.4177,"125": 138.1198,"150": 76.3858,"175": 24.1602,"200": 1.9086}}}