{"type": "Feature","id": "5763","bbox": [22.78768,56.69065,23.12332,56.8586],"geometry": {"type": "Polygon","coordinates": [[[22.90744,56.85324,101.6498],[22.87526,56.8586,96.7977],[22.83592,56.84966,105.9004],[22.84665,56.82821,104.1729],[22.81626,56.81391,108.611],[22.78892,56.80387,128.998],[22.78768,56.79679,134.0416],[22.8206,56.77155,102.1151],[22.82665,56.73375,105.1467],[22.82866,56.72597,111.0508],[22.82479,56.71979,114.1893],[22.8189,56.71783,118.4768],[22.8144,56.71525,114.4808],[22.81487,56.71106,120.4989],[22.81843,56.70822,124.646],[22.82603,56.69809,113.2417],[22.87522,56.70905,94.1728],[22.90344,56.71163,92.4598],[22.98617,56.71075,92.0742],[23.0287,56.69494,79.2896],[23.08395,56.69065,61.4878],[23.09929,56.69158,57.9011],[23.12332,56.69881,65.5484],[23.09337,56.72094,70.9995],[23.07013,56.76027,76.368],[23.05583,56.79424,57.6891],[23.03616,56.80675,58.0346],[22.97538,56.80139,93.8231],[22.93247,56.81033,104.0128],[22.92353,56.83357,87.2153],[22.94319,56.85503,84.8431],[22.90744,56.85324,101.6498]]]}
,"properties": {"ISO3166-1-Alpha-3": "LVA","country": "Latvia","fill": "#F0F","name": "Jaunpils","area_km2": 213.574,"hist_schema_id": "Elevation0-9000","hist_area_km2": {"50": 10.3002,"75": 64.0131,"100": 119.3898,"125": 19.7199,"150": 0.151}}}