{"type":"Feature","properties":{"ISO3166-1-Alpha-3":"LVA","country":"Latvia","fill":"#000","id":"5731","name":"Skriveru"},
"geometry":{"type": "Polygon","coordinates": [[[25.1763,56.70333,93.3224],[25.15348,56.70855,86.1673],[25.14899,56.71452,96.8683],[25.09747,56.73716,92.0911],[25.02868,56.72713,78.1887],[25.03664,56.72078,88.0069],[25.03613,56.7168,85.1257],[25.04191,56.71308,82.4721],[25.04656,56.70822,81.4726],[25.0537,56.7061,83.7066],[25.05525,56.70137,87.8981],[25.04176,56.69416,80.0989],[25.03272,56.69282,81.8927],[25.0245,56.69055,85.7436],[25.01954,56.68755,92.2889],[25.0169,56.6815,94.3488],[25.01737,56.67168,70.1443],[25.01489,56.64094,80.4983],[25.02124,56.63212,75.9615],[25.02434,56.62455,61.1702],[25.02667,56.62006,65.3375],[25.01938,56.60812,37.3011],[25.04951,56.612,32.0],[25.08018,56.6215,32.0],[25.11809,56.62438,36.3362],[25.1386,56.61915,66.6518],[25.1796,56.64041,81.0572],[25.18182,56.66045,88.0423],[25.16847,56.68048,92.0225],[25.1763,56.70333,93.3224]]]}}