{"type":"Feature","properties":{"GID_1":"LVA.3_1","GID_0":"LVA","country":"Latvia","province":"Riga","VARNAME_1":"NA","NL_NAME_1":"NA","TYPE_1":"Province","ENGTYPE_1":"Province","CC_1":"NA","HASC_1":"R","ISO_1":"LV-RIX","name":"Riga.province"},
"geometry":{"type": "MultiPolygon","coordinates": [[[[24.6558,56.5594,40.6353],[24.6547,56.5504,37.0842],[24.6628,56.5501,38.9424],[24.6622,56.5456,40.662],[24.6785,56.545,42.3867],[24.679,56.5495,51.741],[24.6872,56.5492,42.5611],[24.6877,56.5537,46.3094],[24.704,56.553,40.5312],[24.7034,56.5485,49.4186],[24.7522,56.5466,54.2641],[24.7528,56.5511,57.1979],[24.7609,56.5508,58.9126],[24.7614,56.5553,60.2625],[24.7696,56.555,57.881],[24.7701,56.5594,65.7716],[24.7783,56.5591,58.5038],[24.7788,56.5636,74.0573],[24.7951,56.563,62.6744],[24.7957,56.5674,57.2977],[24.8119,56.5668,77.1212],[24.8125,56.5713,56.4731],[24.8369,56.5703,75.1846],[24.8375,56.5748,73.3267],[24.8781,56.5731,78.793],[24.8787,56.5776,86.5122],[24.9112,56.5763,82.7223],[24.9118,56.5808,64.4373],[24.9362,56.5798,75.6521],[24.9368,56.5843,87.4232],[24.9694,56.5829,64.5465],[24.9699,56.5874,72.1488],[24.9943,56.5864,68.6853],[24.9949,56.5909,75.3342],[25.0112,56.5902,72.1965],[25.0118,56.5947,67.9478],[25.0443,56.5933,87.6477],[25.0456,56.6023,66.4988],[25.0537,56.602,68.5594],[25.0543,56.6064,67.3253],[25.0462,56.6068,44.8486],[25.0474,56.6157,53.1942],[25.0392,56.6161,70.6889],[25.0386,56.6116,67.9942],[25.0224,56.6123,51.9792],[25.0236,56.6212,62.217],[25.0317,56.6209,69.0149],[25.0323,56.6254,75.2856],[25.0242,56.6257,60.5621],[25.026,56.6392,78.9181],[25.0097,56.6398,68.1409],[25.0139,56.6712,72.3763],[25.0221,56.6709,77.774],[25.0227,56.6753,79.5373],[25.0145,56.6757,72.4972],[25.0151,56.6801,82.3809],[25.0233,56.6798,101.2034],[25.0239,56.6843,84.5494],[25.0157,56.6846,86.1012],[25.0175,56.6981,75.4356],[25.042,56.6971,78.1456],[25.0426,56.7015,80.3727],[25.0508,56.7012,97.966],[25.0514,56.7057,83.3707],[25.0595,56.7053,94.4715],[25.0607,56.7143,97.0317],[25.0444,56.715,94.1629],[25.045,56.7194,102.7683],[25.0369,56.7198,85.9377],[25.0393,56.7377,80.2137],[25.0638,56.7367,89.1267],[25.0644,56.7412,88.0347],[25.0726,56.7408,93.0555],[25.072,56.7363,86.9011],[25.0883,56.7357,95.8962],[25.0889,56.7401,91.7705],[25.0971,56.7398,88.4061],[25.0977,56.7443,86.9589],[25.1059,56.743899999999996,86.1654],[25.1052,56.7395,90.2822],[25.1216,56.7388,84.2008],[25.1203,56.7298,92.1222],[25.1285,56.7295,88.2602],[25.1291,56.7339,87.7456],[25.1373,56.7336,84.3331],[25.136,56.7246,99.1414],[25.1524,56.7239,102.6311],[25.1505,56.7105,90.9762],[25.1913,56.7088,93.31],[25.1907,56.7043,87.0699],[25.207,56.7036,104.9535],[25.2089,56.717,93.4526],[25.217,56.7167,92.0075],[25.2164,56.7122,90.1411],[25.2245,56.7118,93.135],[25.2239,56.7074,89.9968],[25.2402,56.7067,92.6032],[25.2396,56.7022,90.9607],[25.2885,56.7001,91.0693],[25.2904,56.7135,81.7509],[25.2823,56.7138,81.1315],[25.2835,56.7228,81.0],[25.2754,56.7232,81.0],[25.276,56.7276,81.0],[25.2597,56.7283,81.0],[25.2603,56.7328,90.9616],[25.2522,56.7332,101.528],[25.2534,56.7421,93.4785],[25.2616,56.7418,103.2148],[25.2622,56.7463,106.0305],[25.2786,56.7456,90.2756],[25.2798,56.7545,99.0159],[25.288,56.7542,98.9424],[25.2886,56.7586,95.7772],[25.2968,56.7583,87.5233],[25.2975,56.7628,105.5343],[25.3056,56.7624,91.4843],[25.3063,56.7669,107.3477],[25.3226,56.7662,95.3116],[25.322,56.7617,90.2654],[25.3546,56.7602,88.5474],[25.354,56.7558,91.4143],[25.3621,56.7554,93.8504],[25.3634,56.7644,105.6332],[25.3389,56.7654,96.6894],[25.3396,56.7699,89.8475],[25.3804,56.7681,93.1296],[25.3798,56.7636,102.5291],[25.3961,56.7629,92.8703],[25.3974,56.7719,103.8027],[25.4138,56.7711,96.7718],[25.4144,56.7756,114.452],[25.4226,56.7752,107.7123],[25.4232,56.7797,107.1051],[25.4477,56.7786,99.7797],[25.4484,56.7831,99.8156],[25.4647,56.7824,110.274],[25.4654,56.7868,112.5873],[25.4736,56.7865,111.6449],[25.4742,56.791,127.78],[25.4824,56.7906,125.0665],[25.4837,56.7995,116.6901],[25.4919,56.7992,117.7237],[25.4926,56.8036,115.0644],[25.5007,56.8033,121.2544],[25.5027,56.8167,130.8946],[25.5109,56.8163,152.1478],[25.5136,56.8342,143.3999],[25.5054,56.8346,137.3794],[25.5067,56.8436,132.2713],[25.5149,56.8432,143.385],[25.5163,56.8522,143.3701],[25.5408,56.851,147.1427],[25.5428,56.8645,141.0995],[25.5101,56.866,127.985],[25.5114,56.8749,139.6795],[25.5196,56.8745,141.7497],[25.5189,56.8701,122.9674],[25.5271,56.8697,127.705],[25.5278,56.8742,125.348],[25.536,56.8738,128.5959],[25.5366,56.8783,139.8524],[25.553,56.8775,140.4914],[25.5537,56.882,152.7872],[25.5455,56.8824,151.1851],[25.5462,56.8868,159.197],[25.538,56.8872,144.4272],[25.5393,56.8962,154.6265],[25.5229,56.8969,151.8538],[25.5256,56.9148,172.4704],[25.5338,56.9145,185.1826],[25.5345,56.9189,182.4442],[25.5427,56.9186,183.5799],[25.544,56.9275,187.9064],[25.5522,56.9271,196.0361],[25.5529,56.9316,183.3418],[25.5447,56.932,182.2926],[25.5461,56.9409,197.2588],[25.5379,56.9413,198.5919],[25.5385,56.9458,196.6103],[25.5303,56.9462,201.3417],[25.533,56.9641,189.9958],[25.5166,56.9648,188.5546],[25.5173,56.9693,194.1911],[25.5255,56.9689,198.6008],[25.5268,56.9779,196.7285],[25.5275,56.9823,212.7506],[25.5193,56.9827,208.4527],[25.5206,56.9917,212.5466],[25.496,56.9928,202.1549],[25.4966,56.9973,210.3522],[25.5048,56.9969,212.6448],[25.5062,57.0058,203.8083],[25.4815,57.0069,206.0761],[25.4802,56.998,220.2048],[25.4555,56.9991,196.6378],[25.4549,56.9946,196.6292],[25.4467,56.995,188.882],[25.446,56.9905,191.5914],[25.4706,56.9894,216.7669],[25.47,56.9849,210.8864],[25.4782,56.9846,218.8632],[25.4775,56.9801,188.3219],[25.4693,56.9805,193.9927],[25.468,56.9715,192.536],[25.4598,56.9719,191.8126],[25.4591,56.9674,187.7281],[25.4427,56.9681,185.654],[25.442,56.9636,181.8574],[25.4502,56.9633,205.9854],[25.4496,56.9588,194.6921],[25.4414,56.9592,187.5488],[25.4407,56.9547,184.0557],[25.4325,56.9551,169.2528],[25.4318,56.9506,167.3131],[25.4236,56.951,156.6928],[25.4223,56.942,158.125],[25.3977,56.9431,161.796],[25.3983,56.9476,153.9107],[25.3819,56.9483,191.2963],[25.3845,56.9662,182.7262],[25.3763,56.9666,176.6549],[25.3776,56.9755,174.9402],[25.3694,56.9759,173.021],[25.3707,56.9848,176.6005],[25.3625,56.9852,164.9976],[25.3632,56.9897,177.1364],[25.3221,56.9915,193.8716],[25.3208,56.9825,199.3866],[25.3126,56.9829,197.5627],[25.3119,56.9784,197.5442],[25.2873,56.9795,170.2044],[25.2853,56.966,165.4516],[25.2689,56.9667,156.4993],[25.2683,56.9623,159.3497],[25.2601,56.9626,153.5161],[25.2594,56.9581,149.9934],[25.2676,56.9578,160.678],[25.267,56.9533,157.804],[25.2588,56.9537,146.9831],[25.2569,56.9402,126.7249],[25.2405,56.9409,111.3702],[25.2411,56.9454,113.2401],[25.2,56.9472,113.6728],[25.2007,56.9517,106.278],[25.1596,56.9534,124.2445],[25.1602,56.9579,105.0914],[25.152,56.9582,114.9805],[25.1508,56.9493,107.7388],[25.1426,56.9496,103.4436],[25.1438,56.9586,110.5594],[25.1356,56.9589,106.5085],[25.1362,56.9634,109.0118],[25.1444,56.9631,106.8329],[25.1469,56.981,108.4433],[25.1387,56.9813,109.4704],[25.1412,56.9992,130.9441],[25.133,56.9996,113.8192],[25.1336,57.004,117.672],[25.1254,57.0044,115.5797],[25.126,57.0089,112.871],[25.1096,57.0096,112.3408],[25.1102,57.014,124.7893],[25.0938,57.0147,115.3159],[25.095,57.0237,105.1649],[25.0785,57.0244,103.6487],[25.0792,57.0289,107.7903],[25.0709,57.0292,106.2062],[25.0715,57.0337,102.7296],[25.0551,57.0344,109.0998],[25.0545,57.0299,107.2566],[25.0462,57.0302,109.4845],[25.0487,57.0481,128.02],[25.0322,57.0488,108.8771],[25.0329,57.0533,111.3218],[25.0081,57.0543,108.0866],[25.0088,57.0588,115.2132],[24.9923,57.0595,104.8571],[24.9929,57.0639,112.1919],[24.9847,57.0643,114.7617],[24.9865,57.0777,102.6137],[24.9782,57.078,104.2955],[24.9795,57.087,107.686],[24.9877,57.0867,99.1238],[24.9883,57.0911,103.4372],[24.9801,57.0915,111.9156],[24.9861,57.1363,122.9852],[24.9779,57.1366,123.3787],[24.9791,57.1456,126.1982],[24.9709,57.1459,135.9387],[24.9715,57.1504,126.3233],[24.9797,57.15,123.052],[24.9803,57.1545,124.6506],[24.9886,57.1542,122.8982],[24.9892,57.1587,122.4477],[24.9809,57.159,123.9067],[24.9852,57.1904,124.6335],[24.9769,57.1907,122.4524],[24.9782,57.1997,115.8728],[24.9699,57.2,120.4561],[24.9705,57.2045,111.2819],[24.954,57.2051,105.6257],[24.9546,57.2096,101.5256],[24.9463,57.21,93.405],[24.9475,57.2189,85.7819],[24.9392,57.2192,83.9192],[24.9399,57.2237,89.3559],[24.9316,57.2241,85.8069],[24.9322,57.2285,79.9018],[24.9239,57.2289,60.4345],[24.9233,57.2244,82.5322],[24.915,57.2247,61.2547],[24.9156,57.2292,34.357],[24.8991,57.2299,66.6613],[24.8997,57.2343,60.2924],[24.908,57.234,36.2505],[24.9086,57.2385,68.7993],[24.9168,57.2382,26.5681],[24.9174,57.2426,49.3552],[24.9257,57.2423,21.5245],[24.9263,57.2468,19.8198],[24.918,57.2471,72.6781],[24.9187,57.2516,90.0978],[24.9352,57.2509,56.2543],[24.9364,57.2599,61.2254],[24.9447,57.2596,38.4513],[24.9459,57.2685,29.7161],[24.9376,57.2688,92.1515],[24.9382,57.2733,85.6012],[24.9388,57.2778,78.1542],[24.9471,57.2775,74.3566],[24.949,57.2909,87.4358],[24.9407,57.2912,72.1222],[24.9413,57.2957,83.4574],[24.933,57.2961,49.0108],[24.9336,57.3005,54.3365],[24.9253,57.3009,54.7977],[24.9259,57.3054,53.3346],[24.9093,57.306,57.2066],[24.9099,57.3105,64.1217],[24.8933,57.3112,45.4162],[24.8939,57.3156,47.4891],[24.8774,57.3163,73.3273],[24.878,57.3208,51.9448],[24.8862,57.3204,56.6982],[24.8868,57.3249,56.4697],[24.8951,57.3246,55.4345],[24.8976,57.3425,63.5204],[24.8727,57.3435,64.5272],[24.8733,57.348,65.6409],[24.8816,57.3476,61.8721],[24.8822,57.3521,65.1126],[24.8655,57.3528,61.8549],[24.8668,57.3617,63.5832],[24.8584,57.3621,65.7037],[24.8602,57.3755,73.0341],[24.8436,57.3762,67.9039],[24.8442,57.3806,68.1834],[24.8276,57.3813,69.7208],[24.8282,57.3858,69.9697],[24.8199,57.3861,70.502],[24.8205,57.3906,70.7127],[24.7789,57.3922,67.8506],[24.7795,57.3967,67.9278],[24.7712,57.397,66.9527],[24.7759,57.4328,64.1035],[24.7842,57.4325,62.1339],[24.7848,57.437,62.5897],[24.8098,57.436,75.7051],[24.8092,57.4315,59.9895],[24.8258,57.4309,76.4439],[24.8252,57.4264,66.52],[24.8419,57.4258,80.3536],[24.8413,57.4213,62.4432],[24.8579,57.4206,71.9748],[24.8585,57.4251,73.5197],[24.8668,57.4248,82.7745],[24.868,57.4337,84.1479],[24.8847,57.4331,79.3045],[24.8853,57.4376,76.4258],[24.9103,57.4366,67.2776],[24.9109,57.4411,63.407],[24.9192,57.4407,67.2514],[24.9198,57.4452,60.5646],[24.9281,57.4449,70.1378],[24.9287,57.4494,71.3509],[24.9371,57.449,73.6703],[24.9377,57.4535,80.1403],[24.9543,57.4528,69.4487],[24.9549,57.4573,71.3871],[24.9716,57.4566,74.3],[24.9722,57.4611,72.7967],[24.9805,57.4608,78.7751],[24.9811,57.4653,82.5373],[24.9895,57.4649,87.2925],[24.9901,57.4694,83.9433],[25.0151,57.4684,85.5217],[25.0169,57.4818,90.0198],[25.0086,57.4822,90.0688],[25.0092,57.4866,89.7253],[25.0009,57.487,92.9098],[25.0015,57.4915,101.6781],[25.0265,57.4905,88.1798],[25.0284,57.5039,88.1895],[25.0367,57.5035,101.7036],[25.038,57.5125,104.3187],[25.0463,57.5122,87.2698],[25.0469,57.5166,86.2148],[25.0386,57.517,85.752],[25.0392,57.5215,105.0734],[25.0309,57.5218,88.8795],[25.0315,57.5263,82.2345],[25.0565,57.5253,89.4783],[25.0578,57.5342,80.1256],[25.0411,57.5349,96.204],[25.0423,57.5439,78.8068],[25.034,57.5442,78.2974],[25.0346,57.5487,79.3509],[25.0179,57.5494,81.1445],[25.0185,57.5538,81.661],[25.0269,57.5535,79.5019],[25.0275,57.558,80.5234],[25.0192,57.5583,79.5449],[25.0204,57.5673,82.859],[25.0037,57.5679,80.7634],[25.005,57.5769,82.9054],[24.9882,57.5776,82.8005],[24.9876,57.5731,85.849],[24.9626,57.5741,106.8152],[24.962,57.5696,94.2003],[24.9369,57.5706,90.1431],[24.9363,57.5661,87.2758],[24.9279,57.5665,85.4428],[24.9292,57.5754,91.5105],[24.9208,57.5758,86.5718],[24.922,57.5847,86.7077],[24.9137,57.5851,88.2865],[24.9149,57.594,87.1047],[24.9065,57.5943,96.4721],[24.9077,57.6033,85.5202],[24.8994,57.6036,102.3211],[24.9012,57.6171,95.0512],[24.9096,57.6167,92.0338],[24.9102,57.6212,106.408],[24.9186,57.6209,93.6878],[24.9269,57.6206,89.0751],[24.9263,57.6161,90.519],[24.9347,57.6157,91.9372],[24.9353,57.6202,94.3015],[24.9436,57.6199,89.7587],[24.9443,57.6244,93.2397],[24.9526,57.624,95.7721],[24.9532,57.6285,91.0671],[24.9616,57.6282,84.9095],[24.9622,57.6327,90.1964],[24.9706,57.6323,84.7971],[24.9724,57.6458,82.1938],[25.0143,57.6441,86.76],[25.0137,57.6396,90.6003],[25.022,57.6393,88.7766],[25.0214,57.6348,91.9438],[25.0298,57.6344,87.5442],[25.0292,57.63,85.118],[25.0626,57.6286,82.7912],[25.0639,57.6376,81.6624],[25.0722,57.6372,74.9492],[25.0729,57.6417,76.504],[25.0645,57.642,82.8787],[25.0651,57.6465,79.7471],[25.0568,57.6469,93.4577],[25.0574,57.6513,79.659],[25.049,57.6517,81.3983],[25.0497,57.6562,90.315],[25.0413,57.6565,77.8177],[25.0419,57.661,81.4257],[25.0838,57.6593,75.3729],[25.0844,57.6637,88.2753],[25.076,57.6641,97.6813],[25.0767,57.6686,87.3931],[25.0683,57.6689,93.587],[25.0696,57.6779,86.4065],[25.0528,57.6785,84.4931],[25.0553,57.6965,85.5371],[25.0637,57.6961,85.7694],[25.065,57.7051,79.358],[25.0566,57.7054,85.2776],[25.0585,57.7189,70.396],[25.0669,57.7185,72.8856],[25.0675,57.723,72.5219],[25.0759,57.7227,73.2195],[25.0772,57.7316,67.053],[25.0855,57.7313,77.1633],[25.0874,57.7447,62.992],[25.0958,57.7444,61.7026],[25.0971,57.7533,63.1772],[25.0887,57.7537,62.5689],[25.0894,57.7581,66.3196],[25.081,57.7585,75.6264],[25.0816,57.763,64.1752],[25.0732,57.7633,72.4037],[25.0757,57.7812,61.6232],[25.0589,57.7819,56.4561],[25.0596,57.7864,61.5321],[25.0428,57.7871,56.6744],[25.0434,57.7915,61.1656],[25.0182,57.7925,73.6718],[25.0194,57.8015,68.2191],[25.011,57.8018,69.578],[25.0117,57.8063,70.468],[24.9948,57.807,66.9292],[24.9961,57.816,63.7335],[24.9877,57.8163,66.6],[24.9883,57.8208,66.674],[24.9631,57.8218,66.6833],[24.9618,57.8128,66.0597],[24.945,57.8135,68.4228],[24.9456,57.818,66.1164],[24.954,57.8176,64.0762],[24.9553,57.8266,75.6626],[24.9469,57.8269,68.9398],[24.9481,57.8359,80.8867],[24.9397,57.8362,62.4855],[24.9385,57.8273,63.2004],[24.9301,57.8276,64.9204],[24.9307,57.8321,63.757],[24.897,57.8334,57.2557],[24.9007,57.8603,58.3778],[24.8923,57.8606,58.325],[24.8941,57.874,56.0912],[24.8857,57.8744,56.4138],[24.8875,57.8878,69.2342],[24.8791,57.8881,55.7519],[24.8809,57.9016,49.5825],[24.8894,57.9012,60.2841],[24.89,57.9057,64.6481],[24.8647,57.9067,58.3744],[24.8659,57.9157,54.3548],[24.849,57.9163,55.9579],[24.8497,57.9208,52.9899],[24.8328,57.9215,58.9504],[24.834,57.9304,52.8353],[24.8256,57.9307,52.5974],[24.8268,57.9397,73.4791],[24.8437,57.939,59.6565],[24.8443,57.9435,57.5637],[24.8358,57.9439,78.4797],[24.837,57.9528,64.1996],[24.8286,57.9531,63.9185],[24.8304,57.9666,63.5845],[24.8389,57.9662,68.0546],[24.8395,57.9707,70.2386],[24.831,57.9711,57.2253],[24.8323,57.98,65.8694],[24.8238,57.9803,52.5652],[24.8244,57.9848,60.9835],[24.7777,57.9866,51.8422],[24.7421,57.982,54.9052],[24.7435,57.9649,51.8368],[24.7326,57.9624,55.7886],[24.7151,57.9625,57.3862],[24.696,57.9492,50.8013],[24.6923,57.9493,51.3776],[24.6929,57.9538,55.3298],[24.6845,57.9541,62.5104],[24.685,57.9586,50.2401],[24.6766,57.9589,54.2079],[24.6772,57.9634,50.5877],[24.6687,57.9637,48.537],[24.6682,57.9592,51.118899999999996],[24.6513,57.9599,52.6855],[24.6501,57.9509,59.7225],[24.6432,57.9511,48.1147],[24.6296,57.9426,49.9759],[24.6236,57.9429,49.0975],[24.6242,57.9474,49.1687],[24.6157,57.9477,45.4324],[24.6163,57.9521,52.26],[24.6079,57.9525,49.6181],[24.6085,57.9569,43.9203],[24.6043,57.9571,46.6355],[24.6018,57.9547,54.7729],[24.5957,57.9574,48.368],[24.5747,57.9582,44.6],[24.5731,57.9543,43.9019],[24.5482,57.9501,49.1022],[24.5442,57.9458,42.1019],[24.531,57.9469,43.9737],[24.5207,57.9435,39.0868],[24.5183,57.9367,40.5774],[24.5099,57.935,40.65],[24.5118,57.9305,40.0583],[24.4623,57.925,27.3924],[24.4455,57.908,25.6928],[24.4595,57.9065,22.6704],[24.4524,57.8995,23.3297],[24.4599,57.8801,29.5761],[24.4505,57.8771,23.9584],[24.4373,57.8776,18.8779],[24.4368,57.8731,24.8222],[24.4199,57.8737,18.2125],[24.4194,57.8692,15.7063],[24.4099,57.8696,15.0433],[24.4093,57.8717,12.2654],[24.3542,57.876,0.375],[24.3522,57.874,0.0],[24.3514,57.8693,0.2398],[24.3452,57.8666,0.1097],[24.3431,57.8638,0.0],[24.3447,57.8621,0.582],[24.3436,57.8604,0.0],[24.3447,57.8576,0.5634],[24.3475,57.8551,8.6678],[24.3447,57.8543,1.5862],[24.3447,57.8504,11.8108],[24.3419,57.849,0.0],[24.3408,57.8446,1.623],[24.3375,57.8418,0.3751],[24.3386,57.8396,1.6867],[24.3347,57.8368,0.217],[24.3347,57.8335,0.066],[24.3369,57.8321,0.4022],[24.3347,57.8299,0.058],[24.3364,57.8282,1.4624],[24.3325,57.8271,0.2194],[24.3325,57.8199,0.3132],[24.3331,57.8168,0.0],[24.3364,57.8129,0.5023],[24.3358,57.811,0.0],[24.3475,57.7924,1.4805],[24.3475,57.7907,0.9812],[24.3442,57.7887,0.276],[24.3464,57.7879,2.2192],[24.3475,57.7846,1.8096],[24.3464,57.7771,10.076],[24.3486,57.7696,5.6111],[24.3475,57.7679,4.4059],[24.3492,57.7657,2.6401],[24.3481,57.7643,1.8426],[24.3486,57.7568,0.0],[24.3664,57.7532,0.0],[24.3775,57.7532,2.6598],[24.3814,57.7513,4.2402],[24.3803,57.7504,4.5739],[24.3775,57.7521,2.6598],[24.3625,57.7521,2.8953],[24.3575,57.7549,0.7161],[24.3519,57.7554,2.4605],[24.3497,57.7551,0.0],[24.3492,57.7526,0.8065],[24.3442,57.7526,0.1369],[24.3464,57.7468,7.7961],[24.3436,57.7399,0.0],[24.3453,57.7335,3.6044],[24.3436,57.7326,0.0],[24.3419,57.7232,0.0],[24.3436,57.7088,1.3071],[24.3419,57.7068,0.0],[24.3442,57.6976,0.5071],[24.3553,57.6907,8.2228],[24.3597,57.681,5.358],[24.3592,57.6793,1.3956],[24.3636,57.6754,0.131],[24.3681,57.6579,0.6051],[24.3703,57.6549,9.8655],[24.3703,57.6521,9.2665],[24.3675,57.6479,2.9732],[24.3703,57.6451,7.0863],[24.3708,57.6396,0.0],[24.3742,57.6368,0.4562],[24.3747,57.6338,0.0],[24.3808,57.6293,8.4539],[24.3814,57.626,8.1702],[24.3853,57.6224,7.6476],[24.3858,57.6179,0.0],[24.3875,57.6171,9.9921],[24.3864,57.6118,3.6558],[24.3819,57.6107,0.0],[24.3814,57.6079,5.5747],[24.3719,57.6007,4.9568],[24.3731,57.5954,4.9458],[24.3719,57.591,10.2872],[24.3692,57.5887,8.3756],[24.3681,57.5829,8.5021],[24.3642,57.5815,0.0],[24.3636,57.5757,0.6759],[24.3692,57.5649,6.6743],[24.3692,57.5604,9.45],[24.3653,57.5465,7.9511],[24.3614,57.5412,0.0],[24.372,57.533,15.3859],[24.3775,57.5207,6.3874],[24.3786,57.5137,0.0],[24.3808,57.5129,5.0224],[24.3792,57.5046,2.051],[24.3803,57.5043,2.051],[24.3819,57.4924,7.4126],[24.3792,57.4912,2.1331],[24.3814,57.4863,9.7549],[24.3792,57.4813,3.7838],[24.3814,57.4785,15.3129],[24.3819,57.4715,9.3619],[24.3858,57.4651,3.5231],[24.3847,57.4493,0.0],[24.3886,57.4385,2.6336],[24.3886,57.434,0.407],[24.3919,57.4276,7.8358],[24.3936,57.4143,7.9489],[24.3981,57.406,10.725],[24.3997,57.3985,9.0303],[24.4003,57.3918,5.6409],[24.3986,57.3849,0.0],[24.4019,57.3635,14.8058],[24.4003,57.3568,1.786],[24.4036,57.3501,2.7091],[24.4053,57.3421,6.3663],[24.4042,57.3382,5.7103],[24.4047,57.3201,7.0977],[24.4031,57.3168,0.0],[24.4069,57.3149,4.4144],[24.4092,57.3115,1.2114],[24.4064,57.3018,11.4829],[24.4086,57.2915,0.0],[24.4125,57.2874,13.7404],[24.4131,57.2754,14.8946],[24.4114,57.2663,3.56],[24.4047,57.2549,4.1063],[24.4053,57.2529,15.7279],[24.3903,57.2332,13.1473],[24.3675,57.2137,14.9862],[24.3431,57.1974,1.6054],[24.3403,57.194,6.5074],[24.3336,57.1921,0.0],[24.3231,57.1849,14.1916],[24.3075,57.1771,5.3933],[24.2681,57.1607,1.091],[24.2681,57.1582,0.0],[24.2792,57.1529,0.8672],[24.2797,57.151,1.3012],[24.2675,57.1571,0.0],[24.2586,57.1565,0.6734],[24.2308,57.1351,9.9287],[24.2186,57.1279,8.3935],[24.1864,57.111,7.0485],[24.1581,57.0993,6.9827],[24.1203,57.0854,15.1049],[24.1031,57.0807,0.3658],[24.0997,57.0782,7.988],[24.0314,57.0649,2.3002],[24.0319,57.0632,0.3526],[24.0253,57.0579,4.9283],[24.0208,57.0601,0.8036],[24.0219,57.0571,7.9225],[24.0097,57.0476,0.9311],[24.0058,57.0418,7.5941],[24.0014,57.0385,4.3333],[23.9969,57.0379,2.5548],[23.9825,57.0279,3.4254],[23.9653,57.0199,6.275],[23.9425,57.0132,0.2536],[23.9336,57.0088,0.0],[23.9347,57.0076,0.0],[23.9131,57.0024,0.1228],[23.9036,56.9982,17.1562],[23.8619,56.9882,16.5809],[23.7508,56.9687,16.1731],[23.7075,56.9643,7.3276],[23.6664,56.9621,0.2825],[23.6169,56.9651,5.6175],[23.5975,56.9721,0.0583],[23.5603,56.976,4.0265],[23.5531,56.9787,17.012],[23.5358,56.9896,1.8648],[23.5286,56.9915,9.5728],[23.5197,56.9987,3.2219],[23.5192,57.0026,0.0],[23.5131,57.0121,0.0],[23.5036,57.0215,1.1346],[23.4981,57.0249,0.6609],[23.4903,57.034,0.0],[23.4825,57.0363,0.0],[23.4486,57.0351,13.8517],[23.4136,57.0376,8.647],[23.3625,57.046,7.4755],[23.3103,57.0621,0.0],[23.2836,57.0743,3.1577],[23.2636,57.0863,11.035],[23.2369,57.109,9.2322],[23.2347,57.1215,11.83],[23.2364,57.1279,0.0],[23.2308,57.1354,10.9916],[23.2303,57.1413,0.0],[23.2331,57.149,0.0],[23.2319,57.1587,0.0],[23.2397,57.1624,0.0],[23.2325,57.1621,0.0],[23.2325,57.1657,0.1792],[23.2297,57.1671,0.3331],[23.2225,57.1782,10.7746],[23.2125,57.1882,2.8603],[23.2025,57.2082,0.0],[23.1875,57.2218,17.5947],[23.1836,57.229,0.0],[23.1786,57.234,3.176],[23.1764,57.2401,2.8175],[23.1758,57.2499,1.0946],[23.1764,57.2554,3.4261],[23.1803,57.2601,0.0],[23.1797,57.2635,0.0784],[23.1686,57.2732,11.4107],[23.1647,57.2924,7.781],[23.1603,57.3035,2.583],[23.1503,57.3138,0.0],[23.1419,57.319,12.2686],[23.1403,57.3229,2.0562],[23.1367,57.3234,2.0562],[23.1363,57.3189,15.8579],[23.1114,57.3196,23.2496],[23.111,57.3151,9.5909],[23.1027,57.3153,3.175],[23.1008,57.2929,8.5074],[23.1091,57.2926,-0.0949],[23.1068,57.2657,-0.6235],[23.1151,57.2655,-0.3068],[23.1143,57.2565,-0.8051],[23.0894,57.2572,-1.0],[23.089,57.2527,0.2719],[23.0807,57.2529,-0.1072],[23.0804,57.2484,-1.0],[23.0887,57.2482,-1.0],[23.0875,57.2347,0.2413],[23.0709,57.2351,0.3281],[23.0706,57.2307,4.4218],[23.0623,57.2309,11.75],[23.0615,57.2219,20.3813],[23.0532,57.2221,13.9044],[23.0525,57.2131,5.9916],[23.0359,57.2135,10.8058],[23.0355,57.209,20.0271],[23.0273,57.2092,22.5847],[23.0269,57.2048,13.1513],[23.002,57.2054,27.1083],[23.0017,57.2009,26.6751],[22.9934,57.2011,33.9394],[22.993,57.1966,33.1172],[22.9847,57.1968,34.7679],[22.9844,57.1923,23.0111],[22.9761,57.1925,32.6874],[22.9754,57.1835,23.339],[22.9671,57.1837,26.2171],[22.9664,57.1748,31.0667],[22.9581,57.175,42.267],[22.9577,57.1705,44.1284],[22.9495,57.1707,34.4426],[22.9491,57.1662,39.5974],[22.9408,57.1664,31.1004],[22.9405,57.1619,26.8021],[22.9322,57.1621,43.0362],[22.9304,57.1396,31.2132],[22.8973,57.1404,56.2312],[22.8977,57.1449,47.681399999999996],[22.8729,57.1455,68.1115],[22.8732,57.15,62.7983],[22.8649,57.1502,59.4443],[22.8646,57.1457,61.0693],[22.8563,57.1459,75.0535],[22.8481,57.1461,68.5085],[22.8484,57.1506,61.7279],[22.8319,57.151,95.6111],[22.8315,57.1465,103.7113],[22.8232,57.1467,112.121],[22.8229,57.1422,108.4919],[22.8146,57.1424,121.317],[22.815,57.1468,124.8837],[22.8067,57.147,119.9534],[22.806,57.1381,96.5309],[22.7978,57.1382,113.5452],[22.7974,57.1338,104.3716],[22.7891,57.1339,107.4787],[22.7888,57.1295,103.9187],[22.7723,57.1298,88.8348],[22.7713,57.1164,84.9858],[22.7465,57.1169,82.7813],[22.7461,57.1124,73.7208],[22.7379,57.1126,77.7113],[22.7382,57.1171,81.3222],[22.7299,57.1173,83.8803],[22.7296,57.1128,83.5435],[22.7131,57.1132,83.5285],[22.7127,57.1087,89.9083],[22.6714,57.1096,93.8509],[22.6711,57.1051,95.1403],[22.6628,57.1053,93.3192],[22.6625,57.1008,93.7437],[22.6543,57.101,91.6334],[22.6546,57.1055,94.8765],[22.6463,57.1056,97.9323],[22.646,57.1012,91.2547],[22.6377,57.1013,91.1229],[22.6355,57.0699,87.5812],[22.6437,57.0697,89.3477],[22.6434,57.0652,88.8076],[22.6517,57.0651,76.0441],[22.6504,57.0471,86.6687],[22.6586,57.0469,88.7967],[22.658,57.0379,77.3605],[22.6497,57.0381,83.0878],[22.6484,57.0202,35.8825],[22.632,57.0205,82.8296],[22.6323,57.025,97.3847],[22.6075,57.0255,56.3324],[22.6079,57.03,64.5736],[22.5996,57.0302,41.8216],[22.5999,57.0347,85.8807],[22.5917,57.0349,44.1324],[22.5914,57.0304,29.8426],[22.5831,57.0306,49.624],[22.5828,57.0261,80.4449],[22.5765,57.0262,81.1021],[22.5749,57.0307,75.6393],[22.5584,57.0311,80.9936],[22.5581,57.0266,82.9696],[22.5698,57.0263,82.6369],[22.5744,57.0234,80.9917],[22.5743,57.0218,84.489],[22.5825,57.0216,88.0935],[22.5822,57.0171,102.9461],[22.5739,57.0173,92.0862],[22.5736,57.0128,86.0876],[22.5407,57.0135,86.4157],[22.541,57.018,86.3018],[22.5327,57.0181,92.4574],[22.533,57.0226,85.879],[22.5248,57.0228,84.6307],[22.5251,57.0273,84.0507],[22.5086,57.0276,86.2348],[22.5077,57.0141,98.5715],[22.4995,57.0143,89.3646],[22.4991,57.0098,87.2895],[22.4909,57.01,91.8428],[22.4903,57.001,89.2116],[22.4821,57.0012,88.4277],[22.4812,56.9877,94.7545],[22.4647,56.988,82.2184],[22.4635,56.9701,87.675],[22.4553,56.9702,90.3028],[22.455,56.9658,97.1308],[22.4547,56.9613,99.876],[22.4629,56.9611,96.2302],[22.4623,56.9521,102.9744],[22.4458,56.9525,104.3571],[22.4449,56.939,92.7341],[22.4532,56.9388,100.9588],[22.4523,56.9254,109.6247],[22.4687,56.925,103.6766],[22.469,56.9295,107.0034],[22.4937,56.929,98.2752],[22.4934,56.9245,99.8064],[22.518,56.924,92.7046],[22.5184,56.9285,93.0458],[22.5348,56.9282,99.604],[22.5345,56.9237,94.5305],[22.5427,56.9235,93.0852],[22.5421,56.9145,86.0227],[22.5257,56.9149,93.0252],[22.5253,56.9104,96.4664],[22.5171,56.9105,95.9701],[22.5168,56.9061,100.8406],[22.525,56.9059,94.1788],[22.5241,56.8924,91.8654],[22.5159,56.8926,91.9917],[22.5153,56.8836,94.1809],[22.5235,56.8834,100.838],[22.5232,56.8789,99.8627],[22.5068,56.8793,104.1377],[22.5065,56.8748,120.3751],[22.4983,56.875,100.9876],[22.4974,56.8615,90.1561],[22.5056,56.8613,100.8915],[22.5053,56.8568,107.0424],[22.5135,56.8567,94.8647],[22.5132,56.8522,94.0161],[22.5214,56.852,101.5638],[22.5211,56.8475,101.6217],[22.5621,56.8467,107.6369],[22.5624,56.8512,97.5949],[22.5706,56.851,99.2445],[22.5788,56.8508,90.8808],[22.5785,56.8463,102.4616],[22.6031,56.8458,112.1674],[22.6028,56.8413,113.6069],[22.611,56.8411,111.8558],[22.61,56.8277,115.9802],[22.6182,56.8275,128.4933],[22.6186,56.832,112.4872],[22.635,56.8316,112.3701],[22.6346,56.8271,128.0049],[22.6428,56.827,119.3056],[22.6419,56.8135,107.2227],[22.6747,56.8128,131.8262],[22.675,56.8173,123.7536],[22.6832,56.8171,129.9817],[22.6829,56.8126,130.3176],[22.6911,56.8124,124.1374],[22.6904,56.8034,129.0404],[22.7068,56.8031,124.7321],[22.7065,56.7986,132.581],[22.7147,56.7984,142.14],[22.715,56.8029,136.5051],[22.7232,56.8027,131.8433],[22.7235,56.8072,131.9842],[22.7563,56.8065,136.6781],[22.7566,56.8109,136.627],[22.7648,56.8108,137.7837],[22.7645,56.8063,140.8757],[22.7809,56.8059,123.0638],[22.7816,56.8149,125.1583],[22.7897,56.8147,120.9396],[22.7887,56.8012,130.8832],[22.7969,56.801,126.588],[22.7966,56.7965,128.7851],[22.8048,56.7964,121.3296],[22.8041,56.7874,134.1056],[22.8123,56.7872,108.5962],[22.812,56.7827,100.6822],[22.8201,56.7825,99.6301],[22.8195,56.7735,98.4285],[22.8277,56.7733,105.2827],[22.8266,56.7599,118.8726],[22.8184,56.7601,103.1209],[22.8178,56.7511,117.5608],[22.8259,56.7509,128.6634],[22.8242,56.7285,108.8724],[22.8324,56.7283,103.6365],[22.8321,56.7238,105.7216],[22.8157,56.7242,111.6183],[22.8154,56.7197,120.9978],[22.8072,56.7198,126.4058],[22.8069,56.7154,119.6087],[22.8232,56.715,108.0752],[22.8219,56.697,118.1786],[22.8464,56.6965,117.175],[22.8474,56.7099,106.903],[22.8556,56.7097,116.1681],[22.8552,56.7052,106.2431],[22.8716,56.7049,99.2593],[22.8723,56.7138,100.8729],[22.8804,56.7136,99.384],[22.8801,56.7091,104.3397],[22.8883,56.709,101.4509],[22.8886,56.7134,107.6946],[22.8968,56.7132,103.5374],[22.8971,56.7177,97.2246],[22.938,56.7168,96.4064],[22.9376,56.7123,95.5159],[22.9703,56.7115,88.8356],[22.9707,56.716,96.6952],[22.9952,56.7154,83.6078],[22.9956,56.7198,84.7249],[23.0201,56.7192,90.7765],[23.0194,56.7103,83.8266],[23.0275,56.7101,85.3246],[23.0268,56.7011,79.9544],[23.0677,56.7001,78.726],[23.0673,56.6956,71.2895],[23.0836,56.6952,69.549],[23.0833,56.6907,61.4878],[23.1078,56.69,60.4985],[23.1081,56.6945,70.5595],[23.1163,56.6943,58.9339],[23.1167,56.6988,72.3154],[23.1248,56.6986,63.7187],[23.1252,56.7031,64.4638],[23.1579,56.7022,62.3146],[23.1575,56.6978,67.4971],[23.182,56.6971,65.4787],[23.1824,56.7016,64.1843],[23.1906,56.7014,68.2634],[23.1914,56.7104,66.6153],[23.1832,56.7106,67.7022],[23.1839,56.7195,66.3672],[23.1921,56.7193,64.0172],[23.1925,56.7238,69.3844],[23.2089,56.7234,64.3885],[23.2092,56.7279,61.7099],[23.2174,56.7277,63.4494],[23.217,56.7232,70.7467],[23.2497,56.7223,60.2074],[23.2493,56.7178,62.01],[23.2657,56.7174,58.0415],[23.2653,56.7129,60.4042],[23.2735,56.7127,58.762],[23.2731,56.7082,60.3931],[23.2894,56.7077,49.908],[23.2898,56.7122,46.8479],[23.298,56.712,46.9798],[23.2992,56.7255,42.8968],[23.3073,56.7252,35.594],[23.3077,56.7297,34.9836],[23.3159,56.7295,32.9932],[23.3163,56.734,32.3816],[23.3327,56.7336,31.0974],[23.3339,56.747,32.233],[23.342,56.7468,26.9311],[23.3429,56.7558,25.2516],[23.3347,56.756,26.683],[23.3351,56.7605,41.5255],[23.3269,56.7607,29.5326],[23.3273,56.7652,29.0453],[23.3191,56.7654,31.3334],[23.3199,56.7744,31.7058],[23.3363,56.7739,26.219],[23.3375,56.7874,29.4241],[23.3457,56.7872,26.4564],[23.3461,56.7917,24.7059],[23.3543,56.7914,25.3578],[23.3547,56.7959,21.9213],[23.3629,56.7957,16.3643],[23.3633,56.8002,16.0803],[23.3715,56.8,14.1545],[23.3719,56.8044,16.1801],[23.3883,56.804,25.6686],[23.3874,56.795,19.0737],[23.3956,56.7948,11.7611],[23.3952,56.7903,8.2806],[23.428,56.7894,14.1528],[23.4284,56.7939,12.326],[23.4366,56.7936,27.5738],[23.4361,56.7891,25.3802],[23.4443,56.7889,24.9924],[23.4439,56.7844,7.8635],[23.4521,56.7842,25.7949],[23.4517,56.7797,4.4229],[23.4599,56.7795,12.8022],[23.459,56.7705,4.2377],[23.4918,56.7696,10.7777],[23.4913,56.7651,6.6743],[23.5241,56.7641,3.9824],[23.5245,56.7686,14.129],[23.5327,56.7684,3.1579],[23.5335,56.7774,11.4575],[23.5417,56.7771,5.0205],[23.5421,56.7816,12.55],[23.5503,56.7814,-0.0694],[23.5516,56.7948,6.6422],[23.5598,56.7946,-0.2021],[23.5607,56.8036,8.3042],[23.5689,56.8033,-0.4166],[23.5697,56.8123,1.3174],[23.5615,56.8125,3.0702],[23.5624,56.8215,5.8266],[23.5706,56.8213,0.6174],[23.5714,56.8302,0.3885],[23.5469,56.831,8.8225],[23.5473,56.8354,3.5461],[23.5555,56.8352,2.343],[23.5559,56.8397,3.2221],[23.5477,56.8399,6.5817],[23.5482,56.8444,22.0171],[23.5645,56.8439,1.1911],[23.565,56.8484,0.8813],[23.5732,56.8482,0.26],[23.574,56.8572,2.1865],[23.5822,56.8569,0.5907],[23.5831,56.8659,2.4927],[23.5913,56.8656,1.4251],[23.5918,56.8701,2.421],[23.6,56.8699,0.4566],[23.6017,56.8878,0.1338],[23.6099,56.8876,-0.0022],[23.6103,56.8921,-0.1657],[23.6186,56.8918,0.1069],[23.6194,56.9008,-0.2663],[23.6523,56.8998,-0.3721],[23.6518,56.8953,0.1104],[23.66,56.8951,-0.0105],[23.6592,56.8861,1.7669],[23.6838,56.8854,5.4955],[23.6833,56.8809,9.6249],[23.6915,56.8806,10.3929],[23.6911,56.8762,6.0692],[23.7075,56.8757,20.0388],[23.7071,56.8712,27.2219],[23.7153,56.8709,17.6008],[23.7148,56.8664,16.67],[23.7312,56.8659,11.752],[23.7303,56.857,10.1393],[23.7385,56.8567,22.5318],[23.7367,56.8388,11.0466],[23.7449,56.8385,7.3407],[23.744,56.8295,12.1409],[23.7522,56.8293,6.8512],[23.7513,56.8203,10.3649],[23.7758,56.8196,7.2793],[23.7745,56.8061,17.5964],[23.7827,56.8059,14.6303],[23.7822,56.8014,10.9903],[23.7904,56.8011,15.8897],[23.7899,56.7966,19.0903],[23.7818,56.7969,20.6398],[23.7799,56.7789,9.5421],[23.7717,56.7792,15.6771],[23.7704,56.7657,29.1425],[23.7622,56.766,7.1611],[23.7617,56.7615,23.4262],[23.7536,56.7618,5.3517],[23.7522,56.7483,5.8232],[23.7604,56.7481,23.2652],[23.7599,56.7436,25.2291],[23.7763,56.7431,21.8917],[23.7758,56.7386,10.3632],[23.7922,56.7381,22.7538],[23.7917,56.7336,24.7507],[23.8162,56.7328,5.9455],[23.8167,56.7373,25.9555],[23.8249,56.737,19.7374],[23.8253,56.7415,8.6311],[23.8335,56.7413,16.9855],[23.8326,56.7323,8.1796],[23.840699999999998,56.732,17.1458],[23.8421,56.7455,22.3943],[23.8585,56.745,15.4246],[23.859,56.7495,18.4946],[23.908,56.7479,5.5037],[23.9085,56.7524,7.6116],[23.9167,56.7521,5.3483],[23.9162,56.7476,3.9826],[23.9244,56.7474,8.5246],[23.9229,56.7339,5.1761],[23.9556,56.7328,12.608],[23.9561,56.7373,14.3919],[23.997,56.736,11.9939],[23.9974,56.7405,8.7042],[24.0138,56.7399,18.4048],[24.0133,56.7355,9.7672],[24.0215,56.7352,9.5315],[24.0205,56.7262,8.1949],[24.0123,56.7265,11.0567],[24.0119,56.722,7.6846],[24.02,56.7217,6.4053],[24.0191,56.7128,15.7129],[24.0354,56.7122,14.9313],[24.0349,56.7077,6.4573],[24.0594,56.7069,23.4722],[24.0589,56.7024,7.7898],[24.0752,56.7019,9.4365],[24.0748,56.6974,8.9271],[24.0911,56.6969,9.518],[24.0921,56.7058,21.9256],[24.1002,56.7055,11.8655],[24.0987,56.6921,9.7461],[24.1069,56.6918,11.9385],[24.1064,56.6873,14.7764],[24.1227,56.6868,19.3835],[24.1222,56.6823,17.5929],[24.1386,56.6817,18.1223],[24.1391,56.6862,35.7169],[24.1717,56.6851,20.3622],[24.1727,56.6941,20.4535],[24.1564,56.6946,23.2049],[24.1569,56.6991,17.2656],[24.1814,56.6983,34.1957],[24.1817,56.7015,34.4793],[24.1737,56.703,25.7024],[24.1742,56.7075,29.1121],[24.1824,56.7072,26.9994],[24.1821,56.7045,29.9673],[24.1847,56.7027,38.1242],[24.2227,56.7013,24.8167],[24.2232,56.7058,27.5957],[24.2314,56.7055,27.083],[24.2319,56.71,21.1533],[24.24,56.7097,38.2345],[24.2411,56.7187,12.4555],[24.2492,56.7184,15.9148],[24.2477,56.705,21.0466],[24.2558,56.7047,25.7818],[24.2553,56.7002,37.196],[24.288,56.6991,14.2188],[24.2875,56.6946,26.7807],[24.2956,56.6943,20.4753],[24.2951,56.6898,18.1274],[24.3196,56.6889,27.0878],[24.3191,56.6844,21.077],[24.3272,56.6842,29.8784],[24.3267,56.6797,31.3877],[24.3675,56.6782,27.11],[24.368,56.6827,43.1383],[24.3517,56.6833,51.2466],[24.3522,56.6878,49.8797],[24.3685,56.6872,24.7407],[24.3691,56.6917,30.3647],[24.4017,56.6905,41.4169],[24.4022,56.695,38.6528],[24.4186,56.6944,48.2455],[24.4191,56.6988,48.3796],[24.4273,56.6985,53.8377],[24.4278,56.703,50.0281],[24.436,56.7027,44.1921],[24.437,56.7117,51.6356],[24.4452,56.7114,37.6356],[24.4457,56.7159,40.8251],[24.4539,56.7156,36.438],[24.455,56.7245,47.0518],[24.4631,56.7242,47.2005],[24.4637,56.7287,48.6526],[24.48,56.7281,60.4672],[24.4805,56.7326,46.5954],[24.505,56.7317,52.7977],[24.5045,56.7272,45.178],[24.5127,56.7269,46.8606],[24.5121,56.7224,50.6654],[24.5203,56.7221,49.8828],[24.5197,56.7176,51.3937],[24.5442,56.7167,60.4248],[24.5448,56.7212,50.7355],[24.6019,56.7191,44.9641],[24.6025,56.7235,48.8154],[24.627,56.7226,49.1877],[24.6248,56.7047,52.9181],[24.6329,56.7044,53.4432],[24.6307,56.6864,54.1274],[24.6062,56.6874,56.9863],[24.6057,56.6829,43.6015],[24.5893,56.6835,54.049],[24.5888,56.679,65.4914],[24.5806,56.6793,56.3139],[24.5801,56.6749,58.6363],[24.5719,56.6752,56.6383],[24.5697,56.6572,41.6383],[24.5779,56.6569,36.1451],[24.5762,56.6435,41.3724],[24.5844,56.6432,35.0379],[24.5833,56.6342,36.5737],[24.5914,56.6339,35.026],[24.5898,56.6205,46.4426],[24.5979,56.6201,60.9651],[24.5974,56.6157,49.5116],[24.6055,56.6154,36.342],[24.6049,56.6109,36.1532],[24.6131,56.6106,36.1574],[24.6125,56.6061,36.0629],[24.6451,56.6048,40.3364],[24.6457,56.6093,42.7243],[24.6701,56.6084,51.1984],[24.6695,56.6039,52.5281],[24.6614,56.6042,48.6853],[24.6608,56.5997,63.6245],[24.6527,56.6,55.0932],[24.6521,56.5956,50.0011],[24.6847,56.5943,56.5043],[24.6835,56.5853,68.1377],[24.6917,56.585,47.9119],[24.6911,56.5805,49.8318],[24.6667,56.5815,48.086],[24.6661,56.577,46.371],[24.6499,56.5776,54.3883],[24.6488,56.5687,40.1612],[24.6406,56.569,38.0538],[24.6401,56.5645,33.572],[24.6563,56.5639,39.6829],[24.6558,56.5594,40.6353]]]]}}