{"type": "Feature","id": "5796","bbox": [25.09421,57.77838,25.45537,58.07514],"geometry": {"type": "Polygon","coordinates": [[[25.33368,58.03181,71.781],[25.32458,58.03475,76.1875],[25.31828,58.04062,74.5754],[25.30639,58.05873,81.6064],[25.29957,58.0656,77.5466],[25.28169,58.07341,77.4859],[25.2635,58.07514,81.3143],[25.25069,58.0685,77.8896],[25.24955,58.05119,79.5705],[25.27756,58.02411,76.0241],[25.28438,58.00814,72.8765],[25.26453,57.99419,72.474],[25.2325,57.98538,68.6483],[25.21679,57.98538,65.5394],[25.20211,57.99197,68.471],[25.18991,58.01351,64.0877],[25.18072,58.03816,69.2275],[25.16697,58.05873,70.2272],[25.14103,58.06801,66.6696],[25.09421,58.06731,67.546],[25.10936,58.04454,64.6434],[25.10466,58.02576,64.0172],[25.09526,58.00384,67.9029],[25.10466,57.98192,73.5277],[25.13284,57.97722,74.1744],[25.13754,57.95687,69.2],[25.12501,57.9506,66.075],[25.13441,57.93025,59.0983],[25.16729,57.91459,46.8473],[25.19547,57.9052,48.2124],[25.21269,57.88798,42.4891],[25.21739,57.87232,43.807],[25.24714,57.85197,45.5214],[25.25027,57.82065,54.0591],[25.24557,57.8003,46.1554],[25.26749,57.7956,55.9828],[25.27062,57.77838,51.6991],[25.31289,57.78308,45.6763],[25.37865,57.78777,43.9781],[25.45537,57.78934,76.7664],[25.45224,57.81595,53.1952],[25.41779,57.81595,61.0201],[25.40683,57.84727,60.1037],[25.38178,57.88328,59.8704],[25.3583,57.88171,60.073],[25.33638,57.90363,59.6037],[25.30037,57.9052,45.1459],[25.27062,57.91303,49.3041],[25.26123,57.93808,54.8808],[25.27845,57.95373,62.3858],[25.30193,57.97096,72.6507],[25.32698,57.99131,64.1101],[25.34108,57.98505,58.2501],[25.34577,57.96626,63.9244],[25.37082,57.96939,65.7125],[25.4037,57.97096,74.3256],[25.40683,57.99131,71.9873],[25.41973,58.00825,77.836],[25.39662,58.02318,71.3772],[25.35652,58.03475,72.1068],[25.34639,58.03444,74.4753],[25.33988,58.03258,79.4965],[25.33368,58.03181,71.781]]]}
,"properties": {"ISO3166-1-Alpha-3": "LVA","country": "Latvia","fill": "#FF0","name": "Rujienas","area_km2": 313.1817,"hist_schema_id": "Elevation0-9000","hist_area_km2": {"50": 147.4902,"75": 164.6474,"100": 1.0441}}}