{"type":"Feature","properties":{"ISO3166-1-Alpha-3":"LVA","country":"Latvia","fill":"#F00","id":"5737","name":"Ozolnieku"},
"geometry":{"type": "Polygon","coordinates": [[[23.94141,56.72858,6.0438],[23.93521,56.73124,8.5359],[23.92498,56.73411,4.9833],[23.91955,56.74214,4.8087],[23.91289,56.74543,3.6242],[23.9009,56.74584,4.7728],[23.82829,56.73814,11.4032],[23.81822,56.7355,7.6911],[23.81124,56.73256,9.0518],[23.80127,56.72954,26.2797],[23.7839,56.73209,24.3641],[23.76747,56.73793,15.2342],[23.75631,56.74413,9.2112],[23.70124,56.73703,12.1605],[23.70124,56.72094,6.2173],[23.67084,56.71557,0.7554],[23.68336,56.6977,0.2308],[23.71018,56.70663,4.5617],[23.73121,56.6905,3.6285],[23.79362,56.6815,25.2498],[23.80782,56.6542,5.2683],[23.79194,56.64688,2.563],[23.82817,56.62797,6.7196],[23.86572,56.61545,25.075],[23.9122,56.6083,2.072],[23.94081,56.5797,21.1237],[23.96405,56.55467,9.7955],[23.96941,56.51891,11.538],[23.99231,56.50255,7.7879],[24.01774,56.50201,11.998],[24.03174,56.50172,6.9381],[24.0429,56.50283,12.1472],[24.08094,56.52745,36.4647],[24.07887,56.53546,20.0961],[24.08838,56.55076,33.9479],[24.10528,56.56396,31.8615],[24.11024,56.57494,22.9436],[24.10667,56.58037,19.795],[24.09427,56.58177,32.3996],[24.08156,56.5819,20.7804],[24.05562,56.58575,16.092],[24.04089,56.59241,9.3709],[24.02658,56.60275,2.4457],[24.02647,56.60784,8.4698],[24.03004,56.60879,19.7136],[24.03934,56.60879,23.5917],[24.04911,56.61099,16.5765],[24.05748,56.61908,15.6079],[24.05515,56.62378,11.8651],[24.0519,56.62796,10.1143],[24.05035,56.63184,4.307],[24.05097,56.63525,4.2976],[24.04616,56.63776,4.447],[24.03639,56.64148,7.9981],[24.00999,56.65887,5.0523],[24.00673,56.66476,5.6985],[24.0089,56.66621,8.9131],[24.01774,56.66274,11.9891],[24.02347,56.65851,9.9461],[24.03453,56.65949,16.1225],[24.04213,56.66124,13.3136],[24.03391,56.68822,16.3391],[24.00069,56.69564,6.1936],[24.00813,56.70998,6.0693],[23.9982,56.7216,15.8492],[23.99634,56.73049,13.1857],[23.94141,56.72858,6.0438]]]}}