{"type": "Feature","id": "5716","bbox": [21.02064,56.32609,21.43742,56.68214],"geometry": {"type": "Polygon","coordinates": [[[21.21142,56.64589,42.142],[21.15386,56.68214,23.8438],[21.12188,56.63523,13.5312],[21.05792,56.64376,2.7445],[21.04615,56.6562,4.6352],[21.02064,56.61505,0.0],[21.06725,56.60574,4.629],[21.07741,56.56283,7.5461],[21.09376,56.56877,5.6238],[21.10322,56.53277,4.4292],[21.07271,56.52328,0.4906],[21.05291,56.51105,0.0],[21.05836,56.50365,-0.0645],[21.06324,56.49396,0.0227],[21.12827,56.49878,15.6812],[21.14746,56.43056,12.264],[21.21142,56.43269,32.2361],[21.22635,56.35168,30.3168],[21.26259,56.32609,24.7057],[21.37985,56.32822,12.0891],[21.4161,56.35381,14.0473],[21.43742,56.40711,13.9371],[21.38625,56.46467,39.2009],[21.38412,56.49026,33.5292],[21.35427,56.50305,62.4601],[21.34787,56.54356,47.4785],[21.2562,56.53076,32.7996],[21.25406,56.58833,42.6919],[21.28178,56.61178,44.8201],[21.25833,56.65655,35.4964],[21.21142,56.64589,42.142]]]}
,"properties": {"ISO3166-1-Alpha-3": "LVA","country": "Latvia","fill": "#F0F","name": "Grobinas","area_km2": 486.7601,"hist_schema_id": "Elevation0-9000","hist_area_km2": {"0": 48.935,"25": 328.6397,"50": 105.5003,"75": 3.6851}}}