{"type": "Feature","id": "5771","bbox": [23.82281,56.82642,24.06625,56.93867],"geometry": {"type": "Polygon","coordinates": [[[24.06625,56.88612,14.0217],[24.06213,56.89844,12.0115],[24.04027,56.91004,10.6964],[24.02658,56.91963,9.9808],[24.00239,56.92371,13.0726],[23.97149,56.93324,8.3806],[23.94265,56.93867,28.2617],[23.91757,56.92833,4.8009],[23.89969,56.91402,16.4112],[23.85678,56.89793,12.1108],[23.82281,56.88363,9.4675],[23.84426,56.84787,13.0701],[23.85499,56.82642,8.9821],[23.88539,56.84251,13.2271],[23.96763,56.84966,11.1551],[24.01232,56.85145,11.388],[24.03556,56.86754,12.3027],[24.06625,56.88612,14.0217]]]}
,"properties": {"ISO3166-1-Alpha-3": "LVA","country": "Latvia","fill": "#FF0","name": "Marupes","area_km2": 105.06151,"hist_schema_id": "Elevation0-9000","hist_area_km2": {"0": 62.24795,"25": 42.802,"50": 0.01157}}}