{"type":"Feature","properties":{"GID_2":"LVA.5.5_1","GID_0":"LVA","country":"Latvia","GID_1":"LVA.5_1","province":"Zemgale","NL_NAME_1":"NA","county":"Jelgava","VARNAME_2":"Mitau","NL_NAME_2":"NA","TYPE_2":"Aprinki|rajoni","ENGTYPE_2":"District","CC_2":"NA","HASC_2":"LV.JG","name":"Jelgava.county"},
"geometry":{"type": "MultiPolygon","coordinates": [[[[23.6194,56.9008,-0.2663],[23.6186,56.8918,0.1069],[23.6103,56.8921,-0.1657],[23.6099,56.8876,-0.0022],[23.6017,56.8878,0.1338],[23.6,56.8699,0.4566],[23.5918,56.8701,2.421],[23.5913,56.8656,1.4251],[23.5831,56.8659,2.4927],[23.5822,56.8569,0.5907],[23.574,56.8572,2.1865],[23.5732,56.8482,0.26],[23.565,56.8484,0.8813],[23.5645,56.8439,1.1911],[23.5482,56.8444,22.0171],[23.5477,56.8399,6.5817],[23.5559,56.8397,3.2221],[23.5555,56.8352,2.343],[23.5473,56.8354,3.5461],[23.5469,56.831,8.8225],[23.5714,56.8302,0.3885],[23.5706,56.8213,0.6174],[23.5624,56.8215,5.8266],[23.5615,56.8125,3.0702],[23.5697,56.8123,1.3174],[23.5689,56.8033,-0.4166],[23.5607,56.8036,8.3042],[23.5598,56.7946,-0.2021],[23.5516,56.7948,6.6422],[23.5503,56.7814,-0.0694],[23.5421,56.7816,12.55],[23.5417,56.7771,5.0205],[23.5335,56.7774,11.4575],[23.5323,56.7639,6.8702],[23.5404,56.7637,5.7769],[23.54,56.7592,3.2093],[23.5318,56.7594,8.9799],[23.531,56.7504,4.6606],[23.5146,56.7509,22.538],[23.5142,56.7464,26.9714],[23.4897,56.7471,16.3532],[23.4892,56.7426,14.8403],[23.4647,56.7433,13.0374],[23.4643,56.7389,17.1607],[23.4561,56.7391,13.2353],[23.4557,56.7346,18.239],[23.4475,56.7348,17.5152],[23.4463,56.7214,15.7978],[23.4381,56.7216,25.0197],[23.4373,56.7126,26.622],[23.4291,56.7129,22.67],[23.4283,56.7039,7.1434],[23.4364,56.7037,5.7884],[23.436,56.6992,7.3447],[23.4442,56.6989,5.8224],[23.4438,56.6945,5.8395],[23.4765,56.6935,5.7081],[23.476,56.689,5.272],[23.4842,56.6888,4.7922],[23.4838,56.6843,5.3989],[23.5001,56.6838,5.722],[23.4997,56.6794,7.0688],[23.4915,56.6796,5.1803],[23.4911,56.6751,5.0463],[23.4666,56.6758,5.9921],[23.4662,56.6713,7.0595],[23.4744,56.6711,16.7794],[23.4739,56.6666,6.5847],[23.4903,56.6661,5.6135],[23.489,56.6527,6.5852],[23.4808,56.6529,7.3646],[23.4796,56.6395,7.474],[23.4877,56.6392,6.9917],[23.4873,56.6347,7.8459],[23.4955,56.6345,6.4526],[23.4951,56.63,6.6272],[23.5114,56.6295,5.63],[23.5109,56.625,6.789],[23.5028,56.6253,7.9117],[23.5019,56.6163,9.5258],[23.5101,56.6161,8.3177],[23.5093,56.6071,9.4471],[23.5011,56.6073,10.4868],[23.5007,56.6029,11.5123],[23.4925,56.6031,12.2343],[23.4904,56.5807,15.8991],[23.4497,56.5818,18.4298],[23.4493,56.5773,18.9323],[23.433,56.5778,18.0466],[23.4314,56.5599,21.3878],[23.4395,56.5596,21.146],[23.4391,56.5551,22.2203],[23.4635,56.5544,24.4463],[23.4631,56.5499,24.1959],[23.4712,56.5497,19.5183],[23.4704,56.5407,22.0606],[23.4623,56.541,20.1085],[23.4598,56.5141,29.0489],[23.4517,56.5143,30.7911],[23.4508,56.5053,20.5951],[23.459,56.5051,25.8652],[23.4586,56.5006,27.1802],[23.4504,56.5008,18.0698],[23.45,56.4963,28.4858],[23.4338,56.4968,21.3897],[23.4334,56.4923,47.4286],[23.4171,56.4928,23.6472],[23.4159,56.4793,77.7368],[23.4402,56.4786,57.5201],[23.4398,56.4741,38.9519],[23.4317,56.4744,52.5044],[23.4313,56.4699,43.6115],[23.4232,56.4701,64.8931],[23.4228,56.4656,45.6154],[23.4147,56.4659,78.2944],[23.4143,56.4614,49.2336],[23.4224,56.4611,48.726],[23.4216,56.4522,42.6801],[23.4378,56.4517,41.4506],[23.4357,56.4293,42.5187],[23.4438,56.429,41.4623],[23.443,56.4201,40.5194],[23.4511,56.4198,41.2173],[23.4507,56.4153,41.8414],[23.4588,56.4151,39.6698],[23.458,56.4061,37.9307],[23.4661,56.4059,40.2382],[23.4653,56.3969,36.6512],[23.4572,56.3972,40.8852],[23.4568,56.3927,47.9419],[23.4487,56.3929,41.3003],[23.4482,56.3884,47.4586],[23.4401,56.3886,41.98],[23.4393,56.3797,45.9386],[23.4069,56.3806,56.1506],[23.4065,56.3761,55.4087],[23.3984,56.3763,61.9373],[23.398,56.3718,43.5422],[23.4223,56.3712,49.0572],[23.4219,56.3667,44.9815],[23.43,56.3664,44.1213],[23.4292,56.3575,47.2544],[23.4454,56.357,52.2736],[23.445,56.3525,47.6018],[23.4611,56.3521,45.1757],[23.4607,56.3476,47.1281],[23.485,56.3469,43.2674],[23.4846,56.3424,44.1687],[23.5008,56.3419,44.0058],[23.5004,56.3374,43.5096],[23.5327,56.3365,42.7466],[23.5323,56.332,43.3895],[23.5485,56.3315,42.6375],[23.5489,56.336,40.9522],[23.5731,56.3353,39.4505],[23.5736,56.3398,62.514],[23.5817,56.3395,39.4005],[23.5821,56.344,53.4468],[23.5902,56.3438,36.6924],[23.5906,56.3483,41.2772],[23.6068,56.3478,38.2249],[23.6072,56.3523,40.852],[23.6153,56.352,39.5524],[23.6157,56.3565,60.8524],[23.6319,56.356,36.7077],[23.6324,56.3605,49.9848],[23.6404,56.3603,45.4488],[23.6409,56.3647,48.9812],[23.6652,56.364,40.1363],[23.6656,56.3685,36.4721],[23.7223,56.3668,37.9112],[23.7227,56.3712,36.7524],[23.7632,56.37,38.874],[23.7627,56.3655,39.4722],[23.7789,56.365,38.8099],[23.7776,56.3515,39.9235],[23.7695,56.3518,50.5152],[23.7668,56.3249,42.4023],[23.783,56.3244,42.9292],[23.7834,56.3288,42.8481],[23.7915,56.3286,43.0694],[23.7924,56.3376,42.6126],[23.8005,56.3373,44.8117],[23.8009,56.3418,41.6576],[23.8495,56.3403,43.1078],[23.849,56.3358,43.3845],[23.8571,56.3355,41.0114],[23.8589,56.3534,37.6121],[23.867,56.3532,37.1049],[23.8716,56.398,35.6989],[23.8797,56.3978,31.5188],[23.8802,56.4023,30.6389],[23.8478,56.4033,32.9988],[23.8473,56.3988,42.0408],[23.8311,56.3993,35.4158],[23.8325,56.4128,42.3296],[23.8487,56.4123,30.7297],[23.8492,56.4168,31.3355],[23.8411,56.417,30.8696],[23.8415,56.4215,30.4045],[23.8496,56.4212,29.3869],[23.8505,56.4302,28.0441],[23.8586,56.43,27.8144],[23.8596,56.4389,25.1268],[23.8433,56.4394,27.1094],[23.8447,56.4529,24.3792],[23.8609,56.4524,22.575],[23.8628,56.4703,21.6372],[23.8709,56.4701,19.5324],[23.8718,56.479,20.9454],[23.8799,56.4788,20.7231],[23.8795,56.4743,21.9256],[23.8876,56.474,22.2236],[23.8881,56.4785,21.0153],[23.8962,56.4783,21.0198],[23.8966,56.4827,19.5688],[23.921,56.482,19.8391],[23.9224,56.4954,18.0189],[23.9468,56.4946,17.0706],[23.9487,56.5126,12.6744],[23.973,56.5118,13.4063],[23.9735,56.5162,12.2838],[23.9897,56.5157,7.165],[23.9883,56.5023,7.0545],[24.0127,56.5014,11.3516],[24.0136,56.5104,7.7538],[24.0461,56.5093,13.562],[24.0466,56.5138,12.9746],[24.0547,56.5135,15.351],[24.0567,56.5315,10.7517],[24.0648,56.5312,16.0236],[24.0653,56.5357,13.0637],[24.0734,56.5354,18.6408],[24.0749,56.5489,37.7837],[24.083,56.5486,27.6808],[24.0835,56.5531,35.1782],[24.0998,56.5525,20.8522],[24.1022,56.5749,21.0157],[24.1104,56.5747,22.9436],[24.1109,56.5792,20.0989],[24.119,56.5789,31.6623],[24.1195,56.5834,14.9405],[24.1276,56.5831,15.0873],[24.1281,56.5876,16.2883],[24.12,56.5878,18.7164],[24.1205,56.5923,16.1018],[24.0961,56.5932,13.423],[24.0956,56.5887,14.9504],[24.0549,56.59,25.3634],[24.0544,56.5856,16.092],[24.0462,56.5858,8.747],[24.0467,56.5903,17.6146],[24.0386,56.5906,7.5923],[24.0396,56.5996,9.4883],[24.0151,56.6004,6.6077],[24.0171,56.6183,14.2617],[24.0089,56.6186,22.0022],[24.0094,56.6231,9.8847],[24.0257,56.6225,24.2776],[24.0242,56.6091,12.3424],[24.0405,56.6085,11.5723],[24.042,56.622,26.3047],[24.0501,56.6217,20.4557],[24.0496,56.6172,24.1533],[24.0659,56.6167,24.5167],[24.0664,56.6212,19.511],[24.0746,56.6209,6.1391],[24.0751,56.6254,12.1329],[24.0669,56.6257,10.8098],[24.0684,56.6391,7.0033],[24.0439,56.6399,5.5692],[24.0444,56.6444,8.9461],[24.0526,56.6441,13.2203],[24.0531,56.6486,21.1419],[24.0612,56.6483,26.5456],[24.0617,56.6528,14.922],[24.0372,56.6536,6.1575],[24.0382,56.6626,15.587],[23.9974,56.664,7.0133],[23.9993,56.6819,13.0017],[24.0075,56.6816,25.4987],[24.007,56.6772,10.7077],[24.0152,56.6769,9.7702],[24.0142,56.6679,15.3574],[24.055,56.6666,8.8363],[24.056,56.6755,5.8012],[24.0478,56.6758,24.2086],[24.0512,56.7072,22.4597],[24.0349,56.7077,6.4573],[24.0354,56.7122,14.9313],[24.0191,56.7128,15.7129],[24.02,56.7217,6.4053],[24.0119,56.722,7.6846],[24.0123,56.7265,11.0567],[24.0205,56.7262,8.1949],[24.0215,56.7352,9.5315],[24.0133,56.7355,9.7672],[24.0138,56.7399,18.4048],[23.9974,56.7405,8.7042],[23.997,56.736,11.9939],[23.9561,56.7373,14.3919],[23.9556,56.7328,12.608],[23.9229,56.7339,5.1761],[23.9244,56.7474,8.5246],[23.9162,56.7476,3.9826],[23.9167,56.7521,5.3483],[23.9085,56.7524,7.6116],[23.908,56.7479,5.5037],[23.859,56.7495,18.4946],[23.8585,56.745,15.4246],[23.8421,56.7455,22.3943],[23.840699999999998,56.732,17.1458],[23.8326,56.7323,8.1796],[23.8335,56.7413,16.9855],[23.8253,56.7415,8.6311],[23.8249,56.737,19.7374],[23.8167,56.7373,25.9555],[23.8162,56.7328,5.9455],[23.7917,56.7336,24.7507],[23.7922,56.7381,22.7538],[23.7758,56.7386,10.3632],[23.7763,56.7431,21.8917],[23.7599,56.7436,25.2291],[23.7604,56.7481,23.2652],[23.7522,56.7483,5.8232],[23.7536,56.7618,5.3517],[23.7617,56.7615,23.4262],[23.7622,56.766,7.1611],[23.7704,56.7657,29.1425],[23.7717,56.7792,15.6771],[23.7799,56.7789,9.5421],[23.7818,56.7969,20.6398],[23.7899,56.7966,19.0903],[23.7904,56.8011,15.8897],[23.7822,56.8014,10.9903],[23.7827,56.8059,14.6303],[23.7745,56.8061,17.5964],[23.7758,56.8196,7.2793],[23.7513,56.8203,10.3649],[23.7522,56.8293,6.8512],[23.744,56.8295,12.1409],[23.7449,56.8385,7.3407],[23.7367,56.8388,11.0466],[23.7385,56.8567,22.5318],[23.7303,56.857,10.1393],[23.7312,56.8659,11.752],[23.7148,56.8664,16.67],[23.7153,56.8709,17.6008],[23.7071,56.8712,27.2219],[23.7075,56.8757,20.0388],[23.6911,56.8762,6.0692],[23.6915,56.8806,10.3929],[23.6833,56.8809,9.6249],[23.6838,56.8854,5.4955],[23.6592,56.8861,1.7669],[23.66,56.8951,-0.0105],[23.6518,56.8953,0.1104],[23.6523,56.8998,-0.3721],[23.6194,56.9008,-0.2663]]]]}}