{"type":"Feature","properties":{"ISO3166-1-Alpha-3":"LVA","country":"Latvia","fill":"#FF0","id":"1084","name":"Jelgava"},
"geometry":{"type": "Polygon","coordinates": [[[23.76964,56.80005,31.3071],[23.73409,56.82201,14.1786],[23.71843,56.83596,12.1296],[23.70727,56.85214,8.9904],[23.66954,56.8749,7.9037],[23.62624,56.88924,0.168],[23.60081,56.88929,0.2542],[23.58764,56.8912,6.8963],[23.50676,56.89462,9.3977],[23.46196,56.88423,14.8507],[23.48661,56.81591,27.1263],[23.50552,56.80821,26.7037],[23.52526,56.76367,2.7061],[23.50289,56.74687,20.9551],[23.45927,56.73457,9.394],[23.43648,56.72388,6.5251],[23.41741,56.70682,7.3422],[23.44268,56.6968,6.2173],[23.46299,56.69253,5.4639],[23.47824,56.68481,5.5044],[23.48149,56.68042,5.2836],[23.47979,56.67677,5.8998],[23.48428,56.66491,5.8336],[23.48537,56.66029,10.7568],[23.47607,56.65618,6.7313],[23.44454,56.64156,9.9403],[23.43819,56.63445,10.1523],[23.4247,56.62213,13.0401],[23.41292,56.61603,14.4226],[23.40594,56.60644,15.4583],[23.48025,56.59954,14.3265],[23.47715,56.58693,16.7678],[23.44842,56.57908,18.5069],[23.43679,56.57706,20.1635],[23.43214,56.57084,17.1098],[23.43447,56.56409,20.161],[23.44594,56.55639,21.2137],[23.45865,56.54482,27.7601],[23.45927,56.52983,20.8023],[23.44749,56.50562,28.0391],[23.43788,56.49926,22.4501],[23.41509,56.4933,25.4395],[23.43075,56.47759,69.5249],[23.4278,56.47288,66.4214],[23.42594,56.46893,57.3615],[23.4154,56.46146,49.2336],[23.41307,56.45945,54.4202],[23.41881,56.44945,42.7145],[23.4309,56.44519,44.3921],[23.43943,56.43666,40.9193],[23.4495,56.42188,39.2162],[23.46206,56.40715,37.4376],[23.46237,56.39795,39.2594],[23.45695,56.39165,38.0965],[23.44997,56.38627,50.8629],[23.44237,56.38206,51.1104],[23.43044,56.3779,60.5638],[23.4202,56.37589,51.5678],[23.38481,56.36075,56.2844],[23.37835,56.35491,68.1424],[23.37804,56.35463,68.1424],[23.48159,56.3301,47.3219],[23.51756,56.32866,46.7648],[23.57771,56.3486,42.9206],[23.60986,56.35382,54.6192],[23.67941,56.35186,39.8319],[23.7067,56.35444,39.6617],[23.71507,56.35274,37.9158],[23.72354,56.34581,38.9372],[23.72478,56.3384,42.7599],[23.72365,56.33212,41.9053],[23.72499,56.32881,42.6372],[23.7561,56.32597,43.575],[23.82504,56.33491,42.458],[23.85811,56.33439,41.0103],[23.87111,56.33207,52.202],[23.87103,56.33243,43.293],[23.86865,56.34328,47.2305],[23.87082,56.36715,35.8117],[23.87361,56.37377,44.7386],[23.87935,56.38428,32.1085],[23.87392,56.38948,32.4827],[23.8362,56.38785,40.9653],[23.83666,56.39325,36.97],[23.83868,56.39702,35.6733],[23.84302,56.40183,34.0783],[23.84798,56.41175,38.0196],[23.85046,56.41847,31.5922],[23.85015,56.42338,29.1838],[23.84271,56.42741,29.523],[23.84101,56.43035,28.5335],[23.840699999999998,56.43418,26.9757],[23.84752,56.43883,25.3416],[23.86168,56.44849,23.432],[23.87501,56.46286,24.1381],[23.88602,56.46611,21.5886],[23.92002,56.47273,20.8749],[23.93211,56.48275,20.6768],[23.95009,56.48803,18.3871],[23.96265,56.49784,13.6817],[23.99231,56.50255,7.7879],[23.96941,56.51891,11.538],[23.96405,56.55467,9.7955],[23.94081,56.5797,21.1237],[23.9122,56.6083,2.072],[23.86572,56.61545,25.075],[23.82817,56.62797,6.7196],[23.79194,56.64688,2.563],[23.76982,56.63669,3.7107],[23.7788,56.61758,4.8549],[23.73901,56.60766,15.0875],[23.70759,56.59189,11.6315],[23.67099,56.6015,4.6781],[23.67699,56.6299,16.8956],[23.63118,56.6503,3.5048],[23.61795,56.66954,9.5134],[23.64441,56.67796,3.6329],[23.6838,56.6741,2.4555],[23.73121,56.6905,3.6285],[23.71018,56.70663,4.5617],[23.68336,56.6977,0.2308],[23.67084,56.71557,0.7554],[23.70124,56.72094,6.2173],[23.70124,56.73703,12.1605],[23.75631,56.74413,9.2112],[23.76421,56.76827,17.8391],[23.75972,56.77188,16.9698],[23.76964,56.80005,31.3071]]]}}