{"type": "Feature","id": "4849","bbox": [23.61795,56.59189,23.80782,56.6905],"geometry": {"type": "Polygon","coordinates": [[[23.79194,56.64688,2.563],[23.80782,56.6542,5.2683],[23.79362,56.6815,25.2498],[23.73121,56.6905,3.6285],[23.6838,56.6741,2.4555],[23.64441,56.67796,3.6329],[23.61795,56.66954,9.5134],[23.63118,56.6503,3.5048],[23.67699,56.6299,16.8956],[23.67099,56.6015,4.6781],[23.70759,56.59189,11.6315],[23.73901,56.60766,15.0875],[23.7788,56.61758,4.8549],[23.76982,56.63669,3.7107],[23.79194,56.64688,2.563]]]}
,"properties": {"ISO3166-1-Alpha-3": "LVA","country": "Latvia","fill": "#F0F","name": "Jelgava","area_km2": 73.33285,"hist_schema_id": "Elevation0-9000","hist_area_km2": {"0": 59.61104,"25": 13.7218}}}