{"type":"Feature","properties":{"GID_1":"LVA.5_1","GID_0":"LVA","country":"Latvia","province":"Zemgale","VARNAME_1":"NA","NL_NAME_1":"NA","TYPE_1":"Province","ENGTYPE_1":"Province","CC_1":"NA","HASC_1":"Z","ISO_1":"NA","name":"Zemgale.province"},
"geometry":{"type": "MultiPolygon","coordinates": [[[[26.3201,56.1137,88.7359],[26.3141,56.114,105.3918],[26.3126,56.1051,107.2757],[26.3206,56.1047,92.9706],[26.3221,56.1136,88.9748],[26.3201,56.1137,88.7359]]],
[[[26.3076,56.1234,98.7161],[26.3068,56.118899999999996,107.6655],[26.3149,56.1185,89.7882],[26.3186,56.1409,89.2751],[26.3106,56.1413,97.8571],[26.3091,56.1324,108.3409],[26.301,56.1328,99.2044],[26.3003,56.1283,97.3205],[26.3083,56.1279,110.8461],[26.3076,56.1234,98.7161]]],
[[[26.2852,56.1832,82.0],[26.2771,56.1837,94.5348],[26.2778,56.1881,83.2152],[26.2698,56.1886,97.2846],[26.2706,56.193,89.5586],[26.2625,56.1934,92.2598],[26.2647,56.2069,87.4587],[26.2487,56.2077,89.6601],[26.2494,56.2122,91.0596],[26.2333,56.213,88.7564],[26.2341,56.2175,86.2683],[26.218,56.2183,82.0],[26.2187,56.2228,90.8302],[26.1865,56.2245,94.1656],[26.1873,56.2289,82.0],[26.1792,56.2294,93.7282],[26.1799,56.2338,82.9393],[26.1719,56.2342,96.573],[26.1726,56.2387,86.8792],[26.1646,56.2391,99.787],[26.1682,56.2615,96.2868],[26.1763,56.2611,100.1743],[26.177,56.2656,96.1183],[26.1851,56.2651,91.4731],[26.1865,56.2741,92.0105],[26.1946,56.2737,91.6658],[26.1953,56.2781,92.7072],[26.1792,56.279,92.3598],[26.1807,56.2879,87.5956],[26.1726,56.2883,95.8896],[26.1741,56.2973,90.7321],[26.166,56.2977,96.3934],[26.169,56.3156,87.8801],[26.1609,56.316,102.6271],[26.1638,56.3339,87.3911],[26.1558,56.3343,91.6387],[26.158,56.3477,90.4252],[26.1499,56.3481,91.1447],[26.1528,56.366,87.3095],[26.1447,56.3665,96.0723],[26.1477,56.3843,80.7563],[26.1315,56.3852,90.6389],[26.1322,56.3896,91.5303],[26.1242,56.3901,94.3013],[26.1249,56.3945,80.0],[26.1087,56.3954,100.2981],[26.1109,56.4088,96.8007],[26.0948,56.4096,89.9264],[26.0962,56.4185,91.5779],[26.1043,56.4181,98.7415],[26.105,56.4226,99.0408],[26.1131,56.4222,99.1499],[26.1138,56.4267,94.5242],[26.13,56.4258,103.8675],[26.1307,56.4303,99.7713],[26.1388,56.4299,92.9759],[26.1396,56.4344,89.325],[26.1638,56.4331,97.5114],[26.1653,56.4421,88.6465],[26.1734,56.4417,92.1678],[26.1749,56.4506,87.8516],[26.183,56.4502,89.3588],[26.1844,56.4591,86.5685],[26.1925,56.4587,86.4684],[26.194,56.4677,100.1632],[26.2021,56.4673,106.9118],[26.2043,56.4807,88.0157],[26.2124,56.4803,89.9858],[26.2132,56.4847,88.8891],[26.2213,56.4843,89.3564],[26.2227,56.4933,90.928],[26.239,56.4924,90.6184],[26.2412,56.5058,93.994],[26.2493,56.5054,91.4909],[26.25,56.5099,91.6793],[26.2662,56.509,92.0722],[26.267,56.5135,91.829],[26.2751,56.5131,94.2831],[26.2781,56.531,95.8111],[26.3024,56.5297,93.7405],[26.3017,56.5252,92.9798],[26.3179,56.5244,102.9387],[26.3171,56.5199,96.5625],[26.3252,56.5195,113.4122],[26.323,56.5061,104.9313],[26.3311,56.5057,98.0977],[26.3303,56.5012,100.1191],[26.3465,56.5003,104.1882],[26.3458,56.4959,107.4073],[26.3539,56.4954,99.4077],[26.3531,56.491,99.4365],[26.3612,56.4905,104.5606],[26.3604,56.4861,102.6097],[26.3685,56.4856,100.451],[26.3678,56.4812,98.1095],[26.3759,56.4807,98.0908],[26.3728,56.4628,110.5681],[26.3971,56.4616,107.0521],[26.3979,56.466,122.127],[26.406,56.4656,119.1952],[26.4067,56.4701,119.3353],[26.4148,56.4696,110.6289],[26.4156,56.4741,115.9229],[26.4237,56.4737,115.5724],[26.4244,56.4782,114.7746],[26.4325,56.4777,114.9981],[26.4333,56.4822,112.8191],[26.4495,56.4813,105.4418],[26.4503,56.4858,110.7975],[26.4584,56.4854,105.8242],[26.4599,56.4943,107.8546],[26.468,56.4939,110.5886],[26.4696,56.5028,119.0473],[26.4777,56.5024,117.9502],[26.4784,56.5068,129.1464],[26.4865,56.5064,120.4977],[26.4873,56.5109,110.4566],[26.5197,56.5091,109.9622],[26.5189,56.5047,111.6257],[26.5594,56.5025,110.796],[26.5579,56.4935,110.9822],[26.566,56.4931,111.5553],[26.5668,56.4976,112.207],[26.6234,56.4944,105.4019],[26.6258,56.5079,121.7328],[26.6177,56.5083,107.4015],[26.6169,56.5038,109.023],[26.6088,56.5043,116.2953],[26.6128,56.5266,112.5959],[26.6209,56.5262,120.4258],[26.6225,56.5351,114.4074],[26.6306,56.5347,112.6506],[26.6329,56.5481,110.4411],[26.6248,56.5485,119.3815],[26.6264,56.5575,110.4292],[26.6183,56.5579,127.527],[26.6199,56.5669,109.4804],[26.6037,56.5677,106.4238],[26.6021,56.5588,109.6607],[26.594,56.5592,111.4167],[26.5948,56.5637,107.5673],[26.5867,56.5642,119.0983],[26.589,56.5776,109.0908],[26.5971,56.5771,103.5763],[26.6027,56.6084,115.5499],[26.5864,56.6093,108.1509],[26.5857,56.6048,107.695],[26.4882,56.6101,110.5684],[26.489,56.6146,110.9543],[26.4808,56.615,111.57],[26.4816,56.6195,111.3703],[26.4654,56.6204,110.7978],[26.4661,56.6248,110.4649],[26.4499,56.6257,112.6923],[26.4507,56.6302,112.466],[26.4344,56.631,112.0103],[26.4352,56.6355,112.0179],[26.4189,56.6364,111.4951],[26.4197,56.6408,111.4286],[26.4116,56.6413,110.8316],[26.4123,56.6457,112.9145],[26.4042,56.6462,113.7847],[26.405,56.6506,112.2088],[26.3968,56.6511,109.5748],[26.3976,56.6555,106.6251],[26.3895,56.656,109.5334],[26.3872,56.6426,109.0877],[26.379,56.643,110.3279],[26.3767,56.6296,109.8448],[26.3686,56.63,111.0728],[26.3663,56.6166,110.1314],[26.3582,56.617,108.3986],[26.3567,56.6081,110.5159],[26.3485,56.6085,113.3866],[26.3478,56.604,110.5511],[26.3397,56.6045,113.6174],[26.3389,56.6,110.0204],[26.3308,56.6004,110.0208],[26.33,56.5959,108.7546],[26.2975,56.5976,103.7207],[26.2983,56.6021,104.5135],[26.2902,56.6025,100.131],[26.2917,56.6115,105.5145],[26.2835,56.6119,101.0032],[26.2843,56.6164,101.3605],[26.2924,56.616,102.5454],[26.2932,56.6204,106.4313],[26.285,56.6208,108.831],[26.2858,56.6253,107.5085],[26.2695,56.6262,115.5108],[26.2688,56.6217,112.9165],[26.2444,56.623,112.8714],[26.2437,56.6185,106.8335],[26.2355,56.6189,113.1544],[26.2348,56.6144,112.1642],[26.2185,56.6153,111.3856],[26.2193,56.6197,121.8525],[26.2111,56.6202,109.2287],[26.2126,56.6291,122.9131],[26.2045,56.6295,125.8966],[26.206,56.6385,134.1738],[26.2141,56.638,142.1417],[26.2156,56.647,132.8614],[26.2075,56.6474,123.8757],[26.2082,56.6519,128.7813],[26.1675,56.654,108.4662],[26.1668,56.6495,112.5034],[26.1587,56.6499,110.6636],[26.1594,56.6544,107.5109],[26.1513,56.6548,113.9128],[26.152,56.6593,102.7967],[26.1439,56.6597,96.1096],[26.1446,56.6642,106.4154],[26.1283,56.665,126.2329],[26.1276,56.6605,120.8131],[26.1195,56.6609,120.0697],[26.1187,56.6564,104.485],[26.0943,56.6577,110.6737],[26.0936,56.6532,109.9486],[26.0854,56.6536,115.4158],[26.0847,56.6491,112.1069],[26.0766,56.6495,109.7658],[26.0759,56.6451,100.3804],[26.0677,56.6455,123.2233],[26.0663,56.6365,97.981],[26.05,56.6373,104.6397],[26.0493,56.6329,101.85],[26.0411,56.6333,95.5245],[26.0404,56.6288,100.3641],[26.0241,56.6296,98.8011],[26.0249,56.6341,108.3108],[26.0167,56.6345,107.805],[26.0175,56.639,103.8225],[26.0256,56.6386,114.3667],[26.027,56.6475,113.6109],[26.0108,56.6483,112.0217],[26.0115,56.6528,106.7165],[26.0033,56.6532,110.1795],[26.0026,56.6487,90.7761],[25.9945,56.6491,94.5973],[25.9952,56.6536,105.4094],[25.9871,56.654,89.4855],[25.9892,56.6674,85.0975],[25.9648,56.6686,115.2173],[25.9627,56.6552,96.0818],[25.9545,56.6556,91.6456],[25.9538,56.6511,84.3446],[25.9457,56.6515,90.4645],[25.945,56.6471,87.63],[25.9287,56.6479,99.7145],[25.9301,56.6568,87.7051],[25.9138,56.6576,99.2946],[25.916,56.671,93.797],[25.9241,56.6706,98.5719],[25.9248,56.6751,94.5817],[25.933,56.6747,102.0946],[25.9344,56.6837,110.8714],[25.9425,56.6833,97.7927],[25.944,56.6922,90.9811],[25.9358,56.6926,94.4554],[25.9365,56.6971,99.4455],[25.9202,56.6979,94.1411],[25.9209,56.7024,94.8325],[25.8965,56.7035,97.2595],[25.8958,56.6991,92.7577],[25.8795,56.6999,93.1144],[25.8802,56.7043,101.2718],[25.8476,56.7059,106.3453],[25.8483,56.7104,100.7768],[25.832,56.7112,105.5942],[25.8327,56.7157,115.3348],[25.8245,56.716,111.8266],[25.8288,56.7429,148.1159],[25.8206,56.7433,140.1657],[25.8213,56.7478,148.0916],[25.8131,56.7481,144.4513],[25.8145,56.7571,156.5659],[25.8227,56.7567,154.2611],[25.8234,56.7612,158.0281],[25.8316,56.7608,151.3169],[25.833,56.7697,168.3029],[25.8493,56.769,170.122],[25.8514,56.7824,188.041],[25.8433,56.7828,187.2581],[25.8447,56.7917,188.0455],[25.8365,56.7921,193.7999],[25.8379,56.8011,184.5135],[25.8297,56.8015,191.6548],[25.8304,56.8059,192.0919],[25.8141,56.8067,210.8142],[25.8148,56.8112,212.0817],[25.8066,56.8116,208.0644],[25.8073,56.8161,219.3926],[25.791,56.8168,203.0082],[25.7917,56.8213,186.2319],[25.7753,56.8221,182.5185],[25.776,56.8266,189.5791],[25.7678,56.827,178.4471],[25.7685,56.8314,205.6106],[25.744,56.8326,199.7874],[25.7433,56.8281,185.5352],[25.7351,56.8285,169.8687],[25.7344,56.824,172.9832],[25.7508,56.8233,188.1161],[25.7487,56.8098,188.4911],[25.7405,56.8102,174.8582],[25.7398,56.8057,167.839],[25.7317,56.8061,167.3404],[25.7289,56.7882,153.4777],[25.7452,56.7875,172.4223],[25.7445,56.783,151.4678],[25.7364,56.7834,164.8869],[25.7357,56.7789,168.8304],[25.7112,56.78,160.2471],[25.7105,56.7756,160.7322],[25.6778,56.7771,149.8433],[25.6785,56.7816,155.0905],[25.6703,56.782,148.3359],[25.671,56.7864,152.5193],[25.6792,56.7861,157.0453],[25.6806,56.795,172.429],[25.6479,56.7965,150.6958],[25.6486,56.801,157.4727],[25.6404,56.8014,151.6169],[25.6411,56.8059,162.2326],[25.6247,56.8066,148.5175],[25.6254,56.8111,149.5043],[25.609,56.8118,144.9656],[25.6097,56.8163,149.8039],[25.5607,56.8186,158.5915],[25.56,56.8141,145.4191],[25.5518,56.8145,147.3241],[25.5511,56.81,148.9427],[25.543,56.8104,147.5375],[25.5436,56.8149,157.5115],[25.5355,56.8152,161.4436],[25.5361,56.8197,145.6947],[25.5116,56.8208,155.3829],[25.5109,56.8163,152.1478],[25.5027,56.8167,130.8946],[25.5007,56.8033,121.2544],[25.4926,56.8036,115.0644],[25.4919,56.7992,117.7237],[25.4837,56.7995,116.6901],[25.4824,56.7906,125.0665],[25.4742,56.791,127.78],[25.4736,56.7865,111.6449],[25.4654,56.7868,112.5873],[25.4647,56.7824,110.274],[25.4484,56.7831,99.8156],[25.4477,56.7786,99.7797],[25.4232,56.7797,107.1051],[25.4226,56.7752,107.7123],[25.4144,56.7756,114.452],[25.4138,56.7711,96.7718],[25.3974,56.7719,103.8027],[25.3961,56.7629,92.8703],[25.3798,56.7636,102.5291],[25.3804,56.7681,93.1296],[25.3396,56.7699,89.8475],[25.3389,56.7654,96.6894],[25.3634,56.7644,105.6332],[25.3621,56.7554,93.8504],[25.354,56.7558,91.4143],[25.3546,56.7602,88.5474],[25.322,56.7617,90.2654],[25.3226,56.7662,95.3116],[25.3063,56.7669,107.3477],[25.3056,56.7624,91.4843],[25.2975,56.7628,105.5343],[25.2968,56.7583,87.5233],[25.2886,56.7586,95.7772],[25.288,56.7542,98.9424],[25.2798,56.7545,99.0159],[25.2786,56.7456,90.2756],[25.2622,56.7463,106.0305],[25.2616,56.7418,103.2148],[25.2534,56.7421,93.4785],[25.2522,56.7332,101.528],[25.2603,56.7328,90.9616],[25.2597,56.7283,81.0],[25.276,56.7276,81.0],[25.2754,56.7232,81.0],[25.2835,56.7228,81.0],[25.2823,56.7138,81.1315],[25.2904,56.7135,81.7509],[25.2885,56.7001,91.0693],[25.2396,56.7022,90.9607],[25.2402,56.7067,92.6032],[25.2239,56.7074,89.9968],[25.2245,56.7118,93.135],[25.2164,56.7122,90.1411],[25.217,56.7167,92.0075],[25.2089,56.717,93.4526],[25.207,56.7036,104.9535],[25.1907,56.7043,87.0699],[25.1913,56.7088,93.31],[25.1505,56.7105,90.9762],[25.1524,56.7239,102.6311],[25.136,56.7246,99.1414],[25.1373,56.7336,84.3331],[25.1291,56.7339,87.7456],[25.1285,56.7295,88.2602],[25.1203,56.7298,92.1222],[25.1216,56.7388,84.2008],[25.1052,56.7395,90.2822],[25.1059,56.743899999999996,86.1654],[25.0977,56.7443,86.9589],[25.0971,56.7398,88.4061],[25.0889,56.7401,91.7705],[25.0883,56.7357,95.8962],[25.072,56.7363,86.9011],[25.0726,56.7408,93.0555],[25.0644,56.7412,88.0347],[25.0638,56.7367,89.1267],[25.0393,56.7377,80.2137],[25.0369,56.7198,85.9377],[25.045,56.7194,102.7683],[25.0444,56.715,94.1629],[25.0607,56.7143,97.0317],[25.0595,56.7053,94.4715],[25.0514,56.7057,83.3707],[25.0508,56.7012,97.966],[25.0426,56.7015,80.3727],[25.042,56.6971,78.1456],[25.0175,56.6981,75.4356],[25.0157,56.6846,86.1012],[25.0239,56.6843,84.5494],[25.0233,56.6798,101.2034],[25.0151,56.6801,82.3809],[25.0145,56.6757,72.4972],[25.0227,56.6753,79.5373],[25.0221,56.6709,77.774],[25.0139,56.6712,72.3763],[25.0097,56.6398,68.1409],[25.026,56.6392,78.9181],[25.0242,56.6257,60.5621],[25.0323,56.6254,75.2856],[25.0317,56.6209,69.0149],[25.0236,56.6212,62.217],[25.0224,56.6123,51.9792],[25.0386,56.6116,67.9942],[25.0392,56.6161,70.6889],[25.0474,56.6157,53.1942],[25.0462,56.6068,44.8486],[25.0543,56.6064,67.3253],[25.0537,56.602,68.5594],[25.0456,56.6023,66.4988],[25.0443,56.5933,87.6477],[25.0118,56.5947,67.9478],[25.0112,56.5902,72.1965],[24.9949,56.5909,75.3342],[24.9943,56.5864,68.6853],[24.9699,56.5874,72.1488],[24.9694,56.5829,64.5465],[24.9368,56.5843,87.4232],[24.9362,56.5798,75.6521],[24.9118,56.5808,64.4373],[24.9112,56.5763,82.7223],[24.8787,56.5776,86.5122],[24.8781,56.5731,78.793],[24.8375,56.5748,73.3267],[24.8369,56.5703,75.1846],[24.8125,56.5713,56.4731],[24.8119,56.5668,77.1212],[24.7957,56.5674,57.2977],[24.7951,56.563,62.6744],[24.7788,56.5636,74.0573],[24.7783,56.5591,58.5038],[24.7701,56.5594,65.7716],[24.7696,56.555,57.881],[24.7614,56.5553,60.2625],[24.7609,56.5508,58.9126],[24.7528,56.5511,57.1979],[24.7522,56.5466,54.2641],[24.7034,56.5485,49.4186],[24.704,56.553,40.5312],[24.6877,56.5537,46.3094],[24.6872,56.5492,42.5611],[24.679,56.5495,51.741],[24.6785,56.545,42.3867],[24.6622,56.5456,40.662],[24.6628,56.5501,38.9424],[24.6547,56.5504,37.0842],[24.6563,56.5639,39.6829],[24.6401,56.5645,33.572],[24.6406,56.569,38.0538],[24.6488,56.5687,40.1612],[24.6499,56.5776,54.3883],[24.6661,56.577,46.371],[24.6667,56.5815,48.086],[24.6911,56.5805,49.8318],[24.6917,56.585,47.9119],[24.6835,56.5853,68.1377],[24.6847,56.5943,56.5043],[24.6521,56.5956,50.0011],[24.6527,56.6,55.0932],[24.6608,56.5997,63.6245],[24.6614,56.6042,48.6853],[24.6695,56.6039,52.5281],[24.6701,56.6084,51.1984],[24.6457,56.6093,42.7243],[24.6451,56.6048,40.3364],[24.6125,56.6061,36.0629],[24.6131,56.6106,36.1574],[24.6049,56.6109,36.1532],[24.6055,56.6154,36.342],[24.5974,56.6157,49.5116],[24.5979,56.6201,60.9651],[24.5898,56.6205,46.4426],[24.5914,56.6339,35.026],[24.5833,56.6342,36.5737],[24.5844,56.6432,35.0379],[24.5762,56.6435,41.3724],[24.5779,56.6569,36.1451],[24.5697,56.6572,41.6383],[24.5719,56.6752,56.6383],[24.5801,56.6749,58.6363],[24.5806,56.6793,56.3139],[24.5888,56.679,65.4914],[24.5893,56.6835,54.049],[24.6057,56.6829,43.6015],[24.6062,56.6874,56.9863],[24.6307,56.6864,54.1274],[24.6329,56.7044,53.4432],[24.6248,56.7047,52.9181],[24.627,56.7226,49.1877],[24.6025,56.7235,48.8154],[24.6019,56.7191,44.9641],[24.5448,56.7212,50.7355],[24.5442,56.7167,60.4248],[24.5197,56.7176,51.3937],[24.5203,56.7221,49.8828],[24.5121,56.7224,50.6654],[24.5127,56.7269,46.8606],[24.5045,56.7272,45.178],[24.505,56.7317,52.7977],[24.4805,56.7326,46.5954],[24.48,56.7281,60.4672],[24.4637,56.7287,48.6526],[24.4631,56.7242,47.2005],[24.455,56.7245,47.0518],[24.4539,56.7156,36.438],[24.4457,56.7159,40.8251],[24.4452,56.7114,37.6356],[24.437,56.7117,51.6356],[24.436,56.7027,44.1921],[24.4278,56.703,50.0281],[24.4273,56.6985,53.8377],[24.4191,56.6988,48.3796],[24.4186,56.6944,48.2455],[24.4022,56.695,38.6528],[24.4017,56.6905,41.4169],[24.3691,56.6917,30.3647],[24.3685,56.6872,24.7407],[24.3522,56.6878,49.8797],[24.3517,56.6833,51.2466],[24.368,56.6827,43.1383],[24.3675,56.6782,27.11],[24.3267,56.6797,31.3877],[24.3272,56.6842,29.8784],[24.3191,56.6844,21.077],[24.3196,56.6889,27.0878],[24.2951,56.6898,18.1274],[24.2956,56.6943,20.4753],[24.2875,56.6946,26.7807],[24.288,56.6991,14.2188],[24.2553,56.7002,37.196],[24.2558,56.7047,25.7818],[24.2477,56.705,21.0466],[24.2492,56.7184,15.9148],[24.2411,56.7187,12.4555],[24.24,56.7097,38.2345],[24.2319,56.71,21.1533],[24.2314,56.7055,27.083],[24.2232,56.7058,27.5957],[24.2227,56.7013,24.8167],[24.1847,56.7027,38.1242],[24.1821,56.7045,29.9673],[24.1824,56.7072,26.9994],[24.1742,56.7075,29.1121],[24.1737,56.703,25.7024],[24.1817,56.7015,34.4793],[24.1814,56.6983,34.1957],[24.1569,56.6991,17.2656],[24.1564,56.6946,23.2049],[24.1727,56.6941,20.4535],[24.1717,56.6851,20.3622],[24.1391,56.6862,35.7169],[24.1386,56.6817,18.1223],[24.1222,56.6823,17.5929],[24.1227,56.6868,19.3835],[24.1064,56.6873,14.7764],[24.1069,56.6918,11.9385],[24.0987,56.6921,9.7461],[24.1002,56.7055,11.8655],[24.0921,56.7058,21.9256],[24.0911,56.6969,9.518],[24.0748,56.6974,8.9271],[24.0752,56.7019,9.4365],[24.0589,56.7024,7.7898],[24.0594,56.7069,23.4722],[24.0349,56.7077,6.4573],[24.0354,56.7122,14.9313],[24.0191,56.7128,15.7129],[24.02,56.7217,6.4053],[24.0119,56.722,7.6846],[24.0123,56.7265,11.0567],[24.0205,56.7262,8.1949],[24.0215,56.7352,9.5315],[24.0133,56.7355,9.7672],[24.0138,56.7399,18.4048],[23.9974,56.7405,8.7042],[23.997,56.736,11.9939],[23.9561,56.7373,14.3919],[23.9556,56.7328,12.608],[23.9229,56.7339,5.1761],[23.9244,56.7474,8.5246],[23.9162,56.7476,3.9826],[23.9167,56.7521,5.3483],[23.9085,56.7524,7.6116],[23.908,56.7479,5.5037],[23.859,56.7495,18.4946],[23.8585,56.745,15.4246],[23.8421,56.7455,22.3943],[23.840699999999998,56.732,17.1458],[23.8326,56.7323,8.1796],[23.8335,56.7413,16.9855],[23.8253,56.7415,8.6311],[23.8249,56.737,19.7374],[23.8167,56.7373,25.9555],[23.8162,56.7328,5.9455],[23.7917,56.7336,24.7507],[23.7922,56.7381,22.7538],[23.7758,56.7386,10.3632],[23.7763,56.7431,21.8917],[23.7599,56.7436,25.2291],[23.7604,56.7481,23.2652],[23.7522,56.7483,5.8232],[23.7536,56.7618,5.3517],[23.7617,56.7615,23.4262],[23.7622,56.766,7.1611],[23.7704,56.7657,29.1425],[23.7717,56.7792,15.6771],[23.7799,56.7789,9.5421],[23.7818,56.7969,20.6398],[23.7899,56.7966,19.0903],[23.7904,56.8011,15.8897],[23.7822,56.8014,10.9903],[23.7827,56.8059,14.6303],[23.7745,56.8061,17.5964],[23.7758,56.8196,7.2793],[23.7513,56.8203,10.3649],[23.7522,56.8293,6.8512],[23.744,56.8295,12.1409],[23.7449,56.8385,7.3407],[23.7367,56.8388,11.0466],[23.7385,56.8567,22.5318],[23.7303,56.857,10.1393],[23.7312,56.8659,11.752],[23.7148,56.8664,16.67],[23.7153,56.8709,17.6008],[23.7071,56.8712,27.2219],[23.7075,56.8757,20.0388],[23.6911,56.8762,6.0692],[23.6915,56.8806,10.3929],[23.6833,56.8809,9.6249],[23.6838,56.8854,5.4955],[23.6592,56.8861,1.7669],[23.66,56.8951,-0.0105],[23.6518,56.8953,0.1104],[23.6523,56.8998,-0.3721],[23.6194,56.9008,-0.2663],[23.6186,56.8918,0.1069],[23.6103,56.8921,-0.1657],[23.6099,56.8876,-0.0022],[23.6017,56.8878,0.1338],[23.6,56.8699,0.4566],[23.5918,56.8701,2.421],[23.5913,56.8656,1.4251],[23.5831,56.8659,2.4927],[23.5822,56.8569,0.5907],[23.574,56.8572,2.1865],[23.5732,56.8482,0.26],[23.565,56.8484,0.8813],[23.5645,56.8439,1.1911],[23.5482,56.8444,22.0171],[23.5477,56.8399,6.5817],[23.5559,56.8397,3.2221],[23.5555,56.8352,2.343],[23.5473,56.8354,3.5461],[23.5469,56.831,8.8225],[23.5714,56.8302,0.3885],[23.5706,56.8213,0.6174],[23.5624,56.8215,5.8266],[23.5615,56.8125,3.0702],[23.5697,56.8123,1.3174],[23.5689,56.8033,-0.4166],[23.5607,56.8036,8.3042],[23.5598,56.7946,-0.2021],[23.5516,56.7948,6.6422],[23.5503,56.7814,-0.0694],[23.5421,56.7816,12.55],[23.5417,56.7771,5.0205],[23.5335,56.7774,11.4575],[23.5327,56.7684,3.1579],[23.5245,56.7686,14.129],[23.5241,56.7641,3.9824],[23.4913,56.7651,6.6743],[23.4918,56.7696,10.7777],[23.459,56.7705,4.2377],[23.4599,56.7795,12.8022],[23.4517,56.7797,4.4229],[23.4521,56.7842,25.7949],[23.4439,56.7844,7.8635],[23.4443,56.7889,24.9924],[23.4361,56.7891,25.3802],[23.4366,56.7936,27.5738],[23.4284,56.7939,12.326],[23.428,56.7894,14.1528],[23.3952,56.7903,8.2806],[23.3956,56.7948,11.7611],[23.3874,56.795,19.0737],[23.3883,56.804,25.6686],[23.3719,56.8044,16.1801],[23.3715,56.8,14.1545],[23.3633,56.8002,16.0803],[23.3629,56.7957,16.3643],[23.3547,56.7959,21.9213],[23.3543,56.7914,25.3578],[23.3461,56.7917,24.7059],[23.3457,56.7872,26.4564],[23.3375,56.7874,29.4241],[23.3363,56.7739,26.219],[23.3199,56.7744,31.7058],[23.3191,56.7654,31.3334],[23.3273,56.7652,29.0453],[23.3269,56.7607,29.5326],[23.3351,56.7605,41.5255],[23.3347,56.756,26.683],[23.3429,56.7558,25.2516],[23.342,56.7468,26.9311],[23.3339,56.747,32.233],[23.3327,56.7336,31.0974],[23.3163,56.734,32.3816],[23.3159,56.7295,32.9932],[23.3077,56.7297,34.9836],[23.3073,56.7252,35.594],[23.2992,56.7255,42.8968],[23.298,56.712,46.9798],[23.2898,56.7122,46.8479],[23.2894,56.7077,49.908],[23.2731,56.7082,60.3931],[23.2735,56.7127,58.762],[23.2653,56.7129,60.4042],[23.2657,56.7174,58.0415],[23.2493,56.7178,62.01],[23.2497,56.7223,60.2074],[23.217,56.7232,70.7467],[23.2174,56.7277,63.4494],[23.2092,56.7279,61.7099],[23.2089,56.7234,64.3885],[23.1925,56.7238,69.3844],[23.1921,56.7193,64.0172],[23.1839,56.7195,66.3672],[23.1832,56.7106,67.7022],[23.1914,56.7104,66.6153],[23.1906,56.7014,68.2634],[23.1824,56.7016,64.1843],[23.182,56.6971,65.4787],[23.1575,56.6978,67.4971],[23.1579,56.7022,62.3146],[23.1252,56.7031,64.4638],[23.1248,56.6986,63.7187],[23.1167,56.6988,72.3154],[23.1163,56.6943,58.9339],[23.1081,56.6945,70.5595],[23.1078,56.69,60.4985],[23.0833,56.6907,61.4878],[23.0836,56.6952,69.549],[23.0673,56.6956,71.2895],[23.0677,56.7001,78.726],[23.0268,56.7011,79.9544],[23.0275,56.7101,85.3246],[23.0194,56.7103,83.8266],[23.0201,56.7192,90.7765],[22.9956,56.7198,84.7249],[22.9952,56.7154,83.6078],[22.9707,56.716,96.6952],[22.9703,56.7115,88.8356],[22.9376,56.7123,95.5159],[22.938,56.7168,96.4064],[22.8971,56.7177,97.2246],[22.8968,56.7132,103.5374],[22.8886,56.7134,107.6946],[22.8883,56.709,101.4509],[22.8801,56.7091,104.3397],[22.8804,56.7136,99.384],[22.8723,56.7138,100.8729],[22.8716,56.7049,99.2593],[22.8552,56.7052,106.2431],[22.8556,56.7097,116.1681],[22.8474,56.7099,106.903],[22.8464,56.6965,117.175],[22.8137,56.6972,127.9919],[22.8133,56.6927,117.9637],[22.8077,56.6884,123.8257],[22.8048,56.6884,125.1011],[22.8045,56.6839,113.7299],[22.8127,56.6838,119.9395],[22.8129,56.6863,125.5428],[22.816,56.6882,124.6107],[22.8375,56.6877,131.4034],[22.8372,56.6832,122.698],[22.8535,56.6828,111.4653],[22.8518,56.6604,112.4121],[22.8681,56.66,94.8314],[22.8674,56.651,104.3187],[22.8756,56.6508,92.9139],[22.8752,56.6463,94.2468],[22.8671,56.6465,90.6419],[22.8667,56.642,109.9167],[22.8586,56.6422,91.0561],[22.8572,56.6242,98.0622],[22.849,56.6244,98.1605],[22.848,56.611,99.6685],[22.8317,56.6114,103.9546],[22.8321,56.6158,103.768],[22.8239,56.616,112.6725],[22.8236,56.6115,114.4821],[22.8154,56.6117,119.1177],[22.8158,56.6162,113.7659],[22.8076,56.6164,119.6015],[22.8073,56.6119,111.2459],[22.7991,56.6121,118.3168],[22.7994,56.6166,123.5111],[22.7831,56.617,109.1152],[22.7825,56.608,118.8487],[22.7906,56.6078,109.7534],[22.7896,56.5943,114.386],[22.7978,56.5942,108.9346],[22.7968,56.5807,110.6689],[22.813,56.5803,108.5773],[22.8124,56.5713,103.4488],[22.7961,56.5717,123.2037],[22.7964,56.5762,113.8793],[22.7883,56.5764,113.3891],[22.7876,56.5674,110.26],[22.7795,56.5676,119.9798],[22.7791,56.5631,108.723],[22.7547,56.5637,120.1316],[22.755,56.5682,118.1981],[22.7469,56.5683,117.2992],[22.7472,56.5728,133.2967],[22.7391,56.573,129.4419],[22.7388,56.5685,132.1428],[22.698,56.5694,120.9892],[22.6984,56.5739,122.9024],[22.6821,56.5743,138.8369],[22.6818,56.5698,134.1481],[22.6736,56.57,126.1084],[22.6733,56.5655,129.3097],[22.6652,56.5657,124.2646],[22.6642,56.5522,129.7325],[22.6561,56.5524,126.502],[22.6557,56.5479,132.7901],[22.6476,56.5481,130.5676],[22.6473,56.5436,105.6255],[22.6391,56.5438,128.9272],[22.6388,56.5393,125.3328],[22.6226,56.5396,110.299],[22.6213,56.5217,115.6186],[22.5969,56.5222,125.6028],[22.5963,56.5132,113.7094],[22.6288,56.5125,114.3891],[22.6285,56.508,122.3059],[22.6366,56.5078,107.5051],[22.6363,56.5034,118.7533],[22.6769,56.5025,118.7549],[22.6766,56.498,101.3893],[22.6848,56.4978,123.3531],[22.6851,56.5023,120.5103],[22.6932,56.5021,106.6051],[22.6929,56.4976,110.5271],[22.7173,56.4971,106.3972],[22.7166,56.4881,107.6953],[22.7491,56.4873,102.6682],[22.7488,56.4829,102.5009],[22.7569,56.4827,109.2318],[22.7566,56.4782,100.266],[22.7647,56.478,108.7492],[22.7644,56.4735,102.7092],[22.7562,56.4737,97.1647],[22.7556,56.4647,101.9297],[22.7475,56.4649,101.1042],[22.7471,56.4604,99.5651],[22.7553,56.4602,101.2037],[22.7546,56.4512,99.4535],[22.7384,56.4516,93.605],[22.7364,56.4247,105.2378],[22.7607,56.4241,95.8973],[22.7611,56.4286,100.3479],[22.7692,56.4284,101.2728],[22.7688,56.4239,95.7256],[22.7932,56.4234,89.5631],[22.7928,56.4189,88.8601],[22.8091,56.4185,87.2962],[22.8087,56.414,88.5007],[22.8168,56.4138,87.6606],[22.8165,56.4093,88.3334],[22.8246,56.4092,85.1867],[22.8243,56.4047,92.6885],[22.8648,56.4037,84.1606],[22.8645,56.3992,81.8478],[22.8807,56.3988,85.6958],[22.8803,56.3943,82.0256],[22.8884,56.3941,83.3437],[22.8888,56.3986,84.681],[22.8969,56.3984,81.6703],[22.8972,56.4029,82.0793],[22.9297,56.4021,83.875],[22.93,56.4066,82.8623],[22.9381,56.4064,84.0256],[22.9385,56.4109,84.7557],[22.9466,56.4107,87.5673],[22.9469,56.4152,89.6364],[22.9631,56.4148,100.5278],[22.9628,56.4103,84.8214],[22.979,56.4099,98.2993],[22.9786,56.4054,84.6499],[23.003,56.4048,90.8176],[23.0026,56.4004,84.7054],[23.0107,56.4002,92.5835],[23.01,56.3912,92.7881],[23.0181,56.391,87.1823],[23.0152,56.3551,79.7767],[23.0233,56.3549,78.8711],[23.0222,56.3414,90.5712],[23.0303,56.3412,96.3854],[23.0292,56.3277,88.6749],[23.0373,56.3275,92.006],[23.037,56.323,80.1668],[23.0774,56.322,77.3701],[23.077,56.3175,85.6683],[23.0851,56.3173,86.8241],[23.0848,56.3128,88.8966],[23.0929,56.3126,88.8482],[23.0925,56.3081,84.6048],[23.1167,56.3075,86.2816],[23.1171,56.312,82.8897],[23.1252,56.3118,82.3281],[23.1256,56.3163,81.1371],[23.1337,56.316,82.5268],[23.134,56.3205,80.725],[23.1421,56.3203,80.5727],[23.1425,56.3248,80.4497],[23.1506,56.3246,81.3308],[23.1509,56.3291,78.821],[23.159,56.3289,78.0738],[23.1594,56.3334,77.356],[23.1675,56.3332,77.3104],[23.1683,56.3421,76.2023],[23.1763,56.3419,73.7422],[23.1782,56.3644,70.8887],[23.1944,56.3639,70.7956],[23.1948,56.3684,70.8191],[23.2191,56.3678,68.6414],[23.2195,56.3723,77.0037],[23.2519,56.3714,67.5215],[23.2523,56.3759,64.7836],[23.2847,56.375,62.1194],[23.285,56.3795,64.1346],[23.3012,56.379,74.1859],[23.3016,56.3835,69.3675],[23.3745,56.3815,51.081],[23.3741,56.377,62.8678],[23.3984,56.3763,61.9373],[23.398,56.3718,43.5422],[23.4223,56.3712,49.0572],[23.4219,56.3667,44.9815],[23.43,56.3664,44.1213],[23.4292,56.3575,47.2544],[23.4454,56.357,52.2736],[23.445,56.3525,47.6018],[23.4611,56.3521,45.1757],[23.4607,56.3476,47.1281],[23.485,56.3469,43.2674],[23.4846,56.3424,44.1687],[23.5008,56.3419,44.0058],[23.5004,56.3374,43.5096],[23.5327,56.3365,42.7466],[23.5323,56.332,43.3895],[23.5404,56.3317,45.4084],[23.5485,56.3315,42.6375],[23.5489,56.336,40.9522],[23.5731,56.3353,39.4505],[23.5736,56.3398,62.514],[23.5817,56.3395,39.4005],[23.5821,56.344,53.4468],[23.5902,56.3438,36.6924],[23.5906,56.3483,41.2772],[23.6068,56.3478,38.2249],[23.6072,56.3523,40.852],[23.6153,56.352,39.5524],[23.6157,56.3565,60.8524],[23.6319,56.356,36.7077],[23.6324,56.3605,49.9848],[23.6404,56.3603,45.4488],[23.6409,56.3647,48.9812],[23.6652,56.364,40.1363],[23.6656,56.3685,36.4721],[23.7223,56.3668,37.9112],[23.7227,56.3712,36.7524],[23.7632,56.37,38.874],[23.7627,56.3655,39.4722],[23.7789,56.365,38.8099],[23.7776,56.3515,39.9235],[23.7695,56.3518,50.5152],[23.7668,56.3249,42.4023],[23.783,56.3244,42.9292],[23.7834,56.3288,42.8481],[23.7915,56.3286,43.0694],[23.7924,56.3376,42.6126],[23.8005,56.3373,44.8117],[23.8009,56.3418,41.6576],[23.8495,56.3403,43.1078],[23.849,56.3358,43.3845],[23.8894,56.3345,39.0064],[23.8899,56.3389,39.3437],[23.9222,56.3379,38.5399],[23.9218,56.3334,43.1622],[24.0188,56.3302,44.3701],[24.0183,56.3257,48.6066],[24.0264,56.3255,36.8335],[24.0259,56.321,38.1843],[24.034,56.3207,37.1691],[24.0335,56.3162,37.6654],[24.0416,56.3159,37.1387],[24.0411,56.3115,38.34],[24.0492,56.3112,37.6426],[24.0482,56.3022,38.5443],[24.0563,56.3019,38.3189],[24.0558,56.2975,40.108],[24.0639,56.2972,39.3574],[24.062,56.2792,46.3878],[24.1023,56.2779,38.1689],[24.1019,56.2734,41.8574],[24.1099,56.2731,38.8024],[24.1094,56.2686,39.0616],[24.1175,56.2683,38.2945],[24.117,56.2639,38.3259],[24.1332,56.2633,38.488],[24.1327,56.2588,40.846],[24.1891,56.2569,36.0914],[24.1896,56.2613,37.0332],[24.2058,56.2608,37.1198],[24.2063,56.2653,35.9998],[24.2143,56.265,36.2949],[24.2148,56.2695,37.2324],[24.2229,56.2692,44.1967],[24.2234,56.2737,40.7694],[24.2396,56.2731,35.7826],[24.2401,56.2776,35.3386],[24.2481,56.2773,39.0312],[24.2486,56.2818,42.3136],[24.2648,56.2812,35.2794],[24.2653,56.2857,34.5494],[24.2734,56.2854,34.01],[24.2739,56.2899,34.6912],[24.29,56.2893,30.7578],[24.2905,56.2938,30.7861],[24.2986,56.2935,28.7056],[24.2991,56.298,24.3531],[24.3395,56.2965,18.6431],[24.339,56.2921,23.744],[24.3551,56.2915,27.7268],[24.3546,56.287,26.4182],[24.3707,56.2864,27.6614],[24.3702,56.2819,28.4915],[24.3783,56.2816,28.1805],[24.3778,56.2771,28.4851],[24.4101,56.276,29.8197],[24.4095,56.2715,27.3759],[24.4176,56.2712,29.2845],[24.4171,56.2667,36.0526],[24.4332,56.2661,29.1563],[24.4327,56.2616,29.753],[24.4408,56.2613,29.4404],[24.4402,56.2568,30.1222],[24.4564,56.2562,30.4418],[24.4569,56.2607,31.2291],[24.473,56.2601,31.82],[24.4735,56.2646,30.3704],[24.4816,56.2643,31.9948],[24.4821,56.2688,31.2779],[24.4983,56.2682,32.9033],[24.4988,56.2727,34.266],[24.515,56.2721,34.2193],[24.5155,56.2765,34.0979],[24.5316,56.2759,40.6695],[24.5322,56.2804,45.2151],[24.5564,56.2795,38.3643],[24.5569,56.284,51.1378],[24.565,56.2837,37.962],[24.5655,56.2882,38.8742],[24.5736,56.2879,39.2036],[24.5741,56.2923,38.4881],[24.5822,56.292,49.1001],[24.5838,56.3055,48.1684],[24.5758,56.3058,39.3525],[24.5769,56.3147,37.2546],[24.5849,56.3144,39.2109],[24.586,56.3234,37.5316],[24.5941,56.3231,39.1037],[24.5947,56.3276,38.3385],[24.6027,56.3273,54.3184],[24.6033,56.3317,38.5075],[24.6114,56.3314,38.3556],[24.6119,56.3359,35.4064],[24.62,56.3356,40.9398],[24.6211,56.3446,32.0821],[24.6292,56.3443,40.228],[24.6308,56.3577,34.9194],[24.6389,56.3574,41.7941],[24.64,56.3664,42.0475],[24.6481,56.3661,42.2097],[24.6487,56.3705,42.6877],[24.6648,56.3699,46.1209],[24.6654,56.3744,42.2216],[24.6897,56.3734,46.656],[24.6902,56.3779,30.8066],[24.7064,56.3773,49.0181],[24.707,56.3818,48.258],[24.715,56.3815,49.6608],[24.7167,56.3949,48.4129],[24.7248,56.3946,49.6976],[24.7254,56.3991,48.3289],[24.7497,56.3981,46.5568],[24.7502,56.4026,34.086],[24.7988,56.4007,61.1033],[24.7994,56.4051,59.2711],[24.8075,56.4048,51.6901],[24.8086,56.4138,42.7314],[24.8248,56.4131,42.5187],[24.8242,56.4087,49.9172],[24.8647,56.407,70.507],[24.8653,56.4115,54.696],[24.8734,56.4112,58.8407],[24.8757,56.4291,59.0452],[24.8676,56.4294,60.0713],[24.8693,56.4429,60.5527],[24.8775,56.4425,61.8771],[24.878,56.447,69.3871],[24.9023,56.446,57.9241],[24.9018,56.4416,61.6184],[24.9099,56.4412,55.8709],[24.9063,56.4143,54.4935],[24.9144,56.414,63.6908],[24.9127,56.4006,59.072],[24.9208,56.4002,54.5139],[24.9202,56.3958,57.98],[24.9283,56.3954,56.5992],[24.9271,56.3865,56.7002],[24.9352,56.3861,56.212],[24.9346,56.3817,57.215],[24.9427,56.3813,59.0418],[24.9421,56.3768,56.0227],[24.9502,56.3765,59.9929],[24.949,56.3676,66.5513],[24.9571,56.3672,59.7316],[24.9565,56.3627,62.2731],[24.9646,56.3624,60.1921],[24.9622,56.3445,63.2171],[24.9703,56.3442,62.6574],[24.9662,56.3128,71.8098],[24.9743,56.3125,66.0662],[24.9737,56.308,73.0155],[24.9898,56.3073,68.4866],[24.9892,56.3028,68.9117],[25.0054,56.3022,65.8877],[25.0048,56.2977,67.4681],[25.0128,56.2973,67.1949],[25.0122,56.2929,69.1655],[25.0203,56.2925,71.2012],[25.0197,56.288,73.0788],[25.0278,56.2877,71.5257],[25.0272,56.2832,70.5417],[25.0352,56.2829,71.7709],[25.034,56.2739,68.5673],[25.0502,56.2732,71.4528],[25.0496,56.2688,69.8522],[25.0576,56.2684,70.5828],[25.057,56.2639,79.9522],[25.0651,56.2636,78.3401],[25.0645,56.2591,78.4938],[25.0726,56.2588,82.2419],[25.0684,56.2274,74.4983],[25.0764,56.2271,75.7539],[25.0746,56.2136,79.7429],[25.0827,56.2133,77.4604],[25.0809,56.1999,79.0885],[25.0889,56.1995,74.0084],[25.0883,56.195,81.5793],[25.0963,56.1947,88.7484],[25.0951,56.1857,78.7552],[25.1273,56.1844,90.3698],[25.1267,56.1799,90.7234],[25.1589,56.1785,75.6658],[25.1583,56.174,74.4627],[25.1905,56.1726,80.5175],[25.1911,56.1771,82.6264],[25.2072,56.1764,79.7726],[25.2078,56.1809,79.6684],[25.2239,56.1802,77.8962],[25.2245,56.1847,76.7563],[25.2406,56.184,88.1655],[25.2399,56.1795,90.9332],[25.256,56.1788,90.3875],[25.2548,56.1698,85.0832],[25.2789,56.1688,84.0758],[25.2783,56.1643,80.5558],[25.2863,56.1639,82.7027],[25.2857,56.1594,87.0293],[25.2937,56.1591,89.5406],[25.2931,56.1546,94.1574],[25.3011,56.1543,86.829],[25.3005,56.1498,82.6537],[25.3166,56.1491,83.3328],[25.316,56.1446,83.1749],[25.324,56.1442,84.5526],[25.3246,56.1487,85.1773],[25.3327,56.1483,100.0187],[25.3333,56.1528,87.1985],[25.3413,56.1525,88.5378],[25.342,56.1569,89.4203],[25.3821,56.1551,93.9169],[25.3828,56.1596,122.6349],[25.4069,56.1585,102.1549],[25.4063,56.1541,93.4205],[25.4143,56.1537,95.4299],[25.4137,56.1492,100.1288],[25.4297,56.1485,97.3359],[25.4304,56.153,91.7643],[25.4384,56.1526,95.1107],[25.439,56.1571,99.919],[25.4631,56.156,96.3025],[25.4625,56.1515,98.302],[25.4705,56.1511,99.7022],[25.4699,56.1467,100.2905],[25.494,56.1456,95.8487],[25.4946,56.15,100.0804],[25.5107,56.1493,117.2103],[25.5127,56.1627,111.1494],[25.5207,56.1624,95.5],[25.5214,56.1668,105.238],[25.5535,56.1653,105.8188],[25.5522,56.1564,107.384],[25.5602,56.156,104.1443],[25.5583,56.1426,108.623],[25.6546,56.1381,103.6353],[25.6553,56.1425,104.6596],[25.6633,56.1422,101.6371],[25.664,56.1466,109.0645],[25.672,56.1463,102.7622],[25.6727,56.1507,114.0844],[25.6807,56.1503,107.3398],[25.6801,56.1459,102.342],[25.6881,56.1455,103.1849],[25.6854,56.1276,105.4496],[25.6934,56.1272,121.1132],[25.6928,56.1227,118.8771],[25.7008,56.1223,123.1278],[25.6961,56.091,118.1154],[25.7041,56.0906,120.2226],[25.7034,56.0861,120.0964],[25.7115,56.0858,127.1753],[25.7108,56.0813,123.1293],[25.7429,56.0797,147.4785],[25.7422,56.0753,137.123],[25.7502,56.0749,131.314],[25.7495,56.0704,137.0095],[25.7656,56.0696,124.9987],[25.7649,56.0652,129.6105],[25.7969,56.0636,145.7299],[25.7962,56.0591,143.3022],[25.8203,56.058,128.5228],[25.821,56.0624,139.1084],[25.837,56.0616,129.1917],[25.8404,56.084,133.069],[25.8485,56.0836,133.6718],[25.8491,56.0881,136.0485],[25.8652,56.0873,135.7817],[25.8659,56.0918,123.4042],[25.8739,56.0914,133.1563],[25.8746,56.0959,142.0957],[25.8585,56.0967,131.7167],[25.8592,56.1011,125.4131],[25.8512,56.1015,124.3741],[25.8526,56.1105,116.1487],[25.8446,56.1109,123.0311],[25.8453,56.1154,95.0],[25.8372,56.1157,103.9175],[25.8382,56.1222,116.774],[25.836,56.1248,129.779],[25.8306,56.1251,102.582],[25.8313,56.1296,120.5279],[25.8393,56.1292,121.8434],[25.8388,56.1262,118.432],[25.8405,56.1246,112.3924],[25.8547,56.1239,126.3922],[25.854,56.1194,127.2409],[25.87,56.1187,116.1056],[25.8693,56.1142,131.1278],[25.8774,56.1138,117.0932],[25.8767,56.1093,121.0523],[25.9007,56.1081,139.9449],[25.8993,56.0992,123.5639],[25.9074,56.0988,139.5281],[25.9067,56.0943,137.7099],[25.9147,56.0939,135.2058],[25.914,56.0894,133.4282],[25.922,56.089,138.2891],[25.9213,56.0846,133.6107],[25.9293,56.0842,146.5917],[25.9272,56.0707,139.3134],[25.9513,56.0695,134.3125],[25.952,56.074,137.3396],[25.96,56.0736,146.6631],[25.9614,56.0826,158.13],[25.9694,56.0822,140.4496],[25.9701,56.0866,139.5878],[25.9781,56.0862,135.5357],[25.9788,56.0907,136.3172],[25.9868,56.0903,135.1968],[25.9875,56.0948,135.0673],[25.9956,56.0944,130.1582],[25.9963,56.0988,125.7728],[26.0043,56.0984,137.3207],[26.0036,56.094,131.0342],[26.0196,56.0932,134.3616],[26.0189,56.0887,142.6237],[26.0269,56.0883,139.8363],[26.0262,56.0838,141.1032],[26.0342,56.0834,143.6927],[26.0328,56.0745,135.3213],[26.0408,56.0741,141.1483],[26.0415,56.0785,140.8685],[26.0576,56.0777,138.2653],[26.059,56.0867,145.2398],[26.075,56.0858,125.9534],[26.0757,56.0903,124.6329],[26.0838,56.0899,120.6056],[26.0873,56.1123,105.6807],[26.0954,56.1119,112.0435],[26.0961,56.1163,90.5912],[26.1121,56.1155,91.7169],[26.1107,56.1066,99.808],[26.1347,56.1053,103.3478],[26.1355,56.1098,105.215],[26.1435,56.1094,103.123],[26.1464,56.1273,114.8993],[26.1384,56.1277,100.9809],[26.1391,56.1322,121.7525],[26.1311,56.1326,95.5611],[26.1325,56.1415,102.6786],[26.1405,56.1411,107.6196],[26.1413,56.1456,108.4755],[26.1493,56.1452,109.6978],[26.15,56.1497,109.9874],[26.158,56.1493,113.0237],[26.1588,56.1537,111.1772],[26.1668,56.1533,107.9023],[26.1675,56.1578,110.6124],[26.1756,56.1574,115.5299],[26.1763,56.1618,111.4554],[26.1843,56.1614,105.0546],[26.1858,56.1704,96.7481],[26.1938,56.17,108.4467],[26.1945,56.1744,98.892],[26.2026,56.174,109.1915],[26.2033,56.1785,103.1301],[26.2355,56.1768,99.7594],[26.2347,56.1723,104.6991],[26.2427,56.1719,113.3781],[26.242,56.1675,109.22],[26.25,56.167,106.6627],[26.2478,56.1536,97.8619],[26.2559,56.1532,95.6194],[26.2573,56.1621,95.4325],[26.2654,56.1617,95.3941],[26.2661,56.1662,95.2551],[26.2902,56.1649,88.4217],[26.2894,56.1605,88.7475],[26.3055,56.1596,86.5831],[26.304,56.1507,116.1906],[26.312,56.1502,105.7816],[26.3113,56.1458,103.8559],[26.3193,56.1453,91.8318],[26.3208,56.1543,87.2311],[26.3128,56.1547,96.0395],[26.3143,56.1637,91.371],[26.3063,56.1641,89.2672],[26.3077,56.173,83.3534],[26.2997,56.1734,88.9274],[26.3005,56.1779,82.0],[26.2924,56.1783,98.7521],[26.2932,56.1828,93.1913],[26.2852,56.1832,82.0]]]]}}