{"type": "Feature","id": "5739","bbox": [23.1184,56.35463,23.46237,56.54573],"geometry": {"type": "Polygon","coordinates": [[[23.41509,56.4933,25.4395],[23.39373,56.51891,29.0979],[23.383,56.54573,26.4722],[23.35618,56.54573,29.2914],[23.31506,56.51355,44.8151],[23.27394,56.49031,48.9768],[23.28825,56.46885,48.8167],[23.3097,56.45991,58.2901],[23.27573,56.45455,53.6248],[23.21495,56.45455,50.5522],[23.17204,56.45097,64.3263],[23.1488,56.4331,78.5999],[23.1184,56.40985,70.7092],[23.15237,56.39019,78.3877],[23.17257,56.35796,82.589],[23.28843,56.37305,62.111],[23.31065,56.37059,69.5855],[23.37804,56.35463,68.1424],[23.37835,56.35491,68.1424],[23.38481,56.36075,56.2844],[23.4202,56.37589,51.5678],[23.43044,56.3779,60.5638],[23.44237,56.38206,51.1104],[23.44997,56.38627,50.8629],[23.45695,56.39165,38.0965],[23.46237,56.39795,39.2594],[23.46206,56.40715,37.4376],[23.4495,56.42188,39.2162],[23.43943,56.43666,40.9193],[23.4309,56.44519,44.3921],[23.41881,56.44945,42.7145],[23.41307,56.45945,54.4202],[23.4154,56.46146,49.2336],[23.42594,56.46893,57.3615],[23.4278,56.47288,66.4214],[23.43075,56.47759,69.5249],[23.41509,56.4933,25.4395]]]}
,"properties": {"ISO3166-1-Alpha-3": "LVA","country": "Latvia","fill": "#F00","name": "Tervetes","area_km2": 241.9165,"hist_schema_id": "Elevation0-9000","hist_area_km2": {"25": 20.3899,"50": 146.3099,"75": 72.8697,"100": 2.347}}}