{"type":"Feature","properties":{"ISO3166-1-Alpha-3":"LVA","country":"Latvia","fill":"#F0F","id":"5758","name":"Carnikavas"},
"geometry":{"type": "Polygon","coordinates": [[[24.34881,57.18383,-0.0996],[24.33085,57.19975,0.0],[24.31267,57.1883,0.0],[24.28875,57.1789,0.0],[24.27882,57.17178,0.0],[24.27858,57.16104,13.7889],[24.26124,57.15746,0.9218],[24.23862,57.14956,0.0],[24.21925,57.13801,0.0],[24.21079,57.12372,17.1767],[24.11305,57.08873,0.0],[24.11303,57.08872,0.0],[24.15168,57.05559,19.2585],[24.16238,57.05282,4.4032],[24.23199,57.07257,3.1798],[24.24729,57.06006,18.4226],[24.25841,57.07535,10.826],[24.26537,57.099,1.907],[24.32099,57.1129,2.4668],[24.33768,57.1282,24.941],[24.34185,57.16297,16.6194],[24.34881,57.18383,-0.0996]]]}}