{"type": "Feature","id": "5722","bbox": [22.56798,57.3747,22.99459,57.6742],"geometry": {"type": "Polygon","coordinates": [[[22.58717,57.66498,0.0],[22.56798,57.6742,27.0226],[22.57026,57.61704,23.6243],[22.60913,57.57818,23.4378],[22.61142,57.5416,18.8928],[22.62513,57.50273,27.636],[22.69372,57.48215,22.8205],[22.67772,57.457,34.5069],[22.70515,57.43643,38.4647],[22.74173,57.45929,15.4857],[22.82404,57.40899,32.5426],[22.8469,57.38842,26.4755],[22.89491,57.3747,24.9814],[22.93378,57.37699,23.4943],[22.94978,57.40213,10.7479],[22.99459,57.41189,0.0],[22.95037,57.43281,0.0],[22.87892,57.48127,0.0],[22.6561,57.58576,0.0],[22.60076,57.63011,0.0],[22.59099,57.64476,0.0],[22.58717,57.66498,0.0]]]}
,"properties": {"ISO3166-1-Alpha-3": "LVA","country": "Latvia","fill": "#FF0","name": "Rojas","area_km2": 233.4758,"hist_schema_id": "Elevation0-9000","hist_area_km2": {"0": 70.5869,"25": 159.9206,"50": 2.9682}}}