{"type": "Feature","bbox": [25.156215134485706,57.697837608896322,25.321353409806562,57.7961552273583],"geometry": {"type": "Polygon","coordinates": [[[25.293683181856181,57.736104945423449,39.0],[25.28102552438952,57.753178064797083,39.0],[25.251883475803481,57.764363901628087,39.0],[25.25512148120194,57.765246994009487,42.3971],[25.258065122473255,57.764952629882345,52.3174],[25.259536943108913,57.765835722263745,47.845],[25.25924257898177,57.770545548297832,41.8464],[25.229217438014359,57.774666646077691,45.6654],[25.178881172274828,57.7961552273583,45.5313],[25.156215134485706,57.792328493705583,40.3175],[25.172699525605083,57.78379193401878,43.9853],[25.193010650377147,57.766130086390859,39.0],[25.210083769750781,57.744641505110252,39.0],[25.217737237056213,57.7263909292281,39.0],[25.2277456173787,57.717265641287014,39.0],[25.251294747549224,57.709023445727325,39.0],[25.278670611372462,57.703724891438952,39.0],[25.300159192653069,57.702841799057552,39.0],[25.311345029484073,57.697837608896322,48.9775],[25.316054855518189,57.698131973023465,54.0728],[25.321353409806562,57.702841799057552,59.1292],[25.30280846979727,57.717854369541271,59.5987],[25.293683181856181,57.736104945423449,39.0]]]}
,"properties": {"featurecla": "Lake","scalerank": 9,"name": "null595","name_abb": null,"name_alt": null,"note": "_untitled_144","delta": null,"dam_name": null,"year": -99,"admin": null,"min_zoom": 7.0,"min_label": 8.0,"area_km2": 38.94867,"hist_schema_id": "Elevation0-9000","hist_area_km2": {"50": 38.86943,"75": 0.07923}}}