{"type": "Feature","id": "5768","bbox": [24.61582,57.12542,24.94213,57.41051],"geometry": {"type": "Polygon","coordinates": [[[24.83164,57.39552,71.9249],[24.75071,57.3966,75.6919],[24.74793,57.41051,79.8115],[24.68813,57.38965,60.9538],[24.70204,57.34932,68.8528],[24.68396,57.32846,75.6319],[24.63668,57.32011,58.8715],[24.6478,57.30065,63.1653],[24.68535,57.28674,59.5307],[24.70621,57.24224,55.0379],[24.7131,57.22705,59.1771],[24.68157,57.22307,41.4041],[24.66032,57.21025,45.2136],[24.61582,57.2033,43.5604],[24.61999,57.17687,41.3149],[24.65754,57.17966,43.331],[24.67423,57.16992,47.4442],[24.67562,57.14906,59.3027],[24.66588,57.12542,22.8642],[24.70065,57.13794,13.2018],[24.73681,57.14767,14.0984],[24.77296,57.14767,29.4745],[24.77992,57.13515,66.9374],[24.79661,57.14211,73.8185],[24.80495,57.16575,65.2123],[24.82303,57.18244,78.1731],[24.86197,57.18939,95.5283],[24.88422,57.19913,74.3852],[24.90037,57.21868,27.8148],[24.92347,57.23604,24.0859],[24.93313,57.24622,24.7615],[24.93965,57.25798,35.9812],[24.94213,57.26751,50.03],[24.93577,57.27826,69.8091],[24.9151,57.28937,65.9525],[24.89805,57.3026,53.041],[24.88874,57.30922,60.0548],[24.88936,57.31221,46.193],[24.90022,57.31893,47.0779],[24.90285,57.32312,60.0099],[24.90332,57.32772,52.3608],[24.88099,57.33722,69.4694],[24.87882,57.34293,75.2196],[24.87076,57.35056,62.3986],[24.85428,57.37273,65.9349],[24.83164,57.39552,71.9249]]]}
,"properties": {"ISO3166-1-Alpha-3": "LVA","country": "Latvia","fill": "#FF0","name": "Krimuldas","area_km2": 349.4516,"hist_schema_id": "Elevation0-9000","hist_area_km2": {"0": 0.5521,"25": 8.4914,"50": 138.4211,"75": 169.2727,"100": 25.5985,"125": 7.1157}}}