{"type":"Feature","properties":{"ISO3166-1-Alpha-3":"LVA","country":"Latvia","fill":"#FF0","id":"5753","name":"Vilanu"},
"geometry":{"type": "Polygon","coordinates": [[[27.03353,56.44824,135.7937],[27.0413,56.46636,143.9344],[27.00764,56.52331,127.9547],[27.00505,56.56214,114.4231],[26.98175,56.59321,128.8619],[26.91445,56.60098,114.9148],[26.88338,56.63722,104.6453],[26.85232,56.65793,105.6019],[26.80831,56.66569,95.8835],[26.77256,56.68101,100.4747],[26.77132,56.67747,94.0521],[26.77752,56.66373,93.054],[26.77814,56.65592,93.8244],[26.78093,56.64497,97.6246],[26.77721,56.63262,100.3858],[26.77969,56.62145,98.5665],[26.78853,56.61549,106.8721],[26.7924,56.61029,104.5973],[26.78884,56.60706,100.509],[26.74972,56.59582,104.7374],[26.73654,56.5873,102.7463],[26.72925,56.5783,104.077],[26.74367,56.55885,110.2482],[26.77111,56.55608,105.2387],[26.81566,56.54001,124.5091],[26.82609,56.52417,119.5449],[26.77545,56.512,117.547],[26.80093,56.50725,120.8518],[26.80759,56.49849,119.8083],[26.82031,56.49552,129.2652],[26.83323,56.49479,119.5355],[26.84733,56.49552,117.1806],[26.85788,56.49255,121.2283],[26.86594,56.48575,122.3314],[26.90227,56.47916,128.4246],[26.9527,56.47691,124.9753],[26.95844,56.4611,126.2899],[26.94976,56.45816,124.272],[26.93312,56.45493,127.8393],[26.92536,56.44761,131.9291],[26.99211,56.45083,136.5197],[27.03353,56.44824,135.7937]]]}}