{"type":"Feature","properties":{"ISO3166-1-Alpha-3":"LVA","country":"Latvia","fill":"#FF0","id":"5770","name":"Malpils"},
"geometry":{"type": "Polygon","coordinates": [[[24.98404,57.07993,101.6215],[24.93567,57.08092,104.1416],[24.89952,57.08787,105.9052],[24.87866,57.10456,103.4698],[24.86614,57.09343,96.7471],[24.88839,57.05589,91.3673],[24.88005,57.03781,93.9351],[24.88978,57.01138,83.1225],[24.84528,56.98496,72.4888],[24.81785,56.98951,68.192],[24.81606,56.96627,69.2617],[24.80741,56.93389,75.8228],[24.84032,56.92603,65.0345],[24.87727,56.92149,65.9054],[24.89045,56.92268,62.6488],[24.91882,56.93464,69.4921],[24.93825,56.93911,87.1598],[24.95484,56.94061,80.1961],[24.97659,56.93541,96.7913],[25.00016,56.93957,96.3976],[25.03633,56.93399,92.5422],[25.14258,56.95079,106.5699],[25.13808,56.98006,101.5853],[25.14754,56.98939,104.1735],[25.12599,57.00159,111.8157],[25.10072,57.0098,103.3127],[25.09214,57.016,114.1831],[25.06315,57.02425,107.6146],[25.05571,57.02494,107.7541],[25.04811,57.0291,108.8966],[25.04036,57.03791,107.765],[25.0107,57.04944,103.7845],[24.98931,57.0606,105.9541],[24.98404,57.07993,101.6215]]]}}