{"type": "Feature","id": "1088","bbox": [24.58766,56.69685,25.55568,56.99445],"geometry": {"type": "Polygon","coordinates": [[[25.5054,56.8131,131.8938],[25.50648,56.82671,142.0053],[25.50478,56.83307,141.4119],[25.50106,56.84196,132.5371],[25.49207,56.84625,128.0164],[25.48395,56.85384,127.4327],[25.48488,56.85705,134.0643],[25.48364,56.86718,121.6689],[25.55568,56.87394,137.3782],[25.53408,56.88495,150.2922],[25.52772,56.89007,149.4968],[25.52075,56.8942,162.8553],[25.51594,56.89792,152.8571],[25.51625,56.90319,152.3413],[25.5192,56.9079,158.7546],[25.524,56.91363,175.0737],[25.53222,56.92141,184.814],[25.5316,56.93265,191.9767],[25.52276,56.9435,189.6338],[25.51687,56.95632,212.2408],[25.50835,56.96448,194.5313],[25.50773,56.97275,188.9598],[25.49269,56.98128,193.3516],[25.48819,56.99445,211.8136],[25.47264,56.98903,218.3936],[25.46876,56.98836,195.7884],[25.4469,56.99159,191.5914],[25.44737,56.98192,200.256],[25.45016,56.97743,200.164],[25.45264,56.96962,184.4399],[25.4267,56.94867,157.93],[25.39585,56.9373,146.7655],[25.37223,56.94143,172.8263],[25.37161,56.94805,172.5731],[25.37027,56.95298,169.8204],[25.36717,56.95957,158.6495],[25.36169,56.96683,169.569],[25.35456,56.97363,179.7842],[25.3437,56.97743,185.6581],[25.32743,56.97725,190.9928],[25.28412,56.96482,158.7926],[25.27482,56.95854,159.5531],[25.2618,56.95285,148.3391],[25.25699,56.94722,146.0266],[25.24733,56.94267,116.4944],[25.24671,56.93963,120.8208],[25.24841,56.93715,134.0096],[25.25167,56.93487,140.3002],[25.23399,56.9343,122.7608],[25.14258,56.95079,106.5699],[25.03633,56.93399,92.5422],[25.00016,56.93957,96.3976],[24.97659,56.93541,96.7913],[24.95484,56.94061,80.1961],[24.93825,56.93911,87.1598],[24.91882,56.93464,69.4921],[24.89045,56.92268,62.6488],[24.87727,56.92149,65.9054],[24.84032,56.92603,65.0345],[24.80741,56.93389,75.8228],[24.76028,56.91498,67.5396],[24.73806,56.90939,67.1638],[24.71589,56.89715,61.1463],[24.69327,56.89547,62.8369],[24.70243,56.87469,67.0689],[24.7364,56.86575,53.8851],[24.70064,56.83893,59.0553],[24.66667,56.85324,58.5508],[24.61661,56.82463,61.3887],[24.58766,56.8122,18.2564],[24.5962,56.80642,16.5],[24.61842,56.78486,17.0],[24.62542,56.78315,17.0],[24.64576,56.77314,22.5727],[24.65284,56.76752,23.2291],[24.66106,56.76329,17.0],[24.67864,56.76021,18.2195],[24.69752,56.7569,22.2943],[24.70411,56.75304,36.2143],[24.72486,56.73644,31.0],[24.76108,56.7584,43.9945],[24.78334,56.78066,54.7437],[24.77889,56.8007,51.646],[24.8056,56.80738,52.4448],[24.81673,56.83409,63.4731],[24.84345,56.82741,67.7551],[24.88574,56.81406,61.9891],[24.92359,56.8007,86.6476],[24.94362,56.8096,81.9508],[24.96811,56.79847,74.5368],[25.00596,56.79402,76.7557],[25.04157,56.78957,78.6452],[25.05938,56.76953,78.6855],[25.07497,56.75395,86.5447],[25.09747,56.73716,92.0911],[25.14899,56.71452,96.8683],[25.15348,56.70855,86.1673],[25.1763,56.70333,93.3224],[25.20046,56.69781,87.4728],[25.21555,56.70522,88.4928],[25.21772,56.70822,89.4453],[25.27839,56.69685,93.6544],[25.29559,56.71302,94.0554],[25.29652,56.71628,82.0408],[25.29807,56.71933,85.1586],[25.29311,56.72336,82.4871],[25.25709,56.73612,88.7041],[25.26815,56.74522,105.2489],[25.29528,56.75452,91.3227],[25.32603,56.75798,93.4476],[25.35611,56.75338,102.4649],[25.35394,56.75933,90.5648],[25.35347,56.76253,99.3476],[25.3651,56.76284,102.9652],[25.37802,56.76005,112.951],[25.39119,56.76126,97.2674],[25.43745,56.77519,100.2984],[25.5054,56.8131,131.8938]]]}
,"properties": {"ISO3166-1-Alpha-3": "LVA","country": "Latvia","fill": "#F00","name": "Ogre","area_km2": 1011.7886,"hist_schema_id": "Elevation0-9000","hist_area_km2": {"25": 27.8567,"50": 109.9434,"75": 244.6017,"100": 357.5557,"125": 138.3478,"150": 72.0328,"175": 35.357,"200": 24.8804,"225": 1.2132}}}