{"type": "Feature","bbox": [24.4138,56.545,25.5537,57.0069],"geometry": {"type": "MultiPolygon","coordinates": [[[[24.6547,56.5504,37.0842],[24.6628,56.5501,38.9424],[24.6622,56.5456,40.662],[24.6785,56.545,42.3867],[24.679,56.5495,51.741],[24.6872,56.5492,42.5611],[24.6877,56.5537,46.3094],[24.6959,56.5533,51.3348],[24.704,56.553,40.5312],[24.7034,56.5485,49.4186],[24.7522,56.5466,54.2641],[24.7528,56.5511,57.1979],[24.7609,56.5508,58.9126],[24.7614,56.5553,60.2625],[24.7696,56.555,57.881],[24.7701,56.5594,65.7716],[24.7783,56.5591,58.5038],[24.7788,56.5636,74.0573],[24.7951,56.563,62.6744],[24.7957,56.5674,57.2977],[24.8119,56.5668,77.1212],[24.8125,56.5713,56.4731],[24.8369,56.5703,75.1846],[24.8375,56.5748,73.3267],[24.8781,56.5731,78.793],[24.8787,56.5776,86.5122],[24.9112,56.5763,82.7223],[24.9118,56.5808,64.4373],[24.9362,56.5798,75.6521],[24.9368,56.5843,87.4232],[24.9694,56.5829,64.5465],[24.9699,56.5874,72.1488],[24.9943,56.5864,68.6853],[24.9949,56.5909,75.3342],[25.0112,56.5902,72.1965],[25.0118,56.5947,67.9478],[25.0443,56.5933,87.6477],[25.0456,56.6023,66.4988],[25.0537,56.602,68.5594],[25.0543,56.6064,67.3253],[25.0462,56.6068,44.8486],[25.0474,56.6157,53.1942],[25.0392,56.6161,70.6889],[25.0386,56.6116,67.9942],[25.0224,56.6123,51.9792],[25.0236,56.6212,62.217],[25.0317,56.6209,69.0149],[25.0323,56.6254,75.2856],[25.0242,56.6257,60.5621],[25.026,56.6392,78.9181],[25.0097,56.6398,68.1409],[25.0139,56.6712,72.3763],[25.0221,56.6709,77.774],[25.0227,56.6753,79.5373],[25.0145,56.6757,72.4972],[25.0151,56.6801,82.3809],[25.0233,56.6798,101.2034],[25.0239,56.6843,84.5494],[25.0157,56.6846,86.1012],[25.0175,56.6981,75.4356],[25.042,56.6971,78.1456],[25.0426,56.7015,80.3727],[25.0508,56.7012,97.966],[25.0514,56.7057,83.3707],[25.0595,56.7053,94.4715],[25.0607,56.7143,97.0317],[25.0444,56.715,94.1629],[25.045,56.7194,102.7683],[25.0369,56.7198,85.9377],[25.0393,56.7377,80.2137],[25.0638,56.7367,89.1267],[25.0644,56.7412,88.0347],[25.0726,56.7408,93.0555],[25.072,56.7363,86.9011],[25.0883,56.7357,95.8962],[25.0889,56.7401,91.7705],[25.0971,56.7398,88.4061],[25.0977,56.7443,86.9589],[25.1059,56.743899999999996,86.1654],[25.1052,56.7395,90.2822],[25.1216,56.7388,84.2008],[25.1203,56.7298,92.1222],[25.1285,56.7295,88.2602],[25.1291,56.7339,87.7456],[25.1373,56.7336,84.3331],[25.136,56.7246,99.1414],[25.1524,56.7239,102.6311],[25.1505,56.7105,90.9762],[25.1913,56.7088,93.31],[25.1907,56.7043,87.0699],[25.207,56.7036,104.9535],[25.2089,56.717,93.4526],[25.217,56.7167,92.0075],[25.2164,56.7122,90.1411],[25.2245,56.7118,93.135],[25.2239,56.7074,89.9968],[25.2402,56.7067,92.6032],[25.2396,56.7022,90.9607],[25.2885,56.7001,91.0693],[25.2904,56.7135,81.7509],[25.2823,56.7138,81.1315],[25.2835,56.7228,81.0],[25.2754,56.7232,81.0],[25.276,56.7276,81.0],[25.2597,56.7283,81.0],[25.2603,56.7328,90.9616],[25.2522,56.7332,101.528],[25.2534,56.7421,93.4785],[25.2616,56.7418,103.2148],[25.2622,56.7463,106.0305],[25.2786,56.7456,90.2756],[25.2798,56.7545,99.0159],[25.288,56.7542,98.9424],[25.2886,56.7586,95.7772],[25.2968,56.7583,87.5233],[25.2975,56.7628,105.5343],[25.3056,56.7624,91.4843],[25.3063,56.7669,107.3477],[25.3226,56.7662,95.3116],[25.322,56.7617,90.2654],[25.3546,56.7602,88.5474],[25.354,56.7558,91.4143],[25.3621,56.7554,93.8504],[25.3634,56.7644,105.6332],[25.3389,56.7654,96.6894],[25.3396,56.7699,89.8475],[25.3804,56.7681,93.1296],[25.3798,56.7636,102.5291],[25.3961,56.7629,92.8703],[25.3974,56.7719,103.8027],[25.4138,56.7711,96.7718],[25.4144,56.7756,114.452],[25.4226,56.7752,107.7123],[25.4232,56.7797,107.1051],[25.4477,56.7786,99.7797],[25.4484,56.7831,99.8156],[25.4647,56.7824,110.274],[25.4654,56.7868,112.5873],[25.4736,56.7865,111.6449],[25.4742,56.791,127.78],[25.4824,56.7906,125.0665],[25.4837,56.7995,116.6901],[25.4919,56.7992,117.7237],[25.4926,56.8036,115.0644],[25.5007,56.8033,121.2544],[25.5027,56.8167,130.8946],[25.5109,56.8163,152.1478],[25.5136,56.8342,143.3999],[25.5054,56.8346,137.3794],[25.5067,56.8436,132.2713],[25.5149,56.8432,143.385],[25.5163,56.8522,143.3701],[25.5408,56.851,147.1427],[25.5428,56.8645,141.0995],[25.5101,56.866,127.985],[25.5114,56.8749,139.6795],[25.5196,56.8745,141.7497],[25.5189,56.8701,122.9674],[25.5271,56.8697,127.705],[25.5278,56.8742,125.348],[25.536,56.8738,128.5959],[25.5366,56.8783,139.8524],[25.553,56.8775,140.4914],[25.5537,56.882,152.7872],[25.5455,56.8824,151.1851],[25.5462,56.8868,159.197],[25.538,56.8872,144.4272],[25.5393,56.8962,154.6265],[25.5229,56.8969,151.8538],[25.5256,56.9148,172.4704],[25.5338,56.9145,185.1826],[25.5345,56.9189,182.4442],[25.5427,56.9186,183.5799],[25.544,56.9275,187.9064],[25.5522,56.9271,196.0361],[25.5529,56.9316,183.3418],[25.5447,56.932,182.2926],[25.5461,56.9409,197.2588],[25.5379,56.9413,198.5919],[25.5385,56.9458,196.6103],[25.5303,56.9462,201.3417],[25.533,56.9641,189.9958],[25.5166,56.9648,188.5546],[25.5173,56.9693,194.1911],[25.5255,56.9689,198.6008],[25.5268,56.9779,196.7285],[25.5275,56.9823,212.7506],[25.5193,56.9827,208.4527],[25.5206,56.9917,212.5466],[25.496,56.9928,202.1549],[25.4966,56.9973,210.3522],[25.5048,56.9969,212.6448],[25.5062,57.0058,203.8083],[25.4815,57.0069,206.0761],[25.4802,56.998,220.2048],[25.4555,56.9991,196.6378],[25.4549,56.9946,196.6292],[25.4467,56.995,188.882],[25.446,56.9905,191.5914],[25.4706,56.9894,216.7669],[25.47,56.9849,210.8864],[25.4782,56.9846,218.8632],[25.4775,56.9801,188.3219],[25.4693,56.9805,193.9927],[25.468,56.9715,192.536],[25.4598,56.9719,191.8126],[25.4591,56.9674,187.7281],[25.4427,56.9681,185.654],[25.442,56.9636,181.8574],[25.4502,56.9633,205.9854],[25.4496,56.9588,194.6921],[25.4414,56.9592,187.5488],[25.4407,56.9547,184.0557],[25.4325,56.9551,169.2528],[25.4318,56.9506,167.3131],[25.4236,56.951,156.6928],[25.4223,56.942,158.125],[25.3977,56.9431,161.796],[25.3983,56.9476,153.9107],[25.3819,56.9483,191.2963],[25.3845,56.9662,182.7262],[25.3763,56.9666,176.6549],[25.3776,56.9755,174.9402],[25.3694,56.9759,173.021],[25.3707,56.9848,176.6005],[25.3625,56.9852,164.9976],[25.3632,56.9897,177.1364],[25.3221,56.9915,193.8716],[25.3208,56.9825,199.3866],[25.3126,56.9829,197.5627],[25.3119,56.9784,197.5442],[25.2873,56.9795,170.2044],[25.2853,56.966,165.4516],[25.2689,56.9667,156.4993],[25.2683,56.9623,159.3497],[25.2601,56.9626,153.5161],[25.2594,56.9581,149.9934],[25.2676,56.9578,160.678],[25.267,56.9533,157.804],[25.2588,56.9537,146.9831],[25.2569,56.9402,126.7249],[25.2405,56.9409,111.3702],[25.2411,56.9454,113.2401],[25.2,56.9472,113.6728],[25.2007,56.9517,106.278],[25.1596,56.9534,124.2445],[25.1602,56.9579,105.0914],[25.152,56.9582,114.9805],[25.1508,56.9493,107.7388],[25.1344,56.95,104.7049],[25.1337,56.9455,112.6984],[25.0927,56.9472,97.422],[25.0921,56.9427,107.9495],[25.0674,56.9437,103.1921],[25.0668,56.9393,109.5438],[25.0176,56.9413,90.8873],[25.0182,56.9458,97.3006],[25.0018,56.9465,102.259],[25.0005,56.9375,95.948],[24.9923,56.9378,103.89],[24.9917,56.9334,101.9209],[24.9753,56.934,96.3502],[24.9759,56.9385,97.9274],[24.9677,56.9388,87.5892],[24.9683,56.9433,89.1965],[24.9601,56.9437,81.115],[24.9607,56.9481,88.6668],[24.9443,56.9488,77.1279],[24.9437,56.9443,81.7586],[24.9355,56.9447,89.3832],[24.9349,56.9402,78.6597],[24.9102,56.9412,72.1713],[24.9096,56.9367,67.4729],[24.9014,56.937,66.0496],[24.9008,56.9325,73.7206],[24.8926,56.9329,86.2403],[24.892,56.9284,72.6132],[24.8838,56.9287,65.7119],[24.8832,56.9242,65.474],[24.8668,56.9249,62.5851],[24.8674,56.9294,61.8938],[24.851,56.93,67.0508],[24.8516,56.9345,73.0703],[24.8105,56.9361,84.8826],[24.8111,56.9406,76.5397],[24.8029,56.9409,63.3525],[24.8023,56.9365,81.1995],[24.7941,56.9368,73.299],[24.7935,56.9323,78.9315],[24.7853,56.9326,77.5569],[24.7847,56.9282,71.4448],[24.7765,56.9285,70.6556],[24.7759,56.924,74.2752],[24.7677,56.9243,69.0164],[24.7672,56.9198,69.6409],[24.7589,56.9202,67.2526],[24.7584,56.9157,61.6611],[24.742,56.9163,67.0463],[24.7414,56.9118,64.0908],[24.7168,56.9128,72.3729],[24.715,56.8993,72.8456],[24.674,56.9009,65.8434],[24.6735,56.8964,62.7158],[24.6489,56.8974,52.1624],[24.6483,56.8929,57.2104],[24.6155,56.8941,39.304],[24.6149,56.8897,45.0043],[24.5657,56.8915,23.7912],[24.5663,56.896,37.2928],[24.5581,56.8963,27.657],[24.5586,56.9008,46.7943],[24.5504,56.9011,31.8429],[24.551,56.9056,22.5289],[24.5263,56.9065,26.1004],[24.5258,56.902,23.4332],[24.4848,56.9035,30.5231],[24.4837,56.8946,14.5968],[24.4919,56.8943,15.7342],[24.4913,56.8898,25.32],[24.4995,56.8895,21.326],[24.4979,56.876,23.8418],[24.4897,56.8763,33.9292],[24.4892,56.8719,27.5839],[24.481,56.8722,21.8728],[24.4815,56.8766,30.1192],[24.4733,56.8769,26.5123],[24.4738,56.8814,34.3573],[24.482,56.8811,32.46],[24.4826,56.8856,26.8435],[24.4744,56.8859,16.4908],[24.4749,56.8904,30.6383],[24.4585,56.891,16.8841],[24.4591,56.8955,17.0459],[24.418,56.897,17.605],[24.4175,56.8925,17.1864],[24.4257,56.8922,23.4389],[24.4252,56.8877,28.485],[24.4334,56.8874,19.5251],[24.4318,56.874,29.3193],[24.4236,56.8743,16.588],[24.423,56.8698,12.9679],[24.4148,56.8701,26.5003],[24.4138,56.8611,23.1797],[24.422,56.8608,35.4001],[24.4209,56.8518,31.5026],[24.4373,56.8513,48.3669],[24.4367,56.8468,31.0544],[24.4531,56.8462,21.9399],[24.4515,56.8327,17.282],[24.4679,56.8321,15.5],[24.4684,56.8366,15.0],[24.4766,56.8363,14.0403],[24.4761,56.8318,15.5],[24.5006,56.8309,37.1599],[24.4979,56.8085,38.0964],[24.5225,56.8076,16.0],[24.5219,56.8031,28.8234],[24.5138,56.8034,29.5225],[24.5121,56.79,44.1916],[24.5203,56.7897,53.2925],[24.5192,56.7807,41.0902],[24.511,56.781,27.899],[24.5045,56.7272,45.178],[24.5127,56.7269,46.8606],[24.5121,56.7224,50.6654],[24.5203,56.7221,49.8828],[24.5197,56.7176,51.3937],[24.5442,56.7167,60.4248],[24.5448,56.7212,50.7355],[24.6019,56.7191,44.9641],[24.6025,56.7235,48.8154],[24.627,56.7226,49.1877],[24.6248,56.7047,52.9181],[24.6329,56.7044,53.4432],[24.6307,56.6864,54.1274],[24.6062,56.6874,56.9863],[24.6057,56.6829,43.6015],[24.5893,56.6835,54.049],[24.5888,56.679,65.4914],[24.5806,56.6793,56.3139],[24.5801,56.6749,58.6363],[24.5719,56.6752,56.6383],[24.5697,56.6572,41.6383],[24.5779,56.6569,36.1451],[24.5762,56.6435,41.3724],[24.5844,56.6432,35.0379],[24.5833,56.6342,36.5737],[24.5914,56.6339,35.026],[24.5898,56.6205,46.4426],[24.5979,56.6201,60.9651],[24.5974,56.6157,49.5116],[24.6055,56.6154,36.342],[24.6049,56.6109,36.1532],[24.6131,56.6106,36.1574],[24.6125,56.6061,36.0629],[24.6451,56.6048,40.3364],[24.6457,56.6093,42.7243],[24.6701,56.6084,51.1984],[24.6695,56.6039,52.5281],[24.6614,56.6042,48.6853],[24.6608,56.5997,63.6245],[24.6527,56.6,55.0932],[24.6521,56.5956,50.0011],[24.6847,56.5943,56.5043],[24.6835,56.5853,68.1377],[24.6917,56.585,47.9119],[24.6911,56.5805,49.8318],[24.6667,56.5815,48.086],[24.6661,56.577,46.371],[24.6499,56.5776,54.3883],[24.6488,56.5687,40.1612],[24.6406,56.569,38.0538],[24.6401,56.5645,33.572],[24.6563,56.5639,39.6829],[24.6547,56.5504,37.0842]]]]}
,"properties": {"GID_2": "LVA.3.2_1","GID_0": "LVA","country": "Latvia","GID_1": "LVA.3_1","province": "Riga","NL_NAME_1": "NA","county": "Ogre","VARNAME_2": "NA","NL_NAME_2": "NA","TYPE_2": "Aprinki|rajoni","ENGTYPE_2": "District","CC_2": "NA","HASC_2": "LV.OG","name": "Ogre.county","area_km2": 1873.895,"hist_schema_id": "Elevation0-9000","hist_area_km2": {"0": 1.379,"25": 173.398,"50": 520.574,"75": 506.516,"100": 364.961,"125": 145.622,"150": 79.607,"175": 45.136,"200": 33.767,"225": 2.934}}}