{"type": "Feature","id": "5798","bbox": [25.65795,57.26529,26.32597,57.56922],"geometry": {"type": "Polygon","coordinates": [[[26.1551,57.54724,71.7135],[26.12335,57.56922,67.3854],[26.09405,57.55945,77.4522],[26.05009,57.55945,78.9045],[25.97684,57.54968,63.5242],[25.94509,57.53014,63.9646],[25.95974,57.51549,63.5693],[25.95974,57.49596,69.7385],[25.93532,57.47642,65.6301],[25.89625,57.48619,76.6694],[25.83521,57.49352,73.1181],[25.77633,57.49969,63.147],[25.7184,57.49656,67.6499],[25.68012,57.47959,61.2199],[25.67578,57.47272,56.1623],[25.65795,57.46461,59.9617],[25.6671,57.45251,62.0928],[25.71397,57.40099,145.2217],[25.70492,57.38378,161.5838],[25.72218,57.36131,201.5565],[25.75164,57.33769,225.1152],[25.75334,57.32968,221.0782],[25.74017,57.32642,216.8172],[25.7366,57.3194,212.9329],[25.73877,57.31307,217.3755],[25.73303,57.29661,206.8979],[25.73691,57.28467,223.2198],[25.74513,57.27511,239.9604],[25.75427,57.27764,224.4062],[25.76987,57.27871,223.197],[25.88031,57.2863,222.0332],[25.89132,57.28831,210.228],[25.90419,57.28844,202.322],[25.9107,57.28674,194.5494],[25.99173,57.29002,194.3776],[26.01297,57.28782,179.242],[26.02785,57.28165,184.4538],[26.04371,57.27997,183.6038],[26.0586,57.26529,177.6264],[26.0758,57.27413,167.8891],[26.10128,57.27816,166.0733],[26.13027,57.27648,150.7608],[26.26199,57.28193,148.0275],[26.26665,57.28885,132.6789],[26.26499,57.30095,148.6617],[26.27569,57.30834,121.1421],[26.28034,57.31787,129.195],[26.27708,57.32296,125.135],[26.27615,57.33102,116.8687],[26.27755,57.36472,105.2327],[26.28623,57.36583,114.7094],[26.30204,57.37484,111.0295],[26.30142,57.37983,109.8591],[26.2991,57.38947,111.2774],[26.30282,57.39614,95.5903],[26.30979,57.40221,115.8058],[26.31274,57.40973,104.8934],[26.31507,57.4181,94.0351],[26.32049,57.42378,88.5096],[26.31894,57.429,95.6956],[26.31507,57.43314,90.1865],[26.30855,57.43616,85.0309],[26.3008,57.43897,88.6468],[26.29352,57.4427,88.4463],[26.29615,57.45001,84.8487],[26.30452,57.45536,86.9368],[26.31274,57.45866,80.4137],[26.32597,57.4676,82.3331],[26.31104,57.46977,98.1778],[26.3115,57.49933,79.6056],[26.30161,57.5277,73.1927],[26.28207,57.52526,72.0015],[26.24545,57.52282,77.9893],[26.24056,57.54235,64.8471],[26.1844,57.54724,88.0209],[26.1551,57.54724,71.7135]]]}
,"properties": {"ISO3166-1-Alpha-3": "LVA","country": "Latvia","fill": "#000","name": "Smiltenes","area_km2": 949.303,"hist_schema_id": "Elevation0-9000","hist_area_km2": {"50": 24.9404,"75": 246.1495,"100": 168.4087,"125": 123.7478,"150": 165.8145,"175": 106.7387,"200": 92.0214,"225": 20.7831,"250": 0.6874,"275": 0.0115}}}