{"type": "Feature","bbox": [21.399,56.5057,22.5086,57.1951],"geometry": {"type": "MultiPolygon","coordinates": [[[[22.213,57.1906,39.276],[22.2116,57.1682,32.3762],[22.2033,57.1683,20.0],[22.2025,57.1549,26.0498],[22.1942,57.155,20.0],[22.1937,57.146,27.8522],[22.202,57.1459,31.6224],[22.2017,57.1414,28.831],[22.1934,57.1415,20.0],[22.1924,57.1236,23.461],[22.1841,57.1237,21.1808],[22.1838,57.1192,25.0565],[22.1756,57.1194,25.9523],[22.1753,57.1149,35.6518],[22.134,57.1156,37.4067],[22.1337,57.1111,41.859],[22.1254,57.1113,37.6859],[22.1252,57.1068,37.6322],[22.1087,57.1071,34.1383],[22.1084,57.1026,34.0137],[22.0671,57.1033,24.392],[22.0673,57.1078,31.8487],[22.0343,57.1083,31.7218],[22.0348,57.1173,33.6393],[22.01,57.1177,26.2255],[22.0092,57.1043,45.0917],[22.001,57.1044,24.24],[22.0007,57.0999,27.1123],[21.9759,57.1003,25.9954],[21.9757,57.0958,38.35],[21.9592,57.0961,29.5914],[21.9589,57.0916,38.7982],[21.9507,57.0917,32.5173],[21.9504,57.0872,36.4076],[21.9422,57.0874,36.9407],[21.9419,57.0829,34.4548],[21.9337,57.083,36.8167],[21.9334,57.0785,38.2911],[21.9252,57.0786,38.7001],[21.9254,57.0831,36.0371],[21.9172,57.0833,32.693],[21.9174,57.0877,33.4858],[21.9091,57.0879,32.8099],[21.9094,57.0924,17.2038],[21.8928,57.0926,8.311],[21.8931,57.0971,12.3811],[21.8848,57.0972,27.1325],[21.8853,57.1062,26.9301],[21.8687,57.1065,42.2735],[21.8685,57.102,28.195],[21.852,57.1022,13.3494],[21.8522,57.1067,33.928],[21.8439,57.1068,31.8188],[21.8437,57.1024,39.7082],[21.8355,57.1025,28.7455],[21.835,57.0935,8.7613],[21.8185,57.0937,45.034],[21.8183,57.0893,21.8554],[21.81,57.0894,23.7309],[21.8102,57.0939,32.7085],[21.802,57.094,20.6001],[21.8015,57.085,16.3194],[21.7933,57.0851,15.6024],[21.7935,57.0896,12.3258],[21.7852,57.0897,8.7633],[21.7857,57.0987,26.5733],[21.8022,57.0985,2.5],[21.8024,57.103,17.5382],[21.7941,57.1031,10.9479],[21.7944,57.1076,2.0],[21.7613,57.1081,32.7487],[21.7615,57.1126,34.3282],[21.7367,57.1129,42.5164],[21.7369,57.1174,31.3104],[21.7287,57.1175,39.9069],[21.7289,57.122,37.344],[21.7206,57.1221,39.8087],[21.7208,57.1266,35.0517],[21.7125,57.1267,33.9594],[21.7123,57.1222,34.9647],[21.7041,57.1224,33.8468],[21.7036,57.1134,37.5871],[21.6706,57.1138,23.355],[21.6708,57.1183,21.4112],[21.6625,57.1184,16.3844],[21.6627,57.1229,21.2507],[21.6379,57.1233,29.8661],[21.6377,57.1188,29.2687],[21.6294,57.1189,16.4619],[21.6288,57.1054,23.2535],[21.6123,57.1056,27.2329],[21.6119,57.0966,10.1287],[21.6037,57.0967,9.8564],[21.6033,57.0878,12.3094],[21.595,57.0879,17.459],[21.5952,57.0924,9.4127],[21.5704,57.0927,10.9983],[21.5702,57.0882,15.9692],[21.562,57.0883,16.5037],[21.5618,57.0838,15.9885],[21.5535,57.0839,22.2612],[21.5533,57.0794,29.1843],[21.5451,57.0795,23.3395],[21.5449,57.075,19.3857],[21.5366,57.0751,29.4074],[21.5368,57.0796,16.2284],[21.5285,57.0797,25.9932],[21.5287,57.0842,21.3125],[21.5122,57.0844,20.3482],[21.5115,57.0665,25.7455],[21.495,57.0667,29.1874],[21.4948,57.0622,27.76],[21.4783,57.0624,26.5404],[21.4781,57.0579,25.7757],[21.4863,57.0578,23.9902],[21.4852,57.0308,24.1317],[21.4687,57.031,19.4687],[21.4686,57.0265,27.363],[21.4603,57.0266,16.5929],[21.46,57.0177,34.0829],[21.4682,57.0176,33.7304],[21.4673,56.9951,24.5406],[21.4756,56.995,27.0917],[21.4748,56.977,30.6303],[21.4831,56.9769,31.8127],[21.4827,56.9679,24.2401],[21.4745,56.968,20.9476],[21.4743,56.9636,30.9927],[21.4496,56.9638,29.0418],[21.4492,56.9549,28.5067],[21.4575,56.9548,19.0187],[21.4573,56.9503,27.5755],[21.4244,56.9507,25.8809],[21.4242,56.9462,33.4052],[21.3995,56.9465,23.8745],[21.399,56.933,22.0756],[21.4072,56.9329,38.4215],[21.4071,56.9284,36.2196],[21.4317,56.9281,27.0268],[21.4316,56.9236,27.7057],[21.4398,56.9235,22.5953],[21.44,56.928,26.1404],[21.4482,56.9279,35.5437],[21.448,56.9234,22.3738],[21.4562,56.9233,32.184],[21.4561,56.9188,19.8044],[21.489,56.9184,23.5105],[21.4888,56.9139,20.6481],[21.497,56.9138,27.1385],[21.4968,56.9094,24.3422],[21.4886,56.9095,23.4376],[21.4882,56.9005,27.5422],[21.4718,56.9007,27.5463],[21.4716,56.8962,23.9283],[21.4798,56.8961,26.1398],[21.4793,56.8826,23.7507],[21.4382,56.8831,33.7746],[21.438,56.8786,28.1248],[21.4298,56.8787,19.6661],[21.4297,56.8742,27.9642],[21.4461,56.874,37.9522],[21.4463,56.8785,32.1201],[21.5038,56.8778,27.196],[21.5036,56.8733,21.834],[21.5118,56.8732,21.9992],[21.5107,56.8463,25.3183],[21.5271,56.8461,29.5523],[21.5273,56.8505,41.2299],[21.5437,56.8503,35.1115],[21.5435,56.8458,30.3773],[21.5681,56.8455,31.4241],[21.5683,56.85,32.2786],[21.5848,56.8498,40.8046],[21.5849,56.8543,34.076],[21.5932,56.8542,34.4672],[21.593,56.8497,33.6028],[21.6012,56.8496,33.6676],[21.601,56.8451,31.6274],[21.6092,56.845,36.7844],[21.6086,56.8315,45.9786],[21.6004,56.8316,43.8789],[21.6002,56.8271,59.0397],[21.6084,56.827,45.4128],[21.6078,56.8136,57.1253],[21.616,56.8134,54.5081],[21.6154,56.8,53.8415],[21.6318,56.7998,51.746],[21.632,56.8042,53.9299],[21.6402,56.8041,48.1835],[21.64,56.7996,49.6334],[21.681,56.7991,41.7949],[21.6812,56.8036,43.8044],[21.6894,56.8035,46.9745],[21.6892,56.799,41.6419],[21.6974,56.7989,55.0422],[21.697,56.7899,40.7057],[21.7134,56.7896,41.9827],[21.7132,56.7852,40.813],[21.7214,56.785,41.16],[21.721,56.7761,41.9755],[21.7291,56.7759,44.1639],[21.7294,56.7804,43.4384],[21.7375,56.7803,46.5927],[21.7373,56.7758,46.0208],[21.7455,56.7757,48.6648],[21.7451,56.7667,48.8032],[21.7533,56.7666,48.8017],[21.7531,56.7621,45.6707],[21.7613,56.762,51.7379],[21.7608,56.753,48.0264],[21.769,56.7529,52.1955],[21.7688,56.7484,56.6213],[21.7686,56.743899999999996,57.6597],[21.7604,56.744,61.9545],[21.7602,56.7395,71.6636],[21.7684,56.7394,70.2414],[21.7682,56.7349,76.3677],[21.7764,56.7348,84.4893],[21.7755,56.7168,107.4889],[21.7591,56.7171,92.4953],[21.7587,56.7081,72.3795],[21.7751,56.7079,92.0768],[21.7749,56.7034,95.0104],[21.7994,56.703,100.8356],[21.7992,56.6985,96.3093],[21.8073,56.6984,102.7122],[21.8071,56.6939,98.4389],[21.8235,56.6937,111.1512],[21.8233,56.6892,110.0943],[21.8151,56.6893,101.1927],[21.8146,56.6803,105.9926],[21.814,56.6668,119.1031],[21.8222,56.6667,112.4054],[21.8219,56.6622,116.402],[21.8301,56.6621,124.8578],[21.8294,56.6486,107.5462],[21.8213,56.6487,107.8498],[21.8206,56.6353,114.3923],[21.8125,56.6354,117.2298],[21.812,56.6264,120.1667],[21.8039,56.6265,118.8079],[21.8041,56.631,122.8938],[21.7959,56.6311,132.1174],[21.7878,56.6313,127.197],[21.7876,56.6268,129.5528],[21.7712,56.627,122.8767],[21.7706,56.6135,124.1307],[21.7788,56.6134,111.7228],[21.7785,56.6089,120.8813],[21.7867,56.6088,126.1273],[21.7865,56.6043,114.444],[21.7946,56.6042,125.7745],[21.7938,56.5862,110.7],[21.8019,56.5861,110.9338],[21.8017,56.5816,119.8051],[21.7936,56.5817,91.2186],[21.7933,56.5772,97.4362],[21.7852,56.5774,102.956],[21.785,56.5729,106.2296],[21.7931,56.5728,92.2644],[21.7929,56.5683,99.3265],[21.7848,56.5684,112.3334],[21.7843,56.5594,110.5265],[21.8088,56.559,122.721],[21.8079,56.5411,94.5138],[21.816,56.5409,136.2161],[21.8158,56.5365,129.365],[21.8321,56.5362,134.094],[21.8319,56.5317,129.0211],[21.8644,56.5312,121.4826],[21.8642,56.5267,113.7836],[21.8723,56.5266,113.3614],[21.8726,56.5311,116.9951],[21.897,56.5307,99.2927],[21.8972,56.5352,118.9071],[21.9053,56.5351,106.9187],[21.9051,56.5306,85.6647],[21.9133,56.5305,87.5815],[21.9126,56.517,109.5671],[21.9207,56.5168,98.453],[21.9205,56.5124,102.0538],[21.9286,56.5122,107.6548],[21.9288,56.5167,100.1668],[21.9451,56.5165,103.3027],[21.9453,56.521,92.3746],[21.9697,56.5206,64.8972],[21.9695,56.5161,79.7338],[22.002,56.5155,76.3907],[22.0018,56.511,87.0505],[22.0099,56.5109,77.1766],[22.0102,56.5154,72.8895],[22.0264,56.5151,93.9867],[22.0262,56.5106,81.9484],[22.0343,56.5105,79.605],[22.0341,56.506,93.3698],[22.0504,56.5057,81.3395],[22.0508,56.5147,82.2415],[22.059,56.5146,65.0244],[22.0602,56.537,79.7486],[22.0439,56.5373,71.6428],[22.0442,56.5418,77.3591],[22.0198,56.5422,71.0114],[22.02,56.5467,77.7853],[22.0119,56.5468,44.3616],[22.0121,56.5513,41.1724],[22.004,56.5515,50.1245],[22.0042,56.556,50.8056],[22.0124,56.5558,38.4809],[22.0128,56.5648,52.587],[22.0454,56.5643,58.7419],[22.0457,56.5687,58.5674],[22.0538,56.5686,77.7293],[22.0536,56.5641,73.1814],[22.0698,56.5638,84.3046],[22.0701,56.5683,74.3266],[22.0945,56.5679,81.1043],[22.0948,56.5724,77.7184],[22.1274,56.5718,81.2888],[22.1276,56.5763,76.2369],[22.1358,56.5762,72.1443],[22.1363,56.5852,79.5246],[22.1281,56.5853,80.0225],[22.1286,56.5943,68.7069],[22.1205,56.5944,69.2876],[22.1218,56.6169,66.2283],[22.1136,56.617,54.4922],[22.1146,56.635,43.9497],[22.1228,56.6348,50.6125],[22.1233,56.6438,48.5657],[22.107,56.6441,53.7326],[22.1072,56.6486,53.0328],[22.1154,56.6485,45.2861],[22.1159,56.6574,57.5621],[22.1077,56.6576,55.4167],[22.1085,56.6711,65.9102],[22.1003,56.6712,80.0161],[22.1011,56.6847,38.0499],[22.0929,56.6848,46.0429],[22.0937,56.6983,55.2421],[22.1018,56.6981,60.4623],[22.1016,56.6937,32.414],[22.1343,56.6931,57.2824],[22.1348,56.7021,71.8151],[22.1511,56.7018,65.7123],[22.1514,56.7063,59.4082],[22.1596,56.7061,66.2296],[22.1598,56.7106,60.7739],[22.168,56.7105,61.9947],[22.1685,56.7194,75.6625],[22.1767,56.7193,54.0938],[22.1772,56.7283,60.8255],[22.1854,56.7281,66.1485],[22.1857,56.7326,63.0552],[22.1775,56.7328,61.0225],[22.178,56.7418,59.2998],[22.1944,56.7415,64.1619],[22.1949,56.7504,64.8723],[22.1867,56.7506,74.5584],[22.1875,56.7641,60.0697],[22.1793,56.7642,57.7776],[22.1807,56.7867,58.8194],[22.1725,56.7868,58.225],[22.1738,56.8093,42.6531],[22.2066,56.8087,58.662],[22.2063,56.8042,58.1563],[22.2145,56.804,60.4833],[22.2148,56.8085,61.8894],[22.2312,56.8082,81.3399],[22.2317,56.8172,74.5745],[22.2235,56.8174,60.0767],[22.2238,56.8218,61.3509],[22.232,56.8217,80.2411],[22.2328,56.8352,68.2672],[22.2492,56.8349,60.4519],[22.2495,56.8394,58.9639],[22.2577,56.8392,62.1133],[22.2579,56.8437,60.4947],[22.3072,56.8428,78.7186],[22.3077,56.8517,75.3926],[22.3159,56.8516,80.8635],[22.3168,56.8651,88.3644],[22.325,56.8649,86.0431],[22.3247,56.8604,93.4656],[22.3493,56.8599,91.3217],[22.3505,56.8779,75.013],[22.334,56.8782,85.1604],[22.3349,56.8917,91.1601],[22.3185,56.892,79.4154],[22.3187,56.8965,79.6848],[22.3023,56.8968,70.923],[22.302,56.8923,70.2587],[22.2938,56.8925,81.8649],[22.2856,56.8926,70.7825],[22.2859,56.8971,65.757],[22.2694,56.8974,65.1537],[22.2697,56.9019,62.7139],[22.2779,56.9018,64.1654],[22.278199999999998,56.9063,70.4018],[22.27,56.9064,73.2699],[22.2705,56.9154,71.2591],[22.2952,56.9149,93.1231],[22.2955,56.9194,68.2438],[22.3037,56.9193,70.4117],[22.3043,56.9282,76.292],[22.2878,56.9285,66.8699],[22.2881,56.933,65.9608],[22.2963,56.9329,68.9299],[22.2966,56.9374,66.6956],[22.313,56.9371,72.6894],[22.3128,56.9326,72.6306],[22.3374,56.9321,78.7294],[22.3372,56.9276,76.9531],[22.3454,56.9275,86.773],[22.3448,56.9185,91.4203],[22.3366,56.9186,84.6836],[22.3363,56.9141,81.7364],[22.3527,56.9138,93.6105],[22.3525,56.9093,101.6429],[22.3607,56.9092,101.0799],[22.3604,56.9047,101.1064],[22.385,56.9042,103.7676],[22.3848,56.8997,100.1032],[22.393,56.8996,100.9952],[22.3927,56.8951,96.6268],[22.4091,56.8947,87.6615],[22.4094,56.8992,87.5072],[22.4423,56.8986,112.5928],[22.4435,56.9165,106.1569],[22.4517,56.9164,111.6255],[22.452,56.9209,103.0627],[22.4602,56.9207,104.4091],[22.4605,56.9252,103.7013],[22.4523,56.9254,109.6247],[22.4532,56.9388,100.9588],[22.4449,56.939,92.7341],[22.4458,56.9525,104.3571],[22.4623,56.9521,102.9744],[22.4629,56.9611,96.2302],[22.4547,56.9613,99.876],[22.455,56.9658,97.1308],[22.4553,56.9702,90.3028],[22.4635,56.9701,87.675],[22.4647,56.988,82.2184],[22.4812,56.9877,94.7545],[22.4821,57.0012,88.4277],[22.4903,57.001,89.2116],[22.4909,57.01,91.8428],[22.4991,57.0098,87.2895],[22.4995,57.0143,89.3646],[22.5077,57.0141,98.5715],[22.5086,57.0276,86.2348],[22.4921,57.028,76.4963],[22.4918,57.0235,80.0023],[22.4836,57.0236,79.525],[22.4833,57.0191,80.9339],[22.4585,57.0196,79.6113],[22.4588,57.0241,77.3691],[22.4424,57.0245,75.0804],[22.4427,57.0289,91.8311],[22.4262,57.0293,76.5217],[22.4259,57.0248,79.5256],[22.4176,57.0249,76.5089],[22.4179,57.0294,75.8729],[22.3849,57.0301,69.4263],[22.3855,57.0391,72.8871],[22.3608,57.0395,65.7031],[22.3625,57.0665,65.0226],[22.3708,57.0663,68.4666],[22.3722,57.0888,71.3668],[22.3639,57.0889,60.3998],[22.3648,57.1024,75.2852],[22.3565,57.1026,78.7672],[22.3571,57.1115,73.1141],[22.3654,57.1114,68.096],[22.3657,57.1159,74.3228],[22.3574,57.116,64.1171],[22.3577,57.1205,72.8259],[22.3412,57.1208,67.6521],[22.3415,57.1253,51.5393],[22.3084,57.126,56.4556],[22.3087,57.1304,66.3497],[22.3004,57.1306,62.196],[22.3007,57.1351,64.121],[22.2759,57.1356,62.6335],[22.2764,57.1445,49.7804],[22.2599,57.1448,46.7646],[22.2602,57.1493,50.2822],[22.2519,57.1495,50.6137],[22.2524,57.1585,39.6026],[22.2442,57.1586,44.9631],[22.2447,57.1676,47.7139],[22.253,57.1674,52.1031],[22.2535,57.1764,35.0335],[22.237,57.1767,33.5809],[22.2375,57.1857,46.371],[22.2292,57.1859,38.4036],[22.2295,57.1903,42.7766],[22.2212,57.1905,37.369],[22.2215,57.195,37.0555],[22.2132,57.1951,43.2548],[22.213,57.1906,39.276]]]]}
,"properties": {"GID_2": "LVA.1.1_1","GID_0": "LVA","country": "Latvia","GID_1": "LVA.1_1","province": "Kurzeme","NL_NAME_1": "NA","county": "Kuldiga","VARNAME_2": "Goldingen","NL_NAME_2": "NA","TYPE_2": "Aprinki|rajoni","ENGTYPE_2": "District","CC_2": "NA","HASC_2": "LV.KU","name": "Kuldiga.county","area_km2": 2479.46,"hist_schema_id": "Elevation0-9000","hist_area_km2": {"0": 28.177,"25": 518.913,"50": 1044.267,"75": 534.323,"100": 283.203,"125": 69.456,"150": 1.062,"175": 0.058}}}