{"type": "Feature","id": "5709","bbox": [21.43645,56.68786,22.50822,57.17785],"geometry": {"type": "Polygon","coordinates": [[[22.41267,57.01476,74.807],[22.38239,57.01967,69.1375],[22.37262,57.03577,74.0504],[22.3627,57.04241,68.9556],[22.3596,57.05145,61.5513],[22.35929,57.05647,63.7952],[22.36301,57.07874,25.5427],[22.35417,57.10266,69.6127],[22.3489,57.11011,68.1714],[22.32761,57.12042,73.6194],[22.298,57.12876,64.9172],[22.26276,57.14501,45.689],[22.24989,57.15527,45.0365],[22.24183,57.16669,42.8637],[22.23469,57.17054,43.456],[22.20643,57.17785,21.8564],[22.19961,57.16612,20.0],[22.19635,57.15755,20.3456],[22.19558,57.15339,20.0],[22.19511,57.14907,35.674],[22.19527,57.13209,24.0654],[22.19434,57.12809,33.189],[22.19248,57.12458,23.3959],[22.17273,57.11657,51.5617],[22.09517,57.10163,29.5333],[22.07532,57.10199,19.5603],[22.01528,57.11372,24.8111],[21.99647,57.10737,26.9788],[21.95197,57.09843,38.2847],[21.93657,57.09724,22.4513],[21.86009,57.09931,17.2111],[21.84986,57.09843,42.9664],[21.83994,57.093,45.4216],[21.8219,57.08528,13.5436],[21.78309,57.0852,36.3089],[21.7895,57.09527,24.6967],[21.78981,57.09982,21.0114],[21.78919,57.10411,16.94],[21.76697,57.10706,35.3002],[21.71157,57.11685,33.6517],[21.69235,57.11421,29.1406],[21.66408,57.11631,17.886],[21.65385,57.11615,17.5707],[21.64145,57.11421,12.3301],[21.62626,57.10406,23.2535],[21.59303,57.08727,28.045],[21.5738,57.08561,26.7177],[21.60546,57.06148,14.7891],[21.63976,57.04776,50.0579],[21.6329,57.03405,55.0071],[21.65576,57.0089,76.9304],[21.69234,56.99747,54.0],[21.70606,56.95631,81.2387],[21.66491,56.94946,66.2342],[21.63976,56.93345,55.6146],[21.58489,56.93117,35.6841],[21.56431,56.91059,33.6613],[21.51859,56.91059,25.3107],[21.4934,56.90381,26.9926],[21.47371,56.88759,20.3547],[21.46797,56.87891,37.6719],[21.43645,56.86759,35.9437],[21.49309,56.86469,36.5758],[21.51577,56.84397,29.9197],[21.526,56.84203,24.8172],[21.56667,56.84222,33.7136],[21.59303,56.84514,30.1109],[21.60869,56.83289,54.5483],[21.61029,56.82273,50.4179],[21.62254,56.81136,48.0902],[21.62967,56.79989,45.3819],[21.64424,56.79116,43.7841],[21.65168,56.79007,39.5397],[21.67375,56.79059,45.9041],[21.6801,56.79157,58.4506],[21.73845,56.76413,53.7821],[21.76124,56.74119,66.522],[21.76279,56.73199,83.9181],[21.77054,56.72302,117.2709],[21.77178,56.71302,93.4102],[21.76759,56.70478,86.4817],[21.77612,56.69866,88.0495],[21.80144,56.69065,95.1949],[21.82299,56.68786,110.4173],[21.84095,56.70483,123.7162],[21.88667,56.72083,84.2048],[21.93011,56.71854,37.1258],[21.95983,56.73226,41.6942],[21.93468,56.79856,39.6484],[21.9827,56.82142,43.1998],[22.03071,56.82371,43.062],[22.09244,56.82371,35.6539],[22.11301,56.80771,45.5301],[22.16266,56.79503,56.4003],[22.20488,56.79522,61.3772],[22.2303,56.80907,66.3483],[22.25113,56.8231,62.8709],[22.26973,56.82971,70.0028],[22.30575,56.83862,80.5075],[22.3166,56.84366,83.8799],[22.3413,56.84749,108.7746],[22.34203,56.86423,90.2198],[22.32947,56.87477,93.077],[22.32032,56.8804,79.5151],[22.31056,56.88376,64.3169],[22.30389,56.88451,70.2128],[22.29552,56.8833,68.7884],[22.28787,56.88309,59.6539],[22.26973,56.88805,55.6725],[22.264,56.89394,59.5469],[22.26741,56.89854,77.7967],[22.28787,56.90578,71.9342],[22.29025,56.91007,80.9713],[22.30435,56.91973,70.4117],[22.32838,56.91684,78.937],[22.33567,56.91301,80.5957],[22.33851,56.90803,88.7702],[22.33815,56.90407,83.4401],[22.34874,56.89642,87.2168],[22.39231,56.88588,90.5388],[22.41778,56.88934,102.6878],[22.43236,56.89854,97.7005],[22.44336,56.90356,116.9574],[22.45489,56.91709,114.3767],[22.44538,56.93854,92.9288],[22.45592,56.9404,102.9245],[22.47241,56.98247,92.9558],[22.50822,57.01383,98.5715],[22.48,57.01776,82.9951],[22.41267,57.01476,74.807]]]}
,"properties": {"ISO3166-1-Alpha-3": "LVA","country": "Latvia","fill": "#FF0","name": "Kuldigas","area_km2": 1753.152,"hist_schema_id": "Elevation0-9000","hist_area_km2": {"0": 11.527,"25": 304.069,"50": 777.6,"75": 409.195,"100": 221.961,"125": 28.766,"150": 0.035}}}