{"type": "Feature","id": "5734","bbox": [25.64968,56.04013,26.02552,56.23525],"geometry": {"type": "Polygon","coordinates": [[[26.02552,56.07942,144.5194],[26.01219,56.10836,124.999],[25.98547,56.11058,120.598],[25.97657,56.12839,113.5185],[25.97657,56.14843,115.8159],[25.94763,56.15733,121.0494],[25.90533,56.17069,135.9889],[25.89643,56.20186,133.0988],[25.87639,56.22189,118.7498],[25.83855,56.22634,127.8425],[25.8007,56.23525,117.4918],[25.75618,56.2308,115.141],[25.69384,56.22857,91.9321],[25.69384,56.20854,88.3773],[25.67381,56.18405,105.4468],[25.64968,56.14381,113.8714],[25.66188,56.14081,102.8866],[25.66921,56.13203,119.8468],[25.68782,56.09833,114.42],[25.6966,56.0879,116.7276],[25.7088,56.08105,123.1293],[25.76626,56.05865,124.8212],[25.7955,56.04013,138.8762],[25.79572,56.04025,138.8762],[25.8106,56.04821,124.7636],[25.83763,56.0581,128.0019],[25.8446,56.06544,127.8918],[25.84879,56.07487,128.1615],[25.8598,56.08185,129.8414],[25.85391,56.08867,131.1071],[25.85096,56.09314,146.5859],[25.83809,56.10428,116.0308],[25.83468,56.10962,123.7837],[25.83127,56.12285,101.5092],[25.91597,56.08007,134.1943],[25.9262,56.07069,139.8868],[25.94176,56.06172,143.0178],[25.95447,56.06288,146.8244],[25.98222,56.07588,134.3642],[25.98956,56.08053,133.133],[26.00769,56.08727,133.4589],[26.02552,56.07942,144.5194]]]}
,"properties": {"ISO3166-1-Alpha-3": "LVA","country": "Latvia","fill": "#F0F","name": "Aknistes","area_km2": 292.882,"hist_schema_id": "Elevation0-9000","hist_area_km2": {"75": 2.4302,"100": 54.0937,"125": 204.9145,"150": 31.2661,"175": 0.1774}}}