{"type": "Feature","id": "5797","bbox": [25.49295,56.96257,25.92357,57.27871],"geometry": {"type": "Polygon","coordinates": [[[25.77164,57.19908,187.1159],[25.74502,57.21317,191.8239],[25.75285,57.24448,224.3035],[25.76068,57.25544,237.4173],[25.76987,57.27871,223.197],[25.75427,57.27764,224.4062],[25.74513,57.27511,239.9604],[25.70901,57.2664,214.3179],[25.66987,57.27423,198.9267],[25.63855,57.26484,220.4894],[25.60098,57.26484,193.1383],[25.59941,57.24761,235.7383],[25.57593,57.23665,241.2666],[25.56027,57.22256,229.6035],[25.57593,57.20377,227.4967],[25.5728,57.1709,215.5194],[25.5634,57.14741,215.7065],[25.54148,57.12236,218.9765],[25.56497,57.11297,208.3306],[25.59472,57.10983,208.427],[25.6182,57.08009,220.8063],[25.61664,57.066,230.49],[25.58689,57.05034,218.4804],[25.54775,57.02059,210.977],[25.52896,57.02059,197.063],[25.50704,57.03625,213.559],[25.49295,57.02685,222.5979],[25.51017,57.00806,223.6762],[25.504,56.99482,206.2035],[25.51718,56.99513,220.0034],[25.56514,56.9821,207.1324],[25.58235,56.9819,196.0239],[25.60271,56.98438,195.2515],[25.63402,56.99471,194.4655],[25.63852,56.99476,196.5412],[25.63852,56.99296,200.4942],[25.63697,56.99022,181.841],[25.63914,56.98448,180.4344],[25.63356,56.97487,192.9947],[25.62953,56.96309,195.4074],[25.69733,56.98613,194.3109],[25.70544,56.99368,197.6543],[25.72714,56.99869,199.4239],[25.75489,56.99329,188.2086],[25.76952,56.9835,193.2715],[25.77944,56.98102,191.0164],[25.7875,56.98169,201.7591],[25.79603,56.985,200.7281],[25.8137,56.98675,186.5934],[25.82259,56.985,183.8784],[25.82972,56.98241,195.712],[25.83391,56.97973,194.4151],[25.83747,56.97678,198.0771],[25.84181,56.97384,197.8178],[25.84491,56.97027,188.1136],[25.85034,56.96637,193.1079],[25.85406,56.96257,196.2259],[25.88636,56.96422,196.9615],[25.91783,56.97523,207.896],[25.92077,56.9819,199.6215],[25.92357,56.99296,216.5284],[25.92,57.00009,218.8487],[25.91116,57.00675,198.7452],[25.90434,57.01396,203.2444],[25.89566,57.02626,245.1922],[25.89675,57.03755,219.0178],[25.899539999999998,57.05016,237.9739],[25.9062,57.06143,239.309],[25.9076,57.07001,236.3144],[25.9231,57.09745,252.2477],[25.88123,57.09731,219.0174],[25.86245,57.12079,218.8136],[25.83896,57.12079,209.2793],[25.80452,57.13488,197.8445],[25.77477,57.15367,180.8874],[25.76381,57.16933,176.0229],[25.77164,57.19908,187.1159]]]}
,"properties": {"ISO3166-1-Alpha-3": "LVA","country": "Latvia","fill": "#0F0","name": "Vecpiebalgas","area_km2": 510.8912,"hist_schema_id": "Elevation0-9000","hist_area_km2": {"175": 29.1065,"200": 282.5454,"225": 162.7331,"250": 35.4706,"275": 1.0356}}}