{"type": "Feature","id": "1089","bbox": [26.4606,56.1111,26.88847,56.44981],"geometry": {"type": "Polygon","coordinates": [[[26.88847,56.12887,157.9747],[26.88243,56.15205,176.8237],[26.86175,56.16239,170.7414],[26.8266,56.17687,151.0275],[26.80178,56.18514,143.3614],[26.83487,56.19961,157.4612],[26.83901,56.21409,148.8497],[26.81419,56.25337,156.152],[26.78317,56.28232,157.7901],[26.74182,56.29059,138.8198],[26.70253,56.31334,117.196],[26.66531,56.32161,129.5807],[26.65084,56.33608,116.5823],[26.66945,56.36917,115.0465],[26.7108,56.38364,127.8198],[26.73355,56.39605,128.314],[26.68599,56.42914,115.0348],[26.62396,56.44981,118.6388],[26.59087,56.44568,109.768],[26.5764,56.43327,107.8766],[26.54124,56.37537,110.0877],[26.47921,56.39191,106.3317],[26.4606,56.35883,107.5927],[26.51436,56.33402,103.379],[26.57019,56.32161,106.3727],[26.59087,56.31954,110.0555],[26.60121,56.28232,110.8497],[26.6405,56.27612,119.7647],[26.65911,56.25958,126.6384],[26.67358,56.21822,126.8494],[26.67151,56.17687,104.9149],[26.6467,56.16446,118.3628],[26.60328,56.16653,103.9369],[26.61775,56.14998,98.9221],[26.64791,56.13528,105.1478],[26.68734,56.12552,103.24],[26.70037,56.11869,100.279],[26.7185,56.11125,104.7466],[26.74817,56.1111,126.1331],[26.77473,56.11508,137.9582],[26.80728,56.12732,145.7436],[26.82325,56.12952,142.6004],[26.83679,56.12939,152.6018],[26.84764,56.12396,156.1199],[26.87229,56.12722,156.5873],[26.88847,56.12887,157.9747]]]}
,"properties": {"ISO3166-1-Alpha-3": "LVA","country": "Latvia","fill": "#00F","name": "Preilu","area_km2": 367.668,"hist_schema_id": "Elevation0-9000","hist_area_km2": {"100": 117.9416,"125": 140.0995,"150": 99.2096,"175": 10.4172}}}