{"type":"Feature","properties":{"GID_2":"LVA.2.5_1","GID_0":"LVA","country":"Latvia","GID_1":"LVA.2_1","province":"Latgale","NL_NAME_1":"NA","county":"Preili","VARNAME_2":"NA","NL_NAME_2":"NA","TYPE_2":"Aprinki|rajoni","ENGTYPE_2":"District","CC_2":"NA","HASC_2":"LV.PR","name":"Preili.county"},
"geometry":{"type": "MultiPolygon","coordinates": [[[[26.9766,56.0636,159.8198],[26.9846,56.0631,148.0253],[26.9855,56.0676,151.1736],[27.0095,56.0662,169.4177],[27.0111,56.0751,167.6564],[27.0271,56.0742,172.6379],[27.028,56.0786,172.3459],[27.036,56.0782,172.4818],[27.0368,56.0826,172.9965],[27.0448,56.0821,172.4405],[27.0456,56.0866,168.0492],[27.0616,56.0857,160.9729],[27.0633,56.0946,167.2581],[27.0713,56.0941,163.0248],[27.0721,56.0986,157.7865],[27.0801,56.0981,160.2878],[27.081,56.1026,169.7493],[27.0947,56.1018,148.8095],[27.0962,56.0972,147.8327],[27.1042,56.0967,151.4003],[27.105,56.1012,155.5274],[27.0996,56.1015,156.9948],[27.0974,56.1035,160.9531],[27.0978,56.1061,171.8153],[27.1219,56.1047,170.7828],[27.121,56.1002,159.3691],[27.145,56.0988,168.5068],[27.1467,56.1077,164.9819],[27.1387,56.1082,168.6335],[27.1396,56.1126,191.7191],[27.1315,56.1131,175.1684],[27.1358,56.1355,163.5703],[27.1277,56.1359,159.8851],[27.1294,56.1449,150.6902],[27.1374,56.1444,158.5881],[27.1383,56.1489,164.4226],[27.1303,56.1493,165.1104],[27.1311,56.1538,165.7226],[27.1231,56.1543,159.1171],[27.1239,56.1587,153.4038],[27.1159,56.1592,160.2032],[27.1168,56.1637,159.3273],[27.1087,56.1642,144.5],[27.1104,56.1731,157.7874],[27.1024,56.1736,144.5],[27.1032,56.178,144.5],[27.0952,56.1785,156.3914],[27.096,56.183,144.5],[27.088,56.1835,157.6015],[27.0889,56.1879,153.7395],[27.0808,56.1884,157.385],[27.08,56.1839,155.4096],[27.072,56.1844,173.5614],[27.0728,56.1889,159.5522],[27.0648,56.1894,158.3188],[27.0656,56.1938,176.2082],[27.0576,56.1943,144.5],[27.0559,56.1854,170.0107],[27.0399,56.1863,144.5],[27.0415,56.1952,144.5],[27.0401,56.1998,144.5],[27.0343,56.2002,144.5],[27.0352,56.2047,161.1071],[27.0432,56.2042,148.8064],[27.0452,56.1995,144.5],[27.0584,56.1988,172.8899],[27.0592,56.2032,171.2599],[27.0512,56.2037,149.5138],[27.0521,56.2082,154.9606],[27.044,56.2086,147.0791],[27.0457,56.2176,160.5235],[27.0377,56.2181,156.2166],[27.0385,56.2225,162.4548],[27.0328,56.2229,166.5761],[27.0296,56.2185,161.7622],[27.0288,56.2141,165.5485],[27.0208,56.2145,163.262],[27.0224,56.2235,158.5077],[27.0281,56.2231,157.3109],[27.0313,56.2275,164.5327],[27.0152,56.2284,164.0005],[27.0169,56.2373,171.698],[27.0088,56.2378,183.2907],[27.0097,56.2423,167.8846],[26.9936,56.2432,164.3106],[26.9952,56.2522,171.5623],[26.9872,56.2526,175.5685],[26.9889,56.2616,159.9899],[26.9969,56.2611,162.6261],[26.9977,56.2656,163.526],[27.0058,56.2651,163.7614],[27.0074,56.274,154.0],[26.9994,56.2745,154.0],[27.0002,56.279,154.0],[26.9841,56.2799,155.3092],[26.985,56.2844,163.4453],[26.9769,56.2848,161.5905],[26.9777,56.2893,158.3572],[26.9697,56.2898,160.8432],[26.9705,56.2942,160.4101],[26.9625,56.2947,161.0573],[26.9633,56.2992,160.5616],[26.9552,56.2996,168.0293],[26.9561,56.3041,161.8792],[26.948,56.3046,159.6833],[26.9472,56.3001,160.4952],[26.9311,56.301,165.0391],[26.9336,56.3144,162.9684],[26.9416,56.314,157.6337],[26.9424,56.3184,154.2886],[26.9344,56.3189,160.166],[26.936,56.3278,157.5293],[26.928,56.3283,159.1591],[26.9288,56.3328,160.7238],[26.9368,56.3323,158.5074],[26.9377,56.3368,160.5244],[26.9538,56.3358,158.9968],[26.9521,56.3269,167.7841],[26.9683,56.326,164.7324],[26.9691,56.3304,163.7318],[26.9771,56.33,162.8175],[26.978,56.3344,157.5344],[26.986,56.334,156.4062],[26.9877,56.3429,160.8225],[26.9796,56.3434,159.5159],[26.9805,56.3478,158.7291],[26.9724,56.3483,159.0052],[26.9732,56.3528,157.4044],[26.9652,56.3532,156.4449],[26.9668,56.3622,158.341],[26.9588,56.3626,162.8618],[26.9604,56.3716,150.9882],[26.9443,56.3725,148.2353],[26.9468,56.3859,135.8004],[26.9306,56.3869,141.0614],[26.9323,56.3958,136.9358],[26.9242,56.3963,137.9475],[26.925,56.4007,137.8488],[26.9169,56.4012,136.9816],[26.9178,56.4057,143.9912],[26.9016,56.4066,131.6414],[26.9024,56.4111,138.4129],[26.8944,56.4115,129.7072],[26.8952,56.416,130.7249],[26.879,56.4169,134.5735],[26.8807,56.4258,131.4039],[26.8888,56.4254,131.3732],[26.8896,56.4298,134.2503],[26.8977,56.4294,133.0912],[26.9026,56.4562,144.82],[26.9107,56.4557,142.6264],[26.9123,56.4647,140.8952],[26.9204,56.4642,137.6443],[26.9221,56.4731,144.1374],[26.9302,56.4727,139.083],[26.9293,56.4682,136.0996],[26.9374,56.4677,131.634],[26.9407,56.4856,130.8741],[26.9165,56.487,141.3223],[26.9173,56.4915,127.3943],[26.893,56.4929,124.9733],[26.8922,56.4884,125.5166],[26.8436,56.4912,118.8178],[26.8444,56.4956,123.6578],[26.8363,56.4961,120.7774],[26.8388,56.5095,118.8725],[26.8307,56.51,120.6881],[26.8299,56.5055,120.2838],[26.8056,56.5069,121.5804],[26.8048,56.5024,118.3919],[26.7967,56.5029,116.3151],[26.7975,56.5073,123.8417],[26.7894,56.5078,117.869],[26.791,56.5167,130.8405],[26.7586,56.5185,113.6191],[26.7594,56.523,111.776],[26.7675,56.5225,113.475],[26.7683,56.527,113.3737],[26.7845,56.5261,115.2345],[26.7854,56.5306,116.7457],[26.7935,56.5301,122.2954],[26.7943,56.5346,114.2878],[26.8105,56.5337,118.3522],[26.8121,56.5426,122.7926],[26.804,56.5431,113.6176],[26.8048,56.5475,111.1306],[26.7967,56.548,110.3899],[26.7975,56.5525,108.3038],[26.7651,56.5543,106.4867],[26.7659,56.5588,112.1101],[26.7578,56.5592,111.9221],[26.7586,56.5637,109.5804],[26.7505,56.5641,126.5933],[26.7465,56.5418,111.7276],[26.7383,56.5422,112.2346],[26.7375,56.5378,109.8677],[26.7294,56.5382,123.6423],[26.731,56.5472,109.6299],[26.6824,56.5499,108.9656],[26.6816,56.5454,108.525],[26.6329,56.5481,110.4411],[26.6306,56.5347,112.6506],[26.6225,56.5351,114.4074],[26.6209,56.5262,120.4258],[26.6128,56.5266,112.5959],[26.6088,56.5043,116.2953],[26.6169,56.5038,109.023],[26.6177,56.5083,107.4015],[26.6258,56.5079,121.7328],[26.6234,56.4944,105.4019],[26.5668,56.4976,112.207],[26.566,56.4931,111.5553],[26.5579,56.4935,110.9822],[26.5594,56.5025,110.796],[26.5189,56.5047,111.6257],[26.5197,56.5091,109.9622],[26.4873,56.5109,110.4566],[26.4865,56.5064,120.4977],[26.4784,56.5068,129.1464],[26.4777,56.5024,117.9502],[26.4696,56.5028,119.0473],[26.468,56.4939,110.5886],[26.4599,56.4943,107.8546],[26.4584,56.4854,105.8242],[26.4503,56.4858,110.7975],[26.4495,56.4813,105.4418],[26.4333,56.4822,112.8191],[26.4325,56.4777,114.9981],[26.4244,56.4782,114.7746],[26.4237,56.4737,115.5724],[26.4156,56.4741,115.9229],[26.4148,56.4696,110.6289],[26.4067,56.4701,119.3353],[26.406,56.4656,119.1952],[26.3979,56.466,122.127],[26.3971,56.4616,107.0521],[26.3728,56.4628,110.5681],[26.3759,56.4807,98.0908],[26.3678,56.4812,98.1095],[26.3685,56.4856,100.451],[26.3604,56.4861,102.6097],[26.3612,56.4905,104.5606],[26.3531,56.491,99.4365],[26.3539,56.4954,99.4077],[26.3458,56.4959,107.4073],[26.3465,56.5003,104.1882],[26.3303,56.5012,100.1191],[26.3311,56.5057,98.0977],[26.323,56.5061,104.9313],[26.3252,56.5195,113.4122],[26.3171,56.5199,96.5625],[26.3179,56.5244,102.9387],[26.3017,56.5252,92.9798],[26.3024,56.5297,93.7405],[26.2781,56.531,95.8111],[26.2751,56.5131,94.2831],[26.267,56.5135,91.829],[26.2662,56.509,92.0722],[26.25,56.5099,91.6793],[26.2493,56.5054,91.4909],[26.2412,56.5058,93.994],[26.239,56.4924,90.6184],[26.2227,56.4933,90.928],[26.2213,56.4843,89.3564],[26.2132,56.4847,88.8891],[26.2124,56.4803,89.9858],[26.2043,56.4807,88.0157],[26.2021,56.4673,106.9118],[26.194,56.4677,100.1632],[26.1925,56.4587,86.4684],[26.1844,56.4591,86.5685],[26.183,56.4502,89.3588],[26.1749,56.4506,87.8516],[26.1734,56.4417,92.1678],[26.1653,56.4421,88.6465],[26.1638,56.4331,97.5114],[26.1396,56.4344,89.325],[26.1388,56.4299,92.9759],[26.1307,56.4303,99.7713],[26.13,56.4258,103.8675],[26.1138,56.4267,94.5242],[26.1131,56.4222,99.1499],[26.105,56.4226,99.0408],[26.1043,56.4181,98.7415],[26.0962,56.4185,91.5779],[26.0948,56.4096,89.9264],[26.1109,56.4088,96.8007],[26.1087,56.3954,100.2981],[26.1249,56.3945,80.0],[26.1242,56.3901,94.3013],[26.1322,56.3896,91.5303],[26.1315,56.3852,90.6389],[26.1477,56.3843,80.7563],[26.1447,56.3665,96.0723],[26.1528,56.366,87.3095],[26.1499,56.3481,91.1447],[26.158,56.3477,90.4252],[26.1558,56.3343,91.6387],[26.1638,56.3339,87.3911],[26.1609,56.316,102.6271],[26.169,56.3156,87.8801],[26.166,56.2977,96.3934],[26.1741,56.2973,90.7321],[26.1726,56.2883,95.8896],[26.1807,56.2879,87.5956],[26.1792,56.279,92.3598],[26.1953,56.2781,92.7072],[26.1946,56.2737,91.6658],[26.1865,56.2741,92.0105],[26.1851,56.2651,91.4731],[26.177,56.2656,96.1183],[26.1763,56.2611,100.1743],[26.1682,56.2615,96.2868],[26.1646,56.2391,99.787],[26.1726,56.2387,86.8792],[26.1719,56.2342,96.573],[26.1799,56.2338,82.9393],[26.1792,56.2294,93.7282],[26.1873,56.2289,82.0],[26.1865,56.2245,94.1656],[26.2187,56.2228,90.8302],[26.218,56.2183,82.0],[26.2341,56.2175,86.2683],[26.2333,56.213,88.7564],[26.2494,56.2122,91.0596],[26.2487,56.2077,89.6601],[26.2647,56.2069,87.4587],[26.2625,56.1934,92.2598],[26.2706,56.193,89.5586],[26.2698,56.1886,97.2846],[26.2859,56.1877,89.6072],[26.2866,56.1922,90.3839],[26.3027,56.1913,110.8957],[26.3034,56.1958,101.7205],[26.3195,56.195,113.2949],[26.3203,56.1994,123.133],[26.3363,56.1986,121.2027],[26.3371,56.2031,114.6842],[26.3451,56.2026,103.7691],[26.3459,56.2071,99.0],[26.3539,56.2067,102.2482],[26.3547,56.2111,100.6724],[26.3627,56.2107,99.8454],[26.3635,56.2152,98.8183],[26.3795,56.2143,97.1096],[26.3788,56.2099,101.4321],[26.3868,56.2094,97.4379],[26.3861,56.205,101.9668],[26.4021,56.2041,106.9481],[26.4006,56.1952,112.3797],[26.4087,56.1947,101.6359],[26.4079,56.1903,108.9362],[26.4159,56.1898,102.2152],[26.4152,56.1854,101.716],[26.4312,56.1845,101.9453],[26.432,56.189,101.9504],[26.44,56.1885,111.9257],[26.4408,56.193,103.3692],[26.4488,56.1926,100.1165],[26.4496,56.197,99.9186],[26.4576,56.1966,100.6627],[26.4584,56.2011,102.5989],[26.4664,56.2006,103.7369],[26.4649,56.1917,100.8011],[26.481,56.1908,105.5736],[26.4802,56.1864,105.3927],[26.4882,56.1859,105.6937],[26.4875,56.1815,104.2869],[26.4955,56.181,104.3394],[26.4947,56.1765,101.3047],[26.5028,56.1761,101.189],[26.5005,56.1627,106.232],[26.5085,56.1623,114.8234],[26.5054,56.1444,105.0633],[26.5134,56.1439,107.7645],[26.5127,56.1395,102.1629],[26.5207,56.139,93.5],[26.5199,56.1346,93.5],[26.5279,56.1341,97.0925],[26.5287,56.1386,100.4371],[26.5608,56.1368,114.0776],[26.5616,56.1413,112.696],[26.5535,56.1417,126.596],[26.5551,56.1507,117.2581],[26.5471,56.1511,110.8312],[26.5502,56.169,105.4618],[26.5509,56.1735,103.6496],[26.559,56.173,103.4986],[26.5597,56.1775,105.3914],[26.5678,56.1771,101.6227],[26.567,56.1726,103.2319],[26.575,56.1722,101.6056],[26.5742,56.1677,103.7106],[26.5823,56.1672,102.487],[26.5799,56.1538,107.2465],[26.588,56.1534,102.3567],[26.5864,56.1445,102.9043],[26.6185,56.1427,105.6852],[26.6177,56.1382,103.2534],[26.6257,56.1378,107.1692],[26.625,56.1333,104.1435],[26.633,56.1328,103.6581],[26.6338,56.1373,109.5825],[26.6418,56.1369,106.4987],[26.6434,56.1458,103.3296],[26.6995,56.1427,99.8684],[26.6971,56.1293,98.3824],[26.7052,56.1288,99.2563],[26.7036,56.1199,102.6425],[26.7116,56.1194,103.268],[26.7108,56.115,113.857],[26.7188,56.1145,106.6238],[26.7196,56.119,104.315],[26.7757,56.1158,143.4878],[26.7765,56.1203,146.9998],[26.7845,56.1198,145.4403],[26.7853,56.1243,150.6352],[26.7933,56.1238,148.8336],[26.7941,56.1283,142.1549],[26.8022,56.1278,141.9339],[26.803,56.1323,138.8451],[26.811,56.1319,141.8482],[26.8118,56.1363,145.0457],[26.8198,56.1359,149.1662],[26.8214,56.1448,144.5395],[26.8375,56.1439,153.5969],[26.8367,56.1394,147.5712],[26.8447,56.139,150.0444],[26.8439,56.1345,152.1356],[26.8519,56.134,153.2063],[26.8511,56.1296,153.2596],[26.8591,56.1291,157.2714],[26.8607,56.138,163.3891],[26.9008,56.1357,170.8492],[26.8975,56.1178,174.1187],[26.8895,56.1183,159.687],[26.8887,56.1138,160.0303],[26.9047,56.1129,159.3276],[26.9039,56.1084,158.7506],[26.9119,56.108,164.5778],[26.9111,56.1035,147.8747],[26.9191,56.1031,152.7545],[26.9175,56.0941,146.8324],[26.9255,56.0937,143.1351],[26.9239,56.0847,149.1431],[26.9319,56.0843,153.6903],[26.9311,56.0798,158.5305],[26.9391,56.0793,166.2049],[26.9374,56.0704,156.8082],[26.9775,56.068,152.6239],[26.9766,56.0636,159.8198]]]]}}