{"type":"Feature","properties":{"ISO3166-1-Alpha-3":"LVA","country":"Latvia","fill":"#F00","id":"5782","name":"Apes"},
"geometry":{"type": "Polygon","coordinates": [[[26.43068,57.56176,69.1246],[26.35133,57.5802,57.6193],[26.35263,57.57623,57.2695],[26.35698,57.5707,57.5049],[26.35217,57.56088,68.2896],[26.34566,57.55191,70.9255],[26.34411,57.54238,65.2455],[26.34116,57.53778,64.2655],[26.34426,57.53323,72.2292],[26.34984,57.52967,74.4815],[26.3545,57.52282,83.5955],[26.36256,57.51985,84.8906],[26.36287,57.51564,89.2448],[26.36178,57.51282,88.2988],[26.3115,57.49933,79.6056],[26.31104,57.46977,98.1778],[26.32597,57.4676,82.3331],[26.31274,57.45866,80.4137],[26.30452,57.45536,86.9368],[26.29615,57.45001,84.8487],[26.29352,57.4427,88.4463],[26.3008,57.43897,88.6468],[26.30855,57.43616,85.0309],[26.31507,57.43314,90.1865],[26.31894,57.429,95.6956],[26.32049,57.42378,88.5096],[26.31507,57.4181,94.0351],[26.31274,57.40973,104.8934],[26.30979,57.40221,115.8058],[26.30282,57.39614,95.5903],[26.2991,57.38947,111.2774],[26.30142,57.37983,109.8591],[26.30204,57.37484,111.0295],[26.28623,57.36583,114.7094],[26.27755,57.36472,105.2327],[26.27615,57.33102,116.8687],[26.35946,57.32255,121.7882],[26.42353,57.33216,105.9142],[26.43005,57.3397,89.3548],[26.43005,57.34601,89.4126],[26.42415,57.34699,97.8189],[26.41113,57.34286,94.5486],[26.40447,57.34224,92.5046],[26.39904,57.34402,92.8698],[26.3947,57.34715,103.0588],[26.39392,57.35071,97.0952],[26.39702,57.35428,101.1426],[26.42105,57.35795,101.9645],[26.43315,57.36141,97.1675],[26.44684,57.36916,100.2057],[26.47475,57.37505,98.5645],[26.47924,57.38239,81.4368],[26.48064,57.3874,91.9704],[26.47583,57.40508,89.0649],[26.52022,57.40647,88.3305],[26.5258,57.40187,91.6449],[26.53107,57.39887,89.8927],[26.54441,57.39562,109.0864],[26.56771,57.39743,105.764],[26.59422,57.3913,127.7261],[26.61462,57.41942,110.7327],[26.64424,57.41714,103.6133],[26.68753,57.41714,120.5501],[26.70348,57.42397,104.3646],[26.71487,57.46498,99.772],[26.7217,57.49005,107.0586],[26.75816,57.50372,113.5563],[26.80828,57.50372,117.7113],[26.80828,57.51967,120.5821],[26.806,57.55384,116.9736],[26.79576,57.57132,133.3125],[26.77809,57.56848,124.9544],[26.70047,57.57075,106.4006],[26.66698,57.56486,79.9406],[26.63432,57.55442,109.1109],[26.60476,57.54031,95.2153],[26.59836,57.53385,93.579],[26.59484,57.52649,89.1853],[26.59009,57.52037,86.6041],[26.57986,57.517829999999996,103.0893],[26.57024,57.51959,100.0709],[26.55174,57.52683,94.625],[26.54223,57.52817,86.3202],[26.5287,57.52388,84.7938],[26.51505,57.51727,90.9082],[26.49955,57.51582,93.1978],[26.48105,57.52714,95.5637],[26.44756,57.55292,73.5252],[26.43092,57.56171,69.1246],[26.43068,57.56176,69.1246]]]}}