{"type":"Feature","properties":{"ISO3166-1-Alpha-3":"LVA","country":"Latvia","fill":"#F00","id":"5754","name":"Ādaži"},
"geometry":{"type": "Polygon","coordinates": [[[24.37245,57.18244,21.231],[24.34881,57.18383,-0.0996],[24.34185,57.16297,16.6194],[24.33768,57.1282,24.941],[24.32099,57.1129,2.4668],[24.26537,57.099,1.907],[24.25841,57.07535,10.826],[24.24729,57.06006,18.4226],[24.26119,57.04198,28.527],[24.2904,57.03085,0.0],[24.32099,57.02807,16.9569],[24.36271,57.05728,26.8472],[24.40722,57.06145,24.0345],[24.45867,57.07257,23.7458],[24.50178,57.09482,15.3447],[24.50873,57.10595,11.8489],[24.46701,57.18244,20.3121],[24.42529,57.18105,17.1368],[24.3947,57.17827,10.1265],[24.37245,57.18244,21.231]]]}}