{"type": "Feature","id": "5767","bbox": [23.99634,56.70998,24.5376,56.90239],"geometry": {"type": "Polygon","coordinates": [[[24.197,56.88206,1.7893],[24.1554,56.90239,2.3635],[24.13272,56.89836,13.3442],[24.11225,56.89263,16.8587],[24.10404,56.88361,12.629],[24.09939,56.87849,11.303],[24.08815,56.87613,12.3679],[24.09099,56.84609,10.7334],[24.1035,56.83536,20.6258],[24.12317,56.82106,27.1146],[24.11423,56.80139,16.6455],[24.08741,56.77994,7.809],[24.08562,56.76206,6.9185],[24.03556,56.76742,7.0073],[24.00517,56.76206,10.3121],[24.00436,56.73765,13.102],[23.99634,56.73049,13.1857],[23.9982,56.7216,15.8492],[24.00813,56.70998,6.0693],[24.03556,56.72094,8.1375],[24.14558,56.72821,13.9361],[24.18817,56.71794,39.6704],[24.19468,56.7406,31.0382],[24.22865,56.75133,24.9559],[24.25368,56.73882,21.0537],[24.26977,56.74597,13.0519],[24.26262,56.76206,35.0979],[24.25368,56.7853,36.9808],[24.2948,56.78888,17.0534],[24.34665,56.78709,21.6937],[24.41459,56.77636,59.937],[24.46643,56.76385,35.9777],[24.52546,56.7524,42.8353],[24.53311,56.75922,39.6043],[24.5376,56.77039,30.8809],[24.53698,56.77749,41.5852],[24.52298,56.79529,48.6091],[24.5127,56.8171,19.3587],[24.50531,56.81852,17.4398],[24.47585,56.83222,15.5125],[24.45776,56.83754,15.0],[24.45218,56.83793,15.0],[24.44402,56.83767,15.0],[24.42037,56.83983,16.2758],[24.38624,56.84211,19.8417],[24.34199,56.85114,18.5593],[24.31089,56.82463,13.5529],[24.25904,56.82463,10.2003],[24.21792,56.82821,9.6314],[24.18932,56.85145,10.4763],[24.1768,56.86754,19.0969],[24.197,56.88206,1.7893]]]}
,"properties": {"ISO3166-1-Alpha-3": "LVA","country": "Latvia","fill": "#FF0","name": "Kekavas","area_km2": 278.9986,"hist_schema_id": "Elevation0-9000","hist_area_km2": {"0": 62.906,"25": 170.9074,"50": 44.9646,"75": 0.2207}}}