{"type":"Feature","properties":{"featurecla":"River","scalerank":5,"rivernum":182,"dissolve":"182River","name":"Daugava3","name_alt":"Zapadnaya Dvina","note":null,"min_zoom":4.7,"strokeweig":0.3,"name_en":"Zapadnaya Dvina","min_label":5.7},
"geometry":{"type": "LineString","coordinates": [[27.349023437500023,55.83148834843162,102.2736],[27.3140625,55.85468170780662,121.2512],[27.293359375000023,55.86298248905662,117.9791],[27.270263671875,55.86627838749412,137.1316],[27.200292968750006,55.85980866093162,124.5221],[27.177734375,55.86627838749412,135.6071],[27.1689453125,55.872821356244117,97.726],[27.15380859375,55.88800690311912,153.8805],[27.14306640625,55.89288971561912,93.5],[27.131591796875,55.89240143436912,134.5912],[27.120849609375,55.88776276249412,154.9703],[27.11181640625,55.882440496869116,144.7861],[27.10546875,55.879901434369117,134.0597],[27.093505859375,55.88190338749412,125.4249],[27.073486328125,55.89093659061912,145.6001],[27.0595703125,55.89411041874412,99.161],[27.050390625,55.89923737186912,143.3011],[27.044335937500023,55.90033600468162,149.2208],[27.038476562500023,55.89826080936912,159.3104],[27.033203125,55.89362213749412,138.1392],[27.026953125,55.886737371869117,165.7321],[26.98583984375,55.88068268436912,166.4413],[26.941308593750023,55.879901434369117,134.1614],[26.921777343750023,55.886981512494117,131.3599],[26.919677734375,55.91657135624412,117.0037],[26.903417968750006,55.92084381718162,125.3526],[26.8921875,55.916278387494117,104.0221],[26.878808593750023,55.899286199994116,100.1495],[26.869238281250006,55.89288971561912,125.1795],[26.857519531250006,55.89191315311912,135.485],[26.846435546875,55.89472077030662,140.3064],[26.83203125,55.90033600468162,107.9513],[26.821875,55.90265534061912,132.0863],[26.80224609375,55.91242096561912,98.0389],[26.790429687500023,55.91461823124412,121.9493],[26.781005859375,55.91058991093162,127.649],[26.7671875,55.89215729374412,148.0576],[26.759375,55.886737371869117,134.4724],[26.736230468750023,55.88776276249412,105.4417],[26.724853515625,55.89960358280662,85.5],[26.717187500000023,55.915399481244116,95.8293],[26.704833984375,55.92829010624412,135.9096],[26.689697265625,55.922137762494117,129.5594],[26.658203125,55.91437409061912,125.4014],[26.643310546875,55.90717194218162,141.1768],[26.631933593750006,55.89740631718162,132.0676],[26.624902343750023,55.88886139530662,146.2777],[26.61669921875,55.88117096561912,137.5896],[26.601806640625,55.87372467655662,115.9278],[26.585058593750006,55.86859772343162,98.6367],[26.565673828125,55.86493561405662,94.1539],[26.545654296875,55.86383698124412,93.8192],[26.526562500000011,55.86627838749412,95.9844],[26.514062500000023,55.87128327030662,96.3856],[26.485742187500023,55.89288971561912,94.7031],[26.449316406250006,55.90570709843162,83.5],[26.437890625000023,55.91461823124412,84.4994],[26.430761718750006,55.92450592655662,85.1783],[26.420166015625,55.94452545780662,85.7293],[26.3765625,55.99774811405662,100.1498],[26.365478515625,56.02167389530662,89.5887],[26.36962890625,56.03754303593162,99.3444],[26.36962890625,56.04376862186912,96.7371],[26.35703125,56.055438543744117,89.0063],[26.348388671875,56.07318756718162,89.2012],[26.34326171875,56.094256903119117,89.2521],[26.340576171875,56.13410065311912,100.1933],[26.33642578125,56.149286199994116,98.0392],[26.328027343750023,56.16254303593162,89.4756],[26.264062500000023,56.21063873905662,97.7757],[26.249267578125,56.216327215619117,102.1674],[26.239013671875,56.217303778119117,98.4246],[26.219140625000023,56.22150299686912,89.9023],[26.207910156250023,56.22247955936912,88.6945],[26.193261718750023,56.22589752811912,86.8625],[26.188867187500023,56.23456452030662,92.0043],[26.19091796875,56.25726959843162,88.9741],[26.192285156250023,56.262469793744117,86.0404],[26.195068359375,56.26862213749412,89.6843],[26.197509765625,56.27570221561912,86.0084],[26.19775390625,56.283954168744117,98.8575],[26.196044921875,56.28314850468162,97.8516],[26.191503906250006,56.28522369999412,93.0681],[26.186718750000011,56.28839752811912,84.1496],[26.18408203125,56.290790106244117,88.5331],[26.183007812500023,56.295917059369117,88.9444],[26.18408203125,56.315301824994116,98.9428],[26.180908203125,56.32062409061912,92.7717],[26.166748046875,56.337030340619116,81.0],[26.16357421875,56.342303778119117,81.0],[26.16259765625,56.363153387494116,82.9054],[26.16064453125,56.37213776249412,88.8],[26.15673828125,56.38019440311912,85.5349],[26.14453125,56.38910553593162,86.7345],[26.09912109375,56.41022369999412,110.2892],[26.084716796875,56.414325262494117,88.1625],[26.080322265625,56.41791412968162,92.9685],[26.0640625,56.43683502811912,90.2385],[26.060546875,56.445331121869117,79.0],[26.055273437500006,56.45136139530662,87.9407],[26.043212890625,56.45612213749412,85.8598],[25.8765625,56.49530670780662,86.7312],[25.826416015625,56.52716705936912,94.0673],[25.799707031250023,56.527704168744116,79.9502],[25.786865234375,56.53034088749412,74.0492],[25.769238281250011,56.55414459843162,98.6742],[25.748046875,56.56635162968162,78.9297],[25.760351562500006,56.60553619999412,69.5],[25.753320312500023,56.620379949994117,78.6744],[25.711035156250006,56.60565827030662,76.6662],[25.688232421875,56.60065338749412,69.5],[25.646484375,56.59625885624412,71.1834],[25.601171875,56.57880280155662,73.8436],[25.579199218750006,56.57611725468162,89.7274],[25.509033203125,56.57880280155662,98.7383],[25.495849609375,56.581903387494116,79.0958],[25.493554687500023,56.58905670780662,84.523],[25.498779296875,56.60236237186912,69.5],[25.495507812500023,56.611835028119117,74.2125],[25.487207031250023,56.61347077030662,71.345],[25.476171875,56.61225006718162,69.5],[25.464746093750023,56.612909246869116,90.6418],[25.423095703125,56.627313543744116,91.800299999999993],[25.3984375,56.630731512494116,69.5],[25.379003906250006,56.62348053593162,94.1311],[25.36669921875,56.614374090619116,85.1409],[25.330175781250006,56.59760162968162,76.1182],[25.313867187500023,56.593036199994117,68.0],[25.2353515625,56.58563873905662,32.0],[25.21533203125,56.588885809369117,35.2883],[25.1630859375,56.612909246869116,41.1651],[25.118066406250023,56.624383856244116,36.3362],[25.03125,56.617792059369116,44.9236],[24.99169921875,56.620379949994117,82.8798],[24.938085937500006,56.638202215619117,38.4605],[24.919677734375,56.64020416874412,32.38],[24.905175781250023,56.64765045780662,38.0983],[24.8681640625,56.695428778119116,31.0],[24.834570312500006,56.70880768436912,31.0],[24.75625,56.72321198124412,31.4022],[24.724853515625,56.736444403119116,31.0],[24.7041015625,56.753045965619116,36.2143],[24.697509765625,56.75690338749412,22.2943],[24.661035156250023,56.763299871869116,17.0],[24.65283203125,56.76752350468162,23.2291],[24.645751953125,56.77313873905662,22.5727],[24.625390625000023,56.78314850468162,17.0],[24.618408203125,56.78485748905662,17.0],[24.59619140625,56.806415106244117,16.5],[24.587646484375,56.81220123905662,18.2564],[24.56591796875,56.816424871869117,16.5],[24.525537109375023,56.81427643436912,17.7807],[24.505126953125,56.81842682499412,17.4398],[24.4755859375,56.83209869999412,15.5125],[24.45751953125,56.83734772343162,15.0],[24.38623046875,56.84210846561912,19.8417],[24.298242187500023,56.86005280155662,20.8781],[24.258691406250023,56.87299225468162,10.2758],[24.1376953125,56.94391510624412,15.5729],[24.1181640625,56.948749090619117,8.3153],[24.105126953125023,56.956805731244117,12.1796],[24.097900390625,56.97565338749412,2.7286],[24.094140625000023,57.01386139530662,0.0],[24.089257812500023,57.032342840619116,4.0467],[24.076904296875,57.04682037968162,3.0709],[24.050048828125,57.07099030155662,0.0]]}}