{"type": "Feature","id": "5795","bbox": [25.5099,57.47642,25.98905,57.75236],"geometry": {"type": "Polygon","coordinates": [[[25.89625,57.53014,59.0697],[25.88893,57.54968,56.7781],[25.90358,57.56922,71.5603],[25.90114,57.58875,66.685],[25.87672,57.6034,53.9731],[25.93288,57.60829,63.0526],[25.95974,57.6205,54.3102],[25.97928,57.6498,46.2832],[25.98905,57.67177,62.7092],[25.85963,57.68398,65.2728],[25.85718,57.70352,72.1185],[25.82788,57.70596,65.0324],[25.84742,57.75236,53.9076],[25.73509,57.73038,53.5748],[25.68866,57.73767,53.9245],[25.67143,57.72045,52.5968],[25.62133,57.71888,59.5356],[25.61194,57.70792,63.892],[25.60098,57.69696,61.4522],[25.60098,57.66878,71.5731],[25.5302,57.65906,62.1033],[25.5099,57.6462,72.981],[25.5333,57.62945,62.6443],[25.57102,57.61946,53.2679],[25.59123,57.61411,46.479],[25.63073,57.62024,50.1193],[25.66361,57.61868,39.7864],[25.69492,57.61555,59.6055],[25.70744,57.60302,56.4842],[25.72467,57.58893,72.5278],[25.71058,57.57641,70.2294],[25.72936,57.57014,59.6724],[25.75285,57.57014,58.1277],[25.7826,57.55292,77.8405],[25.77164,57.54822,70.4984],[25.73406,57.54666,77.2146],[25.74345,57.53413,59.9226],[25.77901,57.5298,64.9581],[25.80921,57.53726,66.5519],[25.82174,57.52474,62.9021],[25.77633,57.49969,63.147],[25.83521,57.49352,73.1181],[25.89625,57.48619,76.6694],[25.93532,57.47642,65.6301],[25.95974,57.49596,69.7385],[25.95974,57.51549,63.5693],[25.94509,57.53014,63.9646],[25.89625,57.53014,59.0697]]]}
,"properties": {"ISO3166-1-Alpha-3": "LVA","country": "Latvia","fill": "#FF0","name": "Strencu","area_km2": 397.4957,"hist_schema_id": "Elevation0-9000","hist_area_km2": {"25": 0.9538,"50": 226.3116,"75": 168.4798,"100": 1.7505}}}