{"type": "Feature","id": "1068","bbox": [21.94557,56.34909,22.8596,56.92009],"geometry": {"type": "Polygon","coordinates": [[[22.49085,56.85152,94.7949],[22.50047,56.86299,96.652],[22.50656,56.86749,93.0625],[22.51463,56.87198,91.1967],[22.51897,56.87684,93.8074],[22.52114,56.88464,92.8513],[22.52098,56.9003,95.0305],[22.52439,56.90511,96.5378],[22.5292,56.90877,101.2907],[22.52656,56.91296,92.9009],[22.51194,56.9174,99.6476],[22.49241,56.92009,105.5817],[22.45489,56.91709,114.3767],[22.44336,56.90356,116.9574],[22.43236,56.89854,97.7005],[22.41778,56.88934,102.6878],[22.39231,56.88588,90.5388],[22.34874,56.89642,87.2168],[22.33815,56.90407,83.4401],[22.33851,56.90803,88.7702],[22.33567,56.91301,80.5957],[22.32838,56.91684,78.937],[22.30435,56.91973,70.4117],[22.29025,56.91007,80.9713],[22.28787,56.90578,71.9342],[22.26741,56.89854,77.7967],[22.264,56.89394,59.5469],[22.26973,56.88805,55.6725],[22.28787,56.88309,59.6539],[22.29552,56.8833,68.7884],[22.30389,56.88451,70.2128],[22.31056,56.88376,64.3169],[22.32032,56.8804,79.5151],[22.32947,56.87477,93.077],[22.34203,56.86423,90.2198],[22.3413,56.84749,108.7746],[22.3166,56.84366,83.8799],[22.30575,56.83862,80.5075],[22.26973,56.82971,70.0028],[22.25113,56.8231,62.8709],[22.2303,56.80907,66.3483],[22.20488,56.79522,61.3772],[22.16266,56.79503,56.4003],[22.17449,56.76589,56.9014],[22.18596,56.74811,71.9459],[22.18922,56.74176,56.1778],[22.18891,56.73566,69.5486],[22.181,56.72853,63.6449],[22.17398,56.71597,56.211],[22.167,56.70822,65.8975],[22.15599,56.70031,66.6759],[22.12545,56.69013,63.6744],[22.11222,56.68295,45.7601],[22.10354,56.67287,67.7058],[22.11145,56.64667,51.7239],[22.11191,56.62569,55.3355],[22.10928,56.61362,59.5101],[22.11253,56.60952,56.4801],[22.11537,56.60381,60.5172],[22.11858,56.59236,66.1721],[22.12344,56.58763,78.2024],[22.12607,56.58221,82.7719],[22.12127,56.57634,80.5909],[22.09997,56.56854,77.7356],[22.0606,56.56451,80.2881],[22.0114,56.55505,39.3004],[22.01171,56.5475,37.5447],[22.01822,56.5426,69.1347],[22.04907,56.52906,61.1769],[22.05744,56.52327,48.5393],[22.05605,56.50906,60.1107],[22.03745,56.50404,81.2279],[22.02427,56.50746,83.5473],[22.0097,56.50797,75.2462],[21.99786,56.50593,87.4577],[21.9667,56.50663,85.3188],[21.95647,56.49361,98.0025],[21.95399,56.48782,97.8398],[21.95755,56.48084,97.0928],[21.95461,56.47064,102.359],[21.98949,56.44612,119.2741],[21.99538,56.43932,113.2775],[21.98778,56.43252,108.7686],[21.97693,56.42911,126.3686],[21.96158,56.42627,120.8363],[21.95135,56.42113,133.9546],[21.94557,56.41671,131.0737],[21.98081,56.39036,105.0616],[21.98267,56.38878,108.626],[21.98317,56.38835,105.1429],[22.09408,56.41741,76.1742],[22.13914,56.4157,62.4002],[22.15816,56.41025,68.8438],[22.19526,56.39485,67.291],[22.2149,56.39038,67.1333],[22.51173,56.39596,69.1992],[22.57581,56.38772,67.055],[22.57822,56.387,73.1277],[22.60475,56.37909,76.1306],[22.64909,56.3531,76.8404],[22.66635,56.34909,75.0245],[22.68144,56.35031,81.2716],[22.82293,56.38286,92.554],[22.8596,56.39707,92.3493],[22.85853,56.39723,90.0433],[22.82184,56.40271,92.563],[22.78598,56.41842,92.7167],[22.76753,56.42183,98.2584],[22.72655,56.42454,105.029],[22.73663,56.44379,100.2917],[22.74288,56.44927,100.337],[22.74815,56.4557,100.2337],[22.7449,56.46813,99.8013],[22.74133,56.47544,105.5633],[22.70144,56.4933,108.779],[22.71207,56.56537,130.1199],[22.69372,56.58823,120.3689],[22.65486,56.60423,140.5479],[22.60456,56.59966,122.8455],[22.57484,56.56765,131.4603],[22.54969,56.57908,136.1142],[22.53597,56.62023,140.1786],[22.50168,56.63852,117.8281],[22.4971,56.68425,106.1629],[22.48796,56.72312,124.431],[22.46052,56.73683,121.8522],[22.44223,56.77113,146.7799],[22.46281,56.80542,108.9362],[22.49085,56.85152,94.7949]]]}
,"properties": {"ISO3166-1-Alpha-3": "LVA","country": "Latvia","fill": "#F00","name": "Saldus","area_km2": 1644.29,"hist_schema_id": "Elevation0-9000","hist_area_km2": {"25": 1.171,"50": 85.114,"75": 698.606,"100": 648.533,"125": 199.446,"150": 11.421}}}