{"type": "Feature","bbox": [21.9437,56.3538,22.9297,56.9374],"geometry": {"type": "MultiPolygon","coordinates": [[[[21.9695,56.5161,79.7338],[21.9693,56.5116,73.9828],[21.9611,56.5117,87.5138],[21.9607,56.5027,82.1232],[21.9525,56.5029,100.1536],[21.9521,56.4939,96.8734],[21.9439,56.494,87.6819],[21.9437,56.4895,95.7202],[21.96,56.4893,99.8421],[21.9595,56.4803,99.2522],[21.9514,56.4804,110.2773],[21.9511,56.4759,117.7285],[21.9593,56.4758,103.9892],[21.959,56.4713,104.4239],[21.9672,56.4711,109.8981],[21.9669,56.4667,116.3663],[21.975,56.4665,120.5191],[21.9748,56.462,116.9763],[21.9992,56.4616,111.2108],[21.9989,56.4571,117.3071],[22.0071,56.457,106.4466],[22.0068,56.4525,113.3245],[22.0149,56.4524,103.0986],[22.0147,56.4479,109.0435],[22.0228,56.4478,112.9418],[22.0223,56.4388,95.0684],[22.0305,56.4386,90.435],[22.03,56.4297,93.4635],[22.0381,56.4295,94.6505],[22.0378,56.425,89.1046],[22.046,56.4249,86.3142],[22.0455,56.4159,91.8796],[22.0617,56.4156,80.4116],[22.0619,56.4201,74.8539],[22.0863,56.4197,73.1649],[22.0865,56.4242,71.5349],[22.1271,56.4235,64.7932],[22.1273,56.428,67.3086],[22.1517,56.4275,64.8965],[22.1514,56.423,66.6478],[22.1758,56.4226,65.5235],[22.1755,56.4181,70.8602],[22.2161,56.4174,43.4355],[22.2158,56.4129,43.089],[22.2239,56.4127,57.4494],[22.2237,56.4083,45.0063],[22.2399,56.408,60.6686],[22.2396,56.4035,50.9551],[22.2639,56.403,53.3044],[22.2642,56.4075,61.5832],[22.2885,56.407,64.5311],[22.2888,56.4115,64.1602],[22.3212,56.4109,67.4629],[22.321,56.4064,54.5271],[22.3291,56.4063,68.1996],[22.3288,56.4018,57.9414],[22.3369,56.4016,64.4403],[22.3366,56.3971,67.6235],[22.3609,56.3966,67.8374],[22.3612,56.4011,56.8236],[22.3774,56.4008,58.5308],[22.3777,56.4053,61.9545],[22.4021,56.4048,62.9821],[22.4023,56.4093,63.6216],[22.4429,56.4085,71.7274],[22.4426,56.404,64.1082],[22.4912,56.403,68.6915],[22.4909,56.3985,61.3071],[22.5072,56.3982,69.0868],[22.5069,56.3937,70.9498],[22.5879,56.392,77.2178],[22.5876,56.3875,73.2227],[22.5957,56.3873,89.0939],[22.5954,56.3828,66.8469],[22.6197,56.3823,72.8863],[22.6194,56.3778,74.8939],[22.6356,56.3775,73.5261],[22.6347,56.364,74.2135],[22.6752,56.3631,77.2451],[22.6748,56.3586,76.146],[22.6829,56.3584,77.4476],[22.6826,56.3539,75.0715],[22.6907,56.3538,77.2289],[22.691,56.3582,75.0114],[22.7072,56.3579,76.3868],[22.7075,56.3624,70.6044],[22.7156,56.3622,76.0638],[22.716,56.3667,70.4039],[22.7241,56.3665,75.2764],[22.7244,56.371,73.3898],[22.7325,56.3708,74.2832],[22.7328,56.3753,75.3208],[22.7409,56.3751,74.7165],[22.7406,56.3706,73.8833],[22.773,56.3699,78.1127],[22.7727,56.3654,77.5215],[22.7808,56.3652,78.3203],[22.7811,56.3697,78.2593],[22.854,56.368,77.0844],[22.8543,56.3725,78.5784],[22.8867,56.3717,79.4193],[22.8871,56.3762,78.4462],[22.9114,56.3756,83.3546],[22.9117,56.3801,79.1944],[22.9198,56.3799,78.5886],[22.9202,56.3844,81.3618],[22.9283,56.3842,80.0516],[22.9297,56.4021,83.875],[22.8972,56.4029,82.0793],[22.8969,56.3984,81.6703],[22.8888,56.3986,84.681],[22.8884,56.3941,83.3437],[22.8803,56.3943,82.0256],[22.8807,56.3988,85.6958],[22.8645,56.3992,81.8478],[22.8648,56.4037,84.1606],[22.8243,56.4047,92.6885],[22.8246,56.4092,85.1867],[22.8165,56.4093,88.3334],[22.8168,56.4138,87.6606],[22.8087,56.414,88.5007],[22.8091,56.4185,87.2962],[22.7928,56.4189,88.8601],[22.7932,56.4234,89.5631],[22.7688,56.4239,95.7256],[22.7692,56.4284,101.2728],[22.7611,56.4286,100.3479],[22.7607,56.4241,95.8973],[22.7364,56.4247,105.2378],[22.7384,56.4516,93.605],[22.7546,56.4512,99.4535],[22.7553,56.4602,101.2037],[22.7471,56.4604,99.5651],[22.7475,56.4649,101.1042],[22.7556,56.4647,101.9297],[22.7562,56.4737,97.1647],[22.7644,56.4735,102.7092],[22.7647,56.478,108.7492],[22.7566,56.4782,100.266],[22.7569,56.4827,109.2318],[22.7488,56.4829,102.5009],[22.7491,56.4873,102.6682],[22.7166,56.4881,107.6953],[22.7173,56.4971,106.3972],[22.6929,56.4976,110.5271],[22.6932,56.5021,106.6051],[22.6851,56.5023,120.5103],[22.6848,56.4978,123.3531],[22.6766,56.498,101.3893],[22.6769,56.5025,118.7549],[22.6363,56.5034,118.7533],[22.6366,56.5078,107.5051],[22.6285,56.508,122.3059],[22.6288,56.5125,114.3891],[22.5963,56.5132,113.7094],[22.5969,56.5222,125.6028],[22.6213,56.5217,115.6186],[22.6226,56.5396,110.299],[22.6388,56.5393,125.3328],[22.6391,56.5438,128.9272],[22.6473,56.5436,105.6255],[22.6476,56.5481,130.5676],[22.6557,56.5479,132.7901],[22.6561,56.5524,126.502],[22.6642,56.5522,129.7325],[22.6652,56.5657,124.2646],[22.6733,56.5655,129.3097],[22.6736,56.57,126.1084],[22.6818,56.5698,134.1481],[22.6821,56.5743,138.8369],[22.6984,56.5739,122.9024],[22.698,56.5694,120.9892],[22.7388,56.5685,132.1428],[22.7391,56.573,129.4419],[22.7472,56.5728,133.2967],[22.7469,56.5683,117.2992],[22.755,56.5682,118.1981],[22.7547,56.5637,120.1316],[22.7791,56.5631,108.723],[22.7795,56.5676,119.9798],[22.7876,56.5674,110.26],[22.7883,56.5764,113.3891],[22.7964,56.5762,113.8793],[22.7961,56.5717,123.2037],[22.8124,56.5713,103.4488],[22.813,56.5803,108.5773],[22.7968,56.5807,110.6689],[22.7978,56.5942,108.9346],[22.7896,56.5943,114.386],[22.7906,56.6078,109.7534],[22.7825,56.608,118.8487],[22.7831,56.617,109.1152],[22.7994,56.6166,123.5111],[22.7991,56.6121,118.3168],[22.8073,56.6119,111.2459],[22.8076,56.6164,119.6015],[22.8158,56.6162,113.7659],[22.8154,56.6117,119.1177],[22.8236,56.6115,114.4821],[22.8239,56.616,112.6725],[22.8321,56.6158,103.768],[22.8317,56.6114,103.9546],[22.848,56.611,99.6685],[22.849,56.6244,98.1605],[22.8572,56.6242,98.0622],[22.8586,56.6422,91.0561],[22.8667,56.642,109.9167],[22.8671,56.6465,90.6419],[22.8752,56.6463,94.2468],[22.8756,56.6508,92.9139],[22.8674,56.651,104.3187],[22.8681,56.66,94.8314],[22.8518,56.6604,112.4121],[22.8535,56.6828,111.4653],[22.8372,56.6832,122.698],[22.8375,56.6877,131.4034],[22.816,56.6882,124.6107],[22.8129,56.6863,125.5428],[22.8127,56.6838,119.9395],[22.8045,56.6839,113.7299],[22.8048,56.6884,125.1011],[22.8077,56.6884,123.8257],[22.8133,56.6927,117.9637],[22.8137,56.6972,127.9919],[22.8219,56.697,118.1786],[22.8232,56.715,108.0752],[22.8069,56.7154,119.6087],[22.8072,56.7198,126.4058],[22.8154,56.7197,120.9978],[22.8157,56.7242,111.6183],[22.8321,56.7238,105.7216],[22.8324,56.7283,103.6365],[22.8242,56.7285,108.8724],[22.8259,56.7509,128.6634],[22.8178,56.7511,117.5608],[22.8184,56.7601,103.1209],[22.8266,56.7599,118.8726],[22.8277,56.7733,105.2827],[22.8195,56.7735,98.4285],[22.8201,56.7825,99.6301],[22.812,56.7827,100.6822],[22.8123,56.7872,108.5962],[22.8041,56.7874,134.1056],[22.8048,56.7964,121.3296],[22.7966,56.7965,128.7851],[22.7969,56.801,126.588],[22.7887,56.8012,130.8832],[22.7897,56.8147,120.9396],[22.7816,56.8149,125.1583],[22.7809,56.8059,123.0638],[22.7645,56.8063,140.8757],[22.7648,56.8108,137.7837],[22.7566,56.8109,136.627],[22.7563,56.8065,136.6781],[22.7235,56.8072,131.9842],[22.7232,56.8027,131.8433],[22.715,56.8029,136.5051],[22.7147,56.7984,142.14],[22.7065,56.7986,132.581],[22.7068,56.8031,124.7321],[22.6904,56.8034,129.0404],[22.6911,56.8124,124.1374],[22.6829,56.8126,130.3176],[22.6832,56.8171,129.9817],[22.675,56.8173,123.7536],[22.6747,56.8128,131.8262],[22.6419,56.8135,107.2227],[22.6428,56.827,119.3056],[22.6346,56.8271,128.0049],[22.635,56.8316,112.3701],[22.6186,56.832,112.4872],[22.6182,56.8275,128.4933],[22.61,56.8277,115.9802],[22.611,56.8411,111.8558],[22.6028,56.8413,113.6069],[22.6031,56.8458,112.1674],[22.5785,56.8463,102.4616],[22.5788,56.8508,90.8808],[22.5706,56.851,99.2445],[22.5624,56.8512,97.5949],[22.5621,56.8467,107.6369],[22.5211,56.8475,101.6217],[22.5214,56.852,101.5638],[22.5132,56.8522,94.0161],[22.5135,56.8567,94.8647],[22.5053,56.8568,107.0424],[22.5056,56.8613,100.8915],[22.4974,56.8615,90.1561],[22.4983,56.875,100.9876],[22.5065,56.8748,120.3751],[22.5068,56.8793,104.1377],[22.5232,56.8789,99.8627],[22.5235,56.8834,100.838],[22.5153,56.8836,94.1809],[22.5159,56.8926,91.9917],[22.5241,56.8924,91.8654],[22.525,56.9059,94.1788],[22.5168,56.9061,100.8406],[22.5171,56.9105,95.9701],[22.5253,56.9104,96.4664],[22.5257,56.9149,93.0252],[22.5421,56.9145,86.0227],[22.5427,56.9235,93.0852],[22.5345,56.9237,94.5305],[22.5348,56.9282,99.604],[22.5184,56.9285,93.0458],[22.518,56.924,92.7046],[22.5016,56.9244,98.3886],[22.4934,56.9245,99.8064],[22.4937,56.929,98.2752],[22.469,56.9295,107.0034],[22.4687,56.925,103.6766],[22.4605,56.9252,103.7013],[22.4602,56.9207,104.4091],[22.452,56.9209,103.0627],[22.4517,56.9164,111.6255],[22.4435,56.9165,106.1569],[22.4423,56.8986,112.5928],[22.4094,56.8992,87.5072],[22.4091,56.8947,87.6615],[22.4009,56.8949,89.5759],[22.3927,56.8951,96.6268],[22.393,56.8996,100.9952],[22.3848,56.8997,100.1032],[22.385,56.9042,103.7676],[22.3604,56.9047,101.1064],[22.3607,56.9092,101.0799],[22.3525,56.9093,101.6429],[22.3527,56.9138,93.6105],[22.3363,56.9141,81.7364],[22.3366,56.9186,84.6836],[22.3448,56.9185,91.4203],[22.3454,56.9275,86.773],[22.3372,56.9276,76.9531],[22.3374,56.9321,78.7294],[22.3128,56.9326,72.6306],[22.313,56.9371,72.6894],[22.2966,56.9374,66.6956],[22.2963,56.9329,68.9299],[22.2881,56.933,65.9608],[22.2878,56.9285,66.8699],[22.3043,56.9282,76.292],[22.3037,56.9193,70.4117],[22.2955,56.9194,68.2438],[22.2952,56.9149,93.1231],[22.2705,56.9154,71.2591],[22.27,56.9064,73.2699],[22.278199999999998,56.9063,70.4018],[22.2779,56.9018,64.1654],[22.2697,56.9019,62.7139],[22.2694,56.8974,65.1537],[22.2859,56.8971,65.757],[22.2856,56.8926,70.7825],[22.2938,56.8925,81.8649],[22.302,56.8923,70.2587],[22.3023,56.8968,70.923],[22.3187,56.8965,79.6848],[22.3185,56.892,79.4154],[22.3349,56.8917,91.1601],[22.334,56.8782,85.1604],[22.3505,56.8779,75.013],[22.3493,56.8599,91.3217],[22.3247,56.8604,93.4656],[22.325,56.8649,86.0431],[22.3168,56.8651,88.3644],[22.3159,56.8516,80.8635],[22.3077,56.8517,75.3926],[22.3072,56.8428,78.7186],[22.2579,56.8437,60.4947],[22.2577,56.8392,62.1133],[22.2495,56.8394,58.9639],[22.2492,56.8349,60.4519],[22.2328,56.8352,68.2672],[22.232,56.8217,80.2411],[22.2238,56.8218,61.3509],[22.2235,56.8174,60.0767],[22.2317,56.8172,74.5745],[22.2312,56.8082,81.3399],[22.2148,56.8085,61.8894],[22.2145,56.804,60.4833],[22.2063,56.8042,58.1563],[22.2066,56.8087,58.662],[22.1738,56.8093,42.6531],[22.1725,56.7868,58.225],[22.1807,56.7867,58.8194],[22.1793,56.7642,57.7776],[22.1875,56.7641,60.0697],[22.1867,56.7506,74.5584],[22.1949,56.7504,64.8723],[22.1944,56.7415,64.1619],[22.178,56.7418,59.2998],[22.1775,56.7328,61.0225],[22.1857,56.7326,63.0552],[22.1854,56.7281,66.1485],[22.1772,56.7283,60.8255],[22.1767,56.7193,54.0938],[22.1685,56.7194,75.6625],[22.168,56.7105,61.9947],[22.1598,56.7106,60.7739],[22.1596,56.7061,66.2296],[22.1514,56.7063,59.4082],[22.1511,56.7018,65.7123],[22.1348,56.7021,71.8151],[22.1343,56.6931,57.2824],[22.1016,56.6937,32.414],[22.1018,56.6981,60.4623],[22.0937,56.6983,55.2421],[22.0929,56.6848,46.0429],[22.1011,56.6847,38.0499],[22.1003,56.6712,80.0161],[22.1085,56.6711,65.9102],[22.1077,56.6576,55.4167],[22.1159,56.6574,57.5621],[22.1154,56.6485,45.2861],[22.1072,56.6486,53.0328],[22.107,56.6441,53.7326],[22.1233,56.6438,48.5657],[22.1228,56.6348,50.6125],[22.1146,56.635,43.9497],[22.1136,56.617,54.4922],[22.1218,56.6169,66.2283],[22.1205,56.5944,69.2876],[22.1286,56.5943,68.7069],[22.1281,56.5853,80.0225],[22.1363,56.5852,79.5246],[22.1358,56.5762,72.1443],[22.1276,56.5763,76.2369],[22.1274,56.5718,81.2888],[22.0948,56.5724,77.7184],[22.0945,56.5679,81.1043],[22.0701,56.5683,74.3266],[22.0698,56.5638,84.3046],[22.0536,56.5641,73.1814],[22.0538,56.5686,77.7293],[22.0457,56.5687,58.5674],[22.0454,56.5643,58.7419],[22.0128,56.5648,52.587],[22.0124,56.5558,38.4809],[22.0042,56.556,50.8056],[22.004,56.5515,50.1245],[22.0121,56.5513,41.1724],[22.0119,56.5468,44.3616],[22.02,56.5467,77.7853],[22.0198,56.5422,71.0114],[22.0442,56.5418,77.3591],[22.0439,56.5373,71.6428],[22.0602,56.537,79.7486],[22.059,56.5146,65.0244],[22.0508,56.5147,82.2415],[22.0504,56.5057,81.3395],[22.0341,56.506,93.3698],[22.0343,56.5105,79.605],[22.0262,56.5106,81.9484],[22.0264,56.5151,93.9867],[22.0102,56.5154,72.8895],[22.0099,56.5109,77.1766],[22.0018,56.511,87.0505],[22.002,56.5155,76.3907],[21.9695,56.5161,79.7338]]]]}
,"properties": {"GID_2": "LVA.1.3_1","GID_0": "LVA","country": "Latvia","GID_1": "LVA.1_1","province": "Kurzeme","NL_NAME_1": "NA","county": "Saldus","VARNAME_2": "NA","NL_NAME_2": "NA","TYPE_2": "Aprinki|rajoni","ENGTYPE_2": "District","CC_2": "NA","HASC_2": "LV.SA","name": "Saldus.county","area_km2": 2148.316,"hist_schema_id": "Elevation0-9000","hist_area_km2": {"25": 1.601,"50": 75.302,"75": 695.766,"100": 795.435,"125": 531.937,"150": 48.252,"175": 0.023}}}