{"type":"Feature","properties":{"ISO3166-1-Alpha-3":"LVA","country":"Latvia","fill":"#00F","id":"5766","name":"Keguma"},
"geometry":{"type": "Polygon","coordinates": [[[24.92359,56.8007,86.6476],[24.88574,56.81406,61.9891],[24.84345,56.82741,67.7551],[24.81673,56.83409,63.4731],[24.8056,56.80738,52.4448],[24.77889,56.8007,51.646],[24.78334,56.78066,54.7437],[24.76108,56.7584,43.9945],[24.72486,56.73644,31.0],[24.70411,56.75304,36.2143],[24.69752,56.7569,22.2943],[24.67864,56.76021,18.2195],[24.66106,56.76329,17.0],[24.65284,56.76752,23.2291],[24.64576,56.77314,22.5727],[24.62542,56.78315,17.0],[24.61842,56.78486,17.0],[24.5962,56.80642,16.5],[24.58766,56.8122,18.2564],[24.56593,56.81643,16.5],[24.52556,56.81428,17.7807],[24.5127,56.8171,19.3587],[24.52298,56.79529,48.6091],[24.53698,56.77749,41.5852],[24.5376,56.77039,30.8809],[24.53311,56.75922,39.6043],[24.52546,56.7524,42.8353],[24.52189,56.71364,58.0775],[24.55605,56.70698,63.3283],[24.60091,56.70703,54.6353],[24.63408,56.67685,48.5382],[24.58974,56.66104,53.49],[24.59285,56.64303,46.2602],[24.59967,56.62068,51.0603],[24.61719,56.60719,36.158],[24.6299,56.60145,39.928],[24.65677,56.5998,52.807],[24.66251,56.59686,60.5643],[24.66297,56.59396,59.4658],[24.66033,56.5905,54.5361],[24.66142,56.58833,55.4492],[24.66607,56.58717,56.3457],[24.67367,56.58655,68.4507],[24.69119,56.58166,49.8318],[24.69713,56.57887,49.3717],[24.69723,56.57624,45.7241],[24.68142,56.57133,47.2046],[24.67134,56.56678,40.3677],[24.66437,56.55683,41.0129],[24.65708,56.54358,38.461],[24.73248,56.54425,54.8245],[24.94999,56.57857,89.1526],[24.96895,56.58156,76.2545],[25.04222,56.59003,74.9547],[25.0568,56.60133,69.2842],[25.04951,56.612,32.0],[25.01938,56.60812,37.3011],[25.02667,56.62006,65.3375],[25.02434,56.62455,61.1702],[24.99171,56.62039,82.8798],[24.97514,56.62589,69.9865],[24.95711,56.63189,38.3112],[24.93808,56.63821,38.4605],[24.91969,56.6402,32.38],[24.9052,56.64765,38.0983],[24.87817,56.68252,43.5179],[24.86817,56.69542,31.0],[24.85239,56.70171,31.0],[24.83456,56.70881,31.0],[24.81777,56.7119,37.1647],[24.79975,56.71521,33.3172],[24.81896,56.72946,47.7656],[24.84567,56.73837,67.1285],[24.85235,56.76285,54.0647],[24.87239,56.76731,74.046],[24.90355,56.78734,65.4569],[24.92359,56.8007,86.6476]]]}}