{"type": "Feature","id": "5757","bbox": [24.18817,56.65959,24.52546,56.78888],"geometry": {"type": "Polygon","coordinates": [[[24.52546,56.7524,42.8353],[24.46643,56.76385,35.9777],[24.41459,56.77636,59.937],[24.34665,56.78709,21.6937],[24.2948,56.78888,17.0534],[24.25368,56.7853,36.9808],[24.26262,56.76206,35.0979],[24.26977,56.74597,13.0519],[24.25368,56.73882,21.0537],[24.22865,56.75133,24.9559],[24.19468,56.7406,31.0382],[24.18817,56.71794,39.6704],[24.20541,56.71379,22.3306],[24.23046,56.69942,27.711],[24.24568,56.70367,16.0159],[24.25783,56.70119,30.2514],[24.26341,56.69044,22.4306],[24.27473,56.68396,24.8577],[24.29457,56.67546,32.5963],[24.33586,56.66362,24.5678],[24.35536,56.66156,26.0812],[24.37405,56.65959,45.5382],[24.37296,56.66631,24.4792],[24.37606,56.6684,28.4891],[24.38366,56.67086,51.7937],[24.41498,56.67427,36.8685],[24.42789,56.67768,58.6593],[24.4434,56.68424,43.4272],[24.48236,56.7047,61.7676],[24.52189,56.71364,58.0775],[24.52546,56.7524,42.8353]]]}
,"properties": {"ISO3166-1-Alpha-3": "LVA","country": "Latvia","fill": "#F0F","name": "Baldones","area_km2": 186.9933,"hist_schema_id": "Elevation0-9000","hist_area_km2": {"0": 0.4418,"25": 104.3911,"50": 78.3238,"75": 3.8134,"100": 0.0232}}}