{"type":"Feature","properties":{"ISO3166-1-Alpha-3":"LVA","country":"Latvia","fill":"#FF0","id":"5776","name":"Saulkrastu"},
"geometry":{"type": "Polygon","coordinates": [[[24.42789,57.29139,32.6616],[24.42681,57.29459,30.0622],[24.42619,57.29883,20.6899],[24.43022,57.30839,15.5129],[24.43239,57.32022,11.6003],[24.42929,57.32854,29.7564],[24.42557,57.33397,12.3884],[24.41079,57.34467,10.0746],[24.40516,57.3479,16.8409],[24.40484,57.34808,16.8409],[24.40553,57.34447,5.7343],[24.40886,57.29816,4.6371],[24.40065,57.25812,0.0],[24.37916,57.23021,0.0],[24.33085,57.19975,0.0],[24.34881,57.18383,-0.0996],[24.37245,57.18244,21.231],[24.44476,57.23528,18.125],[24.48787,57.23806,23.1487],[24.47675,57.27005,27.2632],[24.46129,57.29477,23.1007],[24.45022,57.29583,36.7442],[24.42789,57.29139,32.6616]]]}}