{"type":"Feature","properties":{"ISO3166-1-Alpha-3":"LVA","country":"Latvia","fill":"#F0F","id":"5790","name":"Lubanas"},
"geometry":{"type": "Polygon","coordinates": [[[26.86005,56.98301,97.2314],[26.79581,56.98913,102.2132],[26.78155,56.99254,97.9175],[26.75762,56.99296,98.2911],[26.73483,56.9882,96.0807],[26.726,56.98262,99.9873],[26.70378,56.9742,109.0011],[26.69742,56.97347,101.157],[26.69106,56.9782,107.7459],[26.6352,56.965,106.3605],[26.60368,56.9536,111.3382],[26.56818,56.94841,102.0246],[26.47306,56.85463,103.2205],[26.50437,56.83271,110.8551],[26.5169,56.82488,107.5594],[26.5122,56.81236,97.4788],[26.53569,56.8014,107.6144],[26.56074,56.80922,110.9094],[26.57796,56.80453,92.9052],[26.60927,56.81862,93.4474],[26.62023,56.83271,95.9649],[26.67347,56.86715,93.8357],[26.67973,56.88438,97.3553],[26.71261,56.90316,94.9361],[26.7267,56.89064,98.5895],[26.80029,56.89534,104.7685],[26.83786,56.90003,99.5336],[26.86135,56.90003,106.1402],[26.88327,56.88594,110.3075],[26.88483,56.87342,105.3103],[26.90988,56.87342,102.0204],[26.93337,56.86559,94.9999],[26.95332,56.84668,92.0905],[26.98076,56.86562,93.5631],[26.98371,56.87079,99.2717],[26.9851,56.87823,96.1748],[26.97115,56.89092,91.5047],[26.96247,56.91327,93.9331],[26.95394,56.92071,92.3242],[26.92397,56.93172,92.639],[26.91141,56.93932,93.5904],[26.9111,56.94771,93.4608],[26.91482,56.95787,96.3258],[26.91715,56.96934,106.0914],[26.91188,56.97384,101.6984],[26.90258,56.97797,97.788],[26.87818,56.97836,99.0221],[26.86981,56.97626,97.5138],[26.86005,56.98301,97.2314]]]}}