{"type": "Feature","id": "5717","bbox": [20.9686,56.16619,21.22635,56.49878],"geometry": {"type": "Polygon","coordinates": [[[21.14746,56.43056,12.264],[21.12827,56.49878,15.6812],[21.06324,56.49396,0.0227],[21.06764,56.47639,0.0224],[21.07211,56.46955,0.7106],[21.06813,56.45881,0.0],[21.06666,56.44184,0.0],[21.06861,56.42406,-0.2208],[21.07976,56.40306,0.1333],[21.07716,56.39521,0.5578],[21.07016,56.38935,0.448],[21.06178,56.38703,0.5879],[21.0534,56.38996,0.7175],[21.03053,56.40811,0.7826],[21.04469,56.42113,-0.2641],[21.04469,56.42796,-0.1748],[21.04469,56.44221,0.1337],[21.03745,56.44465,0.4536],[21.03053,56.44843,0.0435],[21.04469,56.4621,0.3255],[21.03582,56.47394,0.8757],[21.024,56.47136,4.0884],[21.02202,56.45699,2.1724],[21.01954,56.44708,0.6951],[21.00538,56.44587,3.5753],[21.00318,56.4348,5.9802],[20.99838,56.42569,11.56],[20.99252,56.41791,5.2106],[20.97901,56.40436,0.0],[20.97055,56.38898,0.0],[20.9686,56.36982,0.0],[20.97096,56.34984,0.0],[20.98146,56.31049,0.0],[20.98268,56.30146,0.0],[20.98268,56.29076,0.0],[20.98024,56.27928,0.0],[20.97104,56.25967,0.0],[21.03447,56.2664,6.7973],[21.05579,56.16832,0.9657],[21.0835,56.16619,0.7176],[21.0835,56.19178,1.9239],[21.08563,56.22802,4.5581],[21.10909,56.21949,28.9664],[21.16452,56.26426,23.4737],[21.17944,56.28772,21.7323],[21.18371,56.32396,17.9063],[21.17944,56.35594,27.7627],[21.22635,56.35168,30.3168],[21.21142,56.43269,32.2361],[21.14746,56.43056,12.264]]]}
,"properties": {"ISO3166-1-Alpha-3": "LVA","country": "Latvia","fill": "#00F","name": "Nicas","area_km2": 321.9808,"hist_schema_id": "Elevation0-9000","hist_area_km2": {"0": 191.2708,"25": 130.4282,"50": 0.2817}}}