{"type":"Feature","properties":{"ISO3166-1-Alpha-3":"LVA","country":"Latvia","fill":"#000","id":"5775","name":"Salaspils"},
"geometry":{"type": "Polygon","coordinates": [[[24.33592,56.89615,26.8252],[24.32519,56.91581,27.2437],[24.29659,56.92118,20.6683],[24.23468,56.9304,32.2548],[24.23669,56.90412,11.1884],[24.25872,56.87299,10.2758],[24.197,56.88206,1.7893],[24.1768,56.86754,19.0969],[24.18932,56.85145,10.4763],[24.21792,56.82821,9.6314],[24.25904,56.82463,10.2003],[24.31089,56.82463,13.5529],[24.34199,56.85114,18.5593],[24.38624,56.84211,19.8417],[24.42037,56.83983,16.2758],[24.44402,56.83767,15.0],[24.44293,56.84529,18.987],[24.44758,56.85756,23.4899],[24.4482,56.86555,26.7126],[24.44448,56.87237,35.7994],[24.43782,56.87823,19.0117],[24.43565,56.88402,18.7073],[24.43983,56.88748,8.8818],[24.45735,56.88684,40.762],[24.42889,56.92475,20.4542],[24.40565,56.92654,25.8104],[24.3538,56.91045,10.0],[24.33592,56.89615,26.8252]]]}}