{"type":"Feature","properties":{"ISO3166-1-Alpha-3":"LVA","country":"Latvia","fill":"#FF0","id":"5732","name":"Jaunjelgavas"},
"geometry":{"type": "Polygon","coordinates": [[[25.46477,56.6129,90.6418],[25.42311,56.62731,91.800299999999993],[25.39845,56.63072,69.5],[25.36671,56.61437,85.1409],[25.33017,56.5976,76.1182],[25.29337,56.59111,68.0],[25.23536,56.58564,32.0],[25.21534,56.58889,35.2883],[25.18899,56.601,75.1571],[25.1631,56.6129,41.1651],[25.1386,56.61915,66.6518],[25.11809,56.62438,36.3362],[25.08018,56.6215,32.0],[25.04951,56.612,32.0],[25.0568,56.60133,69.2842],[25.04222,56.59003,74.9547],[24.96895,56.58156,76.2545],[24.94999,56.57857,89.1526],[24.9563,56.55109,75.3927],[24.99563,56.55109,71.3474],[25.01351,56.49567,74.9689],[25.02781,56.45991,69.5728],[25.05106,56.46349,79.0457],[25.0743,56.4027,86.3689],[25.1333,56.41343,89.6456],[25.29358,56.4079,88.8658],[25.29621,56.42082,78.414],[25.3313,56.42129,81.1864],[25.39352,56.41098,83.4416],[25.45558,56.41335,92.2441],[25.4762,56.41888,91.0242],[25.5054,56.4364,97.8928],[25.52354,56.44482,103.3247],[25.54777,56.44488,104.2483],[25.56669,56.44761,91.5],[25.57382,56.45286,91.5],[25.58343,56.45857,91.5],[25.59072,56.46084,93.0639],[25.59464,56.46715,104.1987],[25.58002,56.48839,102.1878],[25.56607,56.49831,108.5988],[25.55863,56.51066,99.1396],[25.57599,56.5397,104.3101],[25.59868,56.55182,88.901],[25.60581,56.56203,86.6644],[25.6072,56.56771,90.0046],[25.59945,56.57029,85.5063],[25.58018,56.56916,83.5736],[25.56033,56.57386,75.459],[25.56979,56.5767,88.9355],[25.50904,56.5788,98.7383],[25.49358,56.58906,84.523],[25.49879,56.60236,69.5],[25.49553,56.61184,74.2125],[25.48723,56.61347,71.345],[25.46477,56.6129,90.6418]]]}}