{"type":"Feature","properties":{"ISO3166-1-Alpha-3":"LVA","country":"Latvia","fill":"#00F","id":"5765","name":"Kandavas"},
"geometry":{"type": "Polygon","coordinates": [[[22.94319,56.85503,84.8431],[22.92353,56.87469,84.5202],[22.91816,56.88899,81.8069],[22.91638,56.91581,69.3062],[22.87347,56.92475,74.2977],[22.83056,56.94978,76.2785],[22.81805,56.97481,68.6812],[22.83056,57.00699,75.228],[22.86274,57.01057,65.4112],[22.87883,57.01951,56.1068],[22.86632,57.03739,54.699],[22.85559,57.05705,43.7508],[22.84129,57.07851,60.2436],[22.89671,57.08923,80.9677],[22.9128,57.10354,93.9641],[22.94141,57.11426,61.8799],[22.95571,57.12678,56.3213],[22.93093,57.14457,32.2313],[22.91124,57.13718,55.8678],[22.8313,57.14008,76.9429],[22.80804,57.13662,94.5122],[22.802,57.13135,103.468],[22.79327,57.12602,82.9903],[22.76086,57.11233,73.2401],[22.6696,57.0977,91.9506],[22.64154,57.09473,95.7761],[22.64945,57.04166,85.8958],[22.63581,57.01585,38.0652],[22.59142,57.02239,51.2054],[22.55958,57.00838,93.6664],[22.50822,57.01383,98.5715],[22.47241,56.98247,92.9558],[22.45592,56.9404,102.9245],[22.44538,56.93854,92.9288],[22.45489,56.91709,114.3767],[22.49241,56.92009,105.5817],[22.51194,56.9174,99.6476],[22.52656,56.91296,92.9009],[22.5292,56.90877,101.2907],[22.52439,56.90511,96.5378],[22.52098,56.9003,95.0305],[22.52114,56.88464,92.8513],[22.51897,56.87684,93.8074],[22.51463,56.87198,91.1967],[22.50656,56.86749,93.0625],[22.50047,56.86299,96.652],[22.49085,56.85152,94.7949],[22.52765,56.8416,102.0846],[22.5863,56.83715,116.035],[22.63426,56.82413,99.82],[22.64588,56.81635,98.2307],[22.64201,56.80821,98.5564],[22.67906,56.80956,128.2473],[22.7188,56.80201,139.3112],[22.78892,56.80387,128.998],[22.81626,56.81391,108.611],[22.84665,56.82821,104.1729],[22.83592,56.84966,105.9004],[22.87526,56.8586,96.7977],[22.90744,56.85324,101.6498],[22.94319,56.85503,84.8431]]]}}