{"type":"Feature","properties":{"ISO3166-1-Alpha-3":"LVA","country":"Latvia","fill":"#FF0","id":"5726","name":"Krustpils"},
"geometry":{"type": "Polygon","coordinates": [[[26.03999,56.62647,102.2722],[26.02289,56.62931,98.8011],[26.00211,56.6397,92.5528],[25.98361,56.66564,83.0494],[25.93209,56.63784,82.9218],[25.88326,56.62357,84.7979],[25.83096,56.61324,78.4068],[25.78828,56.60931,76.8533],[25.75691,56.61226,69.5],[25.75611,56.59203,72.8767],[25.74806,56.56635,78.9297],[25.76922,56.55414,98.6742],[25.78688,56.53034,74.0492],[25.79973,56.5277,79.9502],[25.82643,56.52717,94.0673],[25.85413,56.53578,94.4297],[25.87862,56.53578,95.6315],[25.88975,56.52243,88.2661],[25.91869,56.5291,90.9689],[25.92537,56.51352,108.8],[25.87656,56.49531,86.7312],[25.9257,56.48375,84.5391],[26.04322,56.45612,85.8598],[26.05527,56.45136,87.9407],[26.06406,56.43684,90.2385],[26.08033,56.41791,92.9685],[26.08852,56.40643,80.7939],[26.15337,56.42927,92.2933],[26.19125,56.45787,86.476],[26.19947,56.47304,93.1731],[26.23285,56.49883,89.9715],[26.25719,56.512,92.6068],[26.29042,56.51789,95.5],[26.30917,56.51562,103.8765],[26.31569,56.51195,100.1503],[26.3208,56.50689,100.5944],[26.32328,56.49818,105.6595],[26.3531,56.47454,95.6211],[26.36256,56.45084,102.4926],[26.41237,56.46531,111.7957],[26.43583,56.47593,115.3339],[26.4456,56.48265,118.8355],[26.458,56.4889,109.018],[26.47521,56.49407,117.4927],[26.49898,56.49593,111.733],[26.52906,56.49361,107.1946],[26.54053,56.48968,108.7601],[26.5595,56.48616,107.7782],[26.59639,56.4888,107.0387],[26.59701,56.49454,111.052],[26.59732,56.49557,115.9942],[26.59314,56.4966,121.1689],[26.59376,56.50159,124.3794],[26.59515,56.50655,112.6529],[26.62776,56.54373,125.4714],[26.60854,56.54471,112.0889],[26.59593,56.54704,111.0946],[26.58663,56.55143,114.4122],[26.58337,56.56352,117.1717],[26.59376,56.59515,110.6031],[26.52255,56.59985,110.8321],[26.48451,56.60613,111.0133],[26.40137,56.63386,108.8199],[26.37558,56.63592,110.0895],[26.35077,56.60998,114.9272],[26.34271,56.60383,109.8762],[26.29135,56.5867,106.0034],[26.28422,56.6058,99.7765],[26.28127,56.61091,107.0415],[26.26199,56.61657,114.5648],[26.22463,56.60988,109.7445],[26.19823,56.62714,115.6567],[26.20489,56.63525,126.5087],[26.19109,56.64233,120.7159],[26.17001,56.64502,127.3438],[26.15647,56.65013,112.971],[26.13105,56.65391,96.244],[26.09224,56.64388,91.5592],[26.05813,56.62995,93.7788],[26.03999,56.62647,102.2722]]]}}