{"type":"Feature","properties":{"GID_2":"LVA.5.3_1","GID_0":"LVA","country":"Latvia","GID_1":"LVA.5_1","province":"Zemgale","NL_NAME_1":"NA","county":"Dobele","VARNAME_2":"NA","NL_NAME_2":"NA","TYPE_2":"Aprinki|rajoni","ENGTYPE_2":"District","CC_2":"NA","HASC_2":"LV.DO","name":"Dobele.county"},
"geometry":{"type": "MultiPolygon","coordinates": [[[[22.9297,56.4021,83.875],[22.93,56.4066,82.8623],[22.9381,56.4064,84.0256],[22.9385,56.4109,84.7557],[22.9466,56.4107,87.5673],[22.9469,56.4152,89.6364],[22.9631,56.4148,100.5278],[22.9628,56.4103,84.8214],[22.979,56.4099,98.2993],[22.9786,56.4054,84.6499],[23.003,56.4048,90.8176],[23.0026,56.4004,84.7054],[23.0107,56.4002,92.5835],[23.01,56.3912,92.7881],[23.0181,56.391,87.1823],[23.0152,56.3551,79.7767],[23.0233,56.3549,78.8711],[23.0222,56.3414,90.5712],[23.0303,56.3412,96.3854],[23.0292,56.3277,88.6749],[23.0373,56.3275,92.006],[23.037,56.323,80.1668],[23.0774,56.322,77.3701],[23.077,56.3175,85.6683],[23.0851,56.3173,86.8241],[23.0848,56.3128,88.8966],[23.0929,56.3126,88.8482],[23.0925,56.3081,84.6048],[23.1167,56.3075,86.2816],[23.1171,56.312,82.8897],[23.1252,56.3118,82.3281],[23.1256,56.3163,81.1371],[23.1337,56.316,82.5268],[23.134,56.3205,80.725],[23.1421,56.3203,80.5727],[23.1425,56.3248,80.4497],[23.1506,56.3246,81.3308],[23.1509,56.3291,78.821],[23.159,56.3289,78.0738],[23.1594,56.3334,77.356],[23.1675,56.3332,77.3104],[23.1683,56.3421,76.2023],[23.1763,56.3419,73.7422],[23.1782,56.3644,70.8887],[23.1944,56.3639,70.7956],[23.1948,56.3684,70.8191],[23.2191,56.3678,68.6414],[23.2195,56.3723,77.0037],[23.2519,56.3714,67.5215],[23.2523,56.3759,64.7836],[23.2847,56.375,62.1194],[23.285,56.3795,64.1346],[23.3012,56.379,74.1859],[23.3016,56.3835,69.3675],[23.3745,56.3815,51.081],[23.3741,56.377,62.8678],[23.4065,56.3761,55.4087],[23.4069,56.3806,56.1506],[23.4393,56.3797,45.9386],[23.4401,56.3886,41.98],[23.4482,56.3884,47.4586],[23.4487,56.3929,41.3003],[23.4568,56.3927,47.9419],[23.4572,56.3972,40.8852],[23.4653,56.3969,36.6512],[23.4661,56.4059,40.2382],[23.458,56.4061,37.9307],[23.4588,56.4151,39.6698],[23.4507,56.4153,41.8414],[23.4511,56.4198,41.2173],[23.443,56.4201,40.5194],[23.4438,56.429,41.4623],[23.4357,56.4293,42.5187],[23.4378,56.4517,41.4506],[23.4216,56.4522,42.6801],[23.4224,56.4611,48.726],[23.4143,56.4614,49.2336],[23.4147,56.4659,78.2944],[23.4228,56.4656,45.6154],[23.4232,56.4701,64.8931],[23.4313,56.4699,43.6115],[23.4317,56.4744,52.5044],[23.4398,56.4741,38.9519],[23.4402,56.4786,57.5201],[23.4159,56.4793,77.7368],[23.4171,56.4928,23.6472],[23.4334,56.4923,47.4286],[23.4338,56.4968,21.3897],[23.45,56.4963,28.4858],[23.4504,56.5008,18.0698],[23.4586,56.5006,27.1802],[23.459,56.5051,25.8652],[23.4508,56.5053,20.5951],[23.4517,56.5143,30.7911],[23.4598,56.5141,29.0489],[23.4623,56.541,20.1085],[23.4704,56.5407,22.0606],[23.4712,56.5497,19.5183],[23.4631,56.5499,24.1959],[23.4635,56.5544,24.4463],[23.4391,56.5551,22.2203],[23.4395,56.5596,21.146],[23.4314,56.5599,21.3878],[23.433,56.5778,18.0466],[23.4493,56.5773,18.9323],[23.4497,56.5818,18.4298],[23.4904,56.5807,15.8991],[23.4925,56.6031,12.2343],[23.5007,56.6029,11.5123],[23.5011,56.6073,10.4868],[23.5093,56.6071,9.4471],[23.5101,56.6161,8.3177],[23.5019,56.6163,9.5258],[23.5028,56.6253,7.9117],[23.5109,56.625,6.789],[23.5114,56.6295,5.63],[23.4951,56.63,6.6272],[23.4955,56.6345,6.4526],[23.4873,56.6347,7.8459],[23.4877,56.6392,6.9917],[23.4796,56.6395,7.474],[23.4808,56.6529,7.3646],[23.489,56.6527,6.5852],[23.4903,56.6661,5.6135],[23.4739,56.6666,6.5847],[23.4744,56.6711,16.7794],[23.4662,56.6713,7.0595],[23.4666,56.6758,5.9921],[23.4911,56.6751,5.0463],[23.4915,56.6796,5.1803],[23.4997,56.6794,7.0688],[23.5001,56.6838,5.722],[23.4838,56.6843,5.3989],[23.4842,56.6888,4.7922],[23.476,56.689,5.272],[23.4765,56.6935,5.7081],[23.4438,56.6945,5.8395],[23.4442,56.6989,5.8224],[23.436,56.6992,7.3447],[23.4364,56.7037,5.7884],[23.4283,56.7039,7.1434],[23.4291,56.7129,22.67],[23.4373,56.7126,26.622],[23.4381,56.7216,25.0197],[23.4463,56.7214,15.7978],[23.4475,56.7348,17.5152],[23.4557,56.7346,18.239],[23.4561,56.7391,13.2353],[23.4643,56.7389,17.1607],[23.4647,56.7433,13.0374],[23.4892,56.7426,14.8403],[23.4897,56.7471,16.3532],[23.5142,56.7464,26.9714],[23.5146,56.7509,22.538],[23.531,56.7504,4.6606],[23.5318,56.7594,8.9799],[23.54,56.7592,3.2093],[23.5404,56.7637,5.7769],[23.5323,56.7639,6.8702],[23.5327,56.7684,3.1579],[23.5245,56.7686,14.129],[23.5241,56.7641,3.9824],[23.4913,56.7651,6.6743],[23.4918,56.7696,10.7777],[23.459,56.7705,4.2377],[23.4599,56.7795,12.8022],[23.4517,56.7797,4.4229],[23.4521,56.7842,25.7949],[23.4439,56.7844,7.8635],[23.4443,56.7889,24.9924],[23.4361,56.7891,25.3802],[23.4366,56.7936,27.5738],[23.4284,56.7939,12.326],[23.428,56.7894,14.1528],[23.3952,56.7903,8.2806],[23.3956,56.7948,11.7611],[23.3874,56.795,19.0737],[23.3883,56.804,25.6686],[23.3719,56.8044,16.1801],[23.3715,56.8,14.1545],[23.3633,56.8002,16.0803],[23.3629,56.7957,16.3643],[23.3547,56.7959,21.9213],[23.3543,56.7914,25.3578],[23.3461,56.7917,24.7059],[23.3457,56.7872,26.4564],[23.3375,56.7874,29.4241],[23.3363,56.7739,26.219],[23.3199,56.7744,31.7058],[23.3191,56.7654,31.3334],[23.3273,56.7652,29.0453],[23.3269,56.7607,29.5326],[23.3351,56.7605,41.5255],[23.3347,56.756,26.683],[23.3429,56.7558,25.2516],[23.342,56.7468,26.9311],[23.3339,56.747,32.233],[23.3327,56.7336,31.0974],[23.3163,56.734,32.3816],[23.3159,56.7295,32.9932],[23.3077,56.7297,34.9836],[23.3073,56.7252,35.594],[23.2992,56.7255,42.8968],[23.298,56.712,46.9798],[23.2898,56.7122,46.8479],[23.2894,56.7077,49.908],[23.2731,56.7082,60.3931],[23.2735,56.7127,58.762],[23.2653,56.7129,60.4042],[23.2657,56.7174,58.0415],[23.2493,56.7178,62.01],[23.2497,56.7223,60.2074],[23.217,56.7232,70.7467],[23.2174,56.7277,63.4494],[23.2092,56.7279,61.7099],[23.2089,56.7234,64.3885],[23.1925,56.7238,69.3844],[23.1921,56.7193,64.0172],[23.1839,56.7195,66.3672],[23.1832,56.7106,67.7022],[23.1914,56.7104,66.6153],[23.1906,56.7014,68.2634],[23.1824,56.7016,64.1843],[23.182,56.6971,65.4787],[23.1575,56.6978,67.4971],[23.1579,56.7022,62.3146],[23.1252,56.7031,64.4638],[23.1248,56.6986,63.7187],[23.1167,56.6988,72.3154],[23.1163,56.6943,58.9339],[23.1081,56.6945,70.5595],[23.1078,56.69,60.4985],[23.0833,56.6907,61.4878],[23.0836,56.6952,69.549],[23.0673,56.6956,71.2895],[23.0677,56.7001,78.726],[23.0268,56.7011,79.9544],[23.0275,56.7101,85.3246],[23.0194,56.7103,83.8266],[23.0201,56.7192,90.7765],[22.9956,56.7198,84.7249],[22.9952,56.7154,83.6078],[22.9707,56.716,96.6952],[22.9703,56.7115,88.8356],[22.9376,56.7123,95.5159],[22.938,56.7168,96.4064],[22.8971,56.7177,97.2246],[22.8968,56.7132,103.5374],[22.8886,56.7134,107.6946],[22.8883,56.709,101.4509],[22.8801,56.7091,104.3397],[22.8804,56.7136,99.384],[22.8723,56.7138,100.8729],[22.8716,56.7049,99.2593],[22.8552,56.7052,106.2431],[22.8556,56.7097,116.1681],[22.8474,56.7099,106.903],[22.8464,56.6965,117.175],[22.8137,56.6972,127.9919],[22.8133,56.6927,117.9637],[22.8077,56.6884,123.8257],[22.8048,56.6884,125.1011],[22.8045,56.6839,113.7299],[22.8127,56.6838,119.9395],[22.8129,56.6863,125.5428],[22.816,56.6882,124.6107],[22.8375,56.6877,131.4034],[22.8372,56.6832,122.698],[22.8535,56.6828,111.4653],[22.8518,56.6604,112.4121],[22.8681,56.66,94.8314],[22.8674,56.651,104.3187],[22.8756,56.6508,92.9139],[22.8752,56.6463,94.2468],[22.8671,56.6465,90.6419],[22.8667,56.642,109.9167],[22.8586,56.6422,91.0561],[22.8572,56.6242,98.0622],[22.849,56.6244,98.1605],[22.848,56.611,99.6685],[22.8317,56.6114,103.9546],[22.8321,56.6158,103.768],[22.8239,56.616,112.6725],[22.8236,56.6115,114.4821],[22.8154,56.6117,119.1177],[22.8158,56.6162,113.7659],[22.8076,56.6164,119.6015],[22.8073,56.6119,111.2459],[22.7991,56.6121,118.3168],[22.7994,56.6166,123.5111],[22.7831,56.617,109.1152],[22.7825,56.608,118.8487],[22.7906,56.6078,109.7534],[22.7896,56.5943,114.386],[22.7978,56.5942,108.9346],[22.7968,56.5807,110.6689],[22.813,56.5803,108.5773],[22.8124,56.5713,103.4488],[22.7961,56.5717,123.2037],[22.7964,56.5762,113.8793],[22.7883,56.5764,113.3891],[22.7876,56.5674,110.26],[22.7795,56.5676,119.9798],[22.7791,56.5631,108.723],[22.7547,56.5637,120.1316],[22.755,56.5682,118.1981],[22.7469,56.5683,117.2992],[22.7472,56.5728,133.2967],[22.7391,56.573,129.4419],[22.7388,56.5685,132.1428],[22.698,56.5694,120.9892],[22.6984,56.5739,122.9024],[22.6821,56.5743,138.8369],[22.6818,56.5698,134.1481],[22.6736,56.57,126.1084],[22.6733,56.5655,129.3097],[22.6652,56.5657,124.2646],[22.6642,56.5522,129.7325],[22.6561,56.5524,126.502],[22.6557,56.5479,132.7901],[22.6476,56.5481,130.5676],[22.6473,56.5436,105.6255],[22.6391,56.5438,128.9272],[22.6388,56.5393,125.3328],[22.6226,56.5396,110.299],[22.6213,56.5217,115.6186],[22.5969,56.5222,125.6028],[22.5963,56.5132,113.7094],[22.6288,56.5125,114.3891],[22.6285,56.508,122.3059],[22.6366,56.5078,107.5051],[22.6363,56.5034,118.7533],[22.6769,56.5025,118.7549],[22.6766,56.498,101.3893],[22.6848,56.4978,123.3531],[22.6851,56.5023,120.5103],[22.6932,56.5021,106.6051],[22.6929,56.4976,110.5271],[22.7173,56.4971,106.3972],[22.7166,56.4881,107.6953],[22.7491,56.4873,102.6682],[22.7488,56.4829,102.5009],[22.7569,56.4827,109.2318],[22.7566,56.4782,100.266],[22.7647,56.478,108.7492],[22.7644,56.4735,102.7092],[22.7562,56.4737,97.1647],[22.7556,56.4647,101.9297],[22.7475,56.4649,101.1042],[22.7471,56.4604,99.5651],[22.7553,56.4602,101.2037],[22.7546,56.4512,99.4535],[22.7384,56.4516,93.605],[22.7364,56.4247,105.2378],[22.7607,56.4241,95.8973],[22.7611,56.4286,100.3479],[22.7692,56.4284,101.2728],[22.7688,56.4239,95.7256],[22.7932,56.4234,89.5631],[22.7928,56.4189,88.8601],[22.8091,56.4185,87.2962],[22.8087,56.414,88.5007],[22.8168,56.4138,87.6606],[22.8165,56.4093,88.3334],[22.8246,56.4092,85.1867],[22.8243,56.4047,92.6885],[22.8648,56.4037,84.1606],[22.8645,56.3992,81.8478],[22.8807,56.3988,85.6958],[22.8803,56.3943,82.0256],[22.8884,56.3941,83.3437],[22.8888,56.3986,84.681],[22.8969,56.3984,81.6703],[22.8972,56.4029,82.0793],[22.9297,56.4021,83.875]]]]}}