{"type":"Feature","properties":{"ISO3166-1-Alpha-3":"LVA","country":"Latvia","fill":"#00F","id":"1082","name":"Dobele"},
"geometry":{"type": "Polygon","coordinates": [[[23.41509,56.4933,25.4395],[23.43788,56.49926,22.4501],[23.44749,56.50562,28.0391],[23.45927,56.52983,20.8023],[23.45865,56.54482,27.7601],[23.44594,56.55639,21.2137],[23.43447,56.56409,20.161],[23.43214,56.57084,17.1098],[23.43679,56.57706,20.1635],[23.44842,56.57908,18.5069],[23.47715,56.58693,16.7678],[23.48025,56.59954,14.3265],[23.40594,56.60644,15.4583],[23.41292,56.61603,14.4226],[23.4247,56.62213,13.0401],[23.43819,56.63445,10.1523],[23.44454,56.64156,9.9403],[23.47607,56.65618,6.7313],[23.48537,56.66029,10.7568],[23.48428,56.66491,5.8336],[23.47979,56.67677,5.8998],[23.48149,56.68042,5.2836],[23.47824,56.68481,5.5044],[23.46299,56.69253,5.4639],[23.44268,56.6968,6.2173],[23.41741,56.70682,7.3422],[23.43648,56.72388,6.5251],[23.45927,56.73457,9.394],[23.50289,56.74687,20.9551],[23.52526,56.76367,2.7061],[23.50552,56.80821,26.7037],[23.48661,56.81591,27.1263],[23.45167,56.7994,29.7084],[23.40884,56.7924,5.2135],[23.39721,56.79224,10.9485],[23.38946,56.79398,16.3243],[23.37504,56.80077,13.8013],[23.32197,56.78212,29.901],[23.31592,56.77416,31.8939],[23.31499,56.76548,32.4491],[23.32522,56.74946,29.2112],[23.29964,56.71535,42.9428],[23.27231,56.71029,60.4601],[23.21582,56.71106,72.1373],[23.19365,56.70496,68.5554],[23.17174,56.69241,60.6044],[23.12332,56.69881,65.5484],[23.09929,56.69158,57.9011],[23.08395,56.69065,61.4878],[23.0287,56.69494,79.2896],[22.98617,56.71075,92.0742],[22.90344,56.71163,92.4598],[22.87522,56.70905,94.1728],[22.82603,56.69809,113.2417],[22.80014,56.69602,132.1233],[22.80525,56.67838,131.3882],[22.82866,56.67158,125.5048],[22.83781,56.65845,114.2342],[22.85926,56.64424,91.0133],[22.8543,56.63086,115.5795],[22.84076,56.61719,100.7493],[22.82928,56.6105,112.4092],[22.81719,56.60735,109.5578],[22.79316,56.60729,113.9028],[22.78086,56.60611,128.9115],[22.77699,56.60135,119.6988],[22.77668,56.59665,109.9321],[22.77699,56.59179,106.3143],[22.77869,56.58781,118.0042],[22.78443,56.58577,108.5596],[22.78861,56.58135,109.8293],[22.79192,56.57898,116.5047],[22.79812,56.56833,120.1768],[22.82341,56.56182,119.402],[22.83414,56.54037,119.2647],[22.84844,56.53858,109.8043],[22.86274,56.55288,110.1192],[22.89671,56.56718,121.6424],[22.93068,56.56897,111.0295],[22.92532,56.58864,125.0422],[22.96107,56.60115,104.5138],[22.98074,56.57791,99.0893],[23.02186,56.59043,106.9304],[23.04153,56.57791,103.2893],[23.06655,56.55109,85.6775],[23.08801,56.54573,105.8053],[23.08622,56.52428,107.5845],[23.0898,56.47958,72.9825],[23.12198,56.47064,66.8884],[23.12913,56.44561,74.0671],[23.1488,56.4331,78.5999],[23.17204,56.45097,64.3263],[23.21495,56.45455,50.5522],[23.27573,56.45455,53.6248],[23.3097,56.45991,58.2901],[23.28825,56.46885,48.8167],[23.27394,56.49031,48.9768],[23.31506,56.51355,44.8151],[23.35618,56.54573,29.2914],[23.383,56.54573,26.4722],[23.39373,56.51891,29.0979],[23.41509,56.4933,25.4395]]]}}