{"type":"Feature","properties":{"GID_2":"LVA.5.2_1","GID_0":"LVA","country":"Latvia","GID_1":"LVA.5_1","province":"Zemgale","NL_NAME_1":"NA","county":"Bauska","VARNAME_2":"NA","NL_NAME_2":"NA","TYPE_2":"Aprinki|rajoni","ENGTYPE_2":"District","CC_2":"NA","HASC_2":"LV.BU","name":"Bauska.county"},
"geometry":{"type": "MultiPolygon","coordinates": [[[[24.505,56.7317,52.7977],[24.4805,56.7326,46.5954],[24.48,56.7281,60.4672],[24.4637,56.7287,48.6526],[24.4631,56.7242,47.2005],[24.455,56.7245,47.0518],[24.4539,56.7156,36.438],[24.4457,56.7159,40.8251],[24.4452,56.7114,37.6356],[24.437,56.7117,51.6356],[24.436,56.7027,44.1921],[24.4278,56.703,50.0281],[24.4273,56.6985,53.8377],[24.4191,56.6988,48.3796],[24.4186,56.6944,48.2455],[24.4022,56.695,38.6528],[24.4017,56.6905,41.4169],[24.3691,56.6917,30.3647],[24.3685,56.6872,24.7407],[24.3522,56.6878,49.8797],[24.3517,56.6833,51.2466],[24.368,56.6827,43.1383],[24.3675,56.6782,27.11],[24.3267,56.6797,31.3877],[24.3272,56.6842,29.8784],[24.3191,56.6844,21.077],[24.3196,56.6889,27.0878],[24.2951,56.6898,18.1274],[24.2956,56.6943,20.4753],[24.2875,56.6946,26.7807],[24.288,56.6991,14.2188],[24.2553,56.7002,37.196],[24.2558,56.7047,25.7818],[24.2477,56.705,21.0466],[24.2492,56.7184,15.9148],[24.2411,56.7187,12.4555],[24.24,56.7097,38.2345],[24.2319,56.71,21.1533],[24.2314,56.7055,27.083],[24.2232,56.7058,27.5957],[24.2227,56.7013,24.8167],[24.1847,56.7027,38.1242],[24.1821,56.7045,29.9673],[24.1824,56.7072,26.9994],[24.1742,56.7075,29.1121],[24.1737,56.703,25.7024],[24.1817,56.7015,34.4793],[24.1814,56.6983,34.1957],[24.1569,56.6991,17.2656],[24.1564,56.6946,23.2049],[24.1727,56.6941,20.4535],[24.1717,56.6851,20.3622],[24.1391,56.6862,35.7169],[24.1386,56.6817,18.1223],[24.1222,56.6823,17.5929],[24.1227,56.6868,19.3835],[24.1064,56.6873,14.7764],[24.1069,56.6918,11.9385],[24.0987,56.6921,9.7461],[24.1002,56.7055,11.8655],[24.0921,56.7058,21.9256],[24.0911,56.6969,9.518],[24.0748,56.6974,8.9271],[24.0752,56.7019,9.4365],[24.0589,56.7024,7.7898],[24.0594,56.7069,23.4722],[24.0512,56.7072,22.4597],[24.0478,56.6758,24.2086],[24.056,56.6755,5.8012],[24.055,56.6666,8.8363],[24.0142,56.6679,15.3574],[24.0152,56.6769,9.7702],[24.007,56.6772,10.7077],[24.0075,56.6816,25.4987],[23.9993,56.6819,13.0017],[23.9974,56.664,7.0133],[24.0382,56.6626,15.587],[24.0372,56.6536,6.1575],[24.0617,56.6528,14.922],[24.0612,56.6483,26.5456],[24.0531,56.6486,21.1419],[24.0526,56.6441,13.2203],[24.0444,56.6444,8.9461],[24.0439,56.6399,5.5692],[24.0684,56.6391,7.0033],[24.0669,56.6257,10.8098],[24.0751,56.6254,12.1329],[24.0746,56.6209,6.1391],[24.0664,56.6212,19.511],[24.0659,56.6167,24.5167],[24.0496,56.6172,24.1533],[24.0501,56.6217,20.4557],[24.042,56.622,26.3047],[24.0405,56.6085,11.5723],[24.0242,56.6091,12.3424],[24.0257,56.6225,24.2776],[24.0094,56.6231,9.8847],[24.0089,56.6186,22.0022],[24.0171,56.6183,14.2617],[24.0151,56.6004,6.6077],[24.0396,56.5996,9.4883],[24.0386,56.5906,7.5923],[24.0467,56.5903,17.6146],[24.0462,56.5858,8.747],[24.0544,56.5856,16.092],[24.0549,56.59,25.3634],[24.0956,56.5887,14.9504],[24.0961,56.5932,13.423],[24.1042,56.5929,13.3284],[24.1205,56.5923,16.1018],[24.12,56.5878,18.7164],[24.1281,56.5876,16.2883],[24.1276,56.5831,15.0873],[24.1195,56.5834,14.9405],[24.119,56.5789,31.6623],[24.1109,56.5792,20.0989],[24.1104,56.5747,22.9436],[24.1022,56.5749,21.0157],[24.0998,56.5525,20.8522],[24.0835,56.5531,35.1782],[24.083,56.5486,27.6808],[24.0749,56.5489,37.7837],[24.0734,56.5354,18.6408],[24.0653,56.5357,13.0637],[24.0648,56.5312,16.0236],[24.0567,56.5315,10.7517],[24.0547,56.5135,15.351],[24.0466,56.5138,12.9746],[24.0461,56.5093,13.562],[24.0136,56.5104,7.7538],[24.0127,56.5014,11.3516],[23.9883,56.5023,7.0545],[23.9897,56.5157,7.165],[23.9735,56.5162,12.2838],[23.973,56.5118,13.4063],[23.9487,56.5126,12.6744],[23.9468,56.4946,17.0706],[23.9224,56.4954,18.0189],[23.921,56.482,19.8391],[23.8966,56.4827,19.5688],[23.8962,56.4783,21.0198],[23.8881,56.4785,21.0153],[23.8876,56.474,22.2236],[23.8795,56.4743,21.9256],[23.8799,56.4788,20.7231],[23.8718,56.479,20.9454],[23.8709,56.4701,19.5324],[23.8628,56.4703,21.6372],[23.8609,56.4524,22.575],[23.8447,56.4529,24.3792],[23.8433,56.4394,27.1094],[23.8596,56.4389,25.1268],[23.8586,56.43,27.8144],[23.8505,56.4302,28.0441],[23.8496,56.4212,29.3869],[23.8415,56.4215,30.4045],[23.8411,56.417,30.8696],[23.8492,56.4168,31.3355],[23.8487,56.4123,30.7297],[23.8325,56.4128,42.3296],[23.8311,56.3993,35.4158],[23.8473,56.3988,42.0408],[23.8478,56.4033,32.9988],[23.8802,56.4023,30.6389],[23.8797,56.3978,31.5188],[23.8716,56.398,35.6989],[23.867,56.3532,37.1049],[23.8589,56.3534,37.6121],[23.8571,56.3355,41.0114],[23.8894,56.3345,39.0064],[23.8899,56.3389,39.3437],[23.9222,56.3379,38.5399],[23.9218,56.3334,43.1622],[24.0188,56.3302,44.3701],[24.0183,56.3257,48.6066],[24.0264,56.3255,36.8335],[24.0259,56.321,38.1843],[24.034,56.3207,37.1691],[24.0335,56.3162,37.6654],[24.0416,56.3159,37.1387],[24.0411,56.3115,38.34],[24.0492,56.3112,37.6426],[24.0482,56.3022,38.5443],[24.0563,56.3019,38.3189],[24.0558,56.2975,40.108],[24.0639,56.2972,39.3574],[24.062,56.2792,46.3878],[24.1023,56.2779,38.1689],[24.1019,56.2734,41.8574],[24.1099,56.2731,38.8024],[24.1094,56.2686,39.0616],[24.1175,56.2683,38.2945],[24.117,56.2639,38.3259],[24.1332,56.2633,38.488],[24.1327,56.2588,40.846],[24.1891,56.2569,36.0914],[24.1896,56.2613,37.0332],[24.2058,56.2608,37.1198],[24.2063,56.2653,35.9998],[24.2143,56.265,36.2949],[24.2148,56.2695,37.2324],[24.2229,56.2692,44.1967],[24.2234,56.2737,40.7694],[24.2396,56.2731,35.7826],[24.2401,56.2776,35.3386],[24.2481,56.2773,39.0312],[24.2486,56.2818,42.3136],[24.2648,56.2812,35.2794],[24.2653,56.2857,34.5494],[24.2734,56.2854,34.01],[24.2739,56.2899,34.6912],[24.29,56.2893,30.7578],[24.2905,56.2938,30.7861],[24.2986,56.2935,28.7056],[24.2991,56.298,24.3531],[24.3395,56.2965,18.6431],[24.339,56.2921,23.744],[24.3551,56.2915,27.7268],[24.3546,56.287,26.4182],[24.3707,56.2864,27.6614],[24.3702,56.2819,28.4915],[24.3783,56.2816,28.1805],[24.3778,56.2771,28.4851],[24.4101,56.276,29.8197],[24.4095,56.2715,27.3759],[24.4176,56.2712,29.2845],[24.4171,56.2667,36.0526],[24.4332,56.2661,29.1563],[24.4327,56.2616,29.753],[24.4408,56.2613,29.4404],[24.4402,56.2568,30.1222],[24.4564,56.2562,30.4418],[24.4569,56.2607,31.2291],[24.473,56.2601,31.82],[24.4735,56.2646,30.3704],[24.4816,56.2643,31.9948],[24.4821,56.2688,31.2779],[24.4983,56.2682,32.9033],[24.4988,56.2727,34.266],[24.515,56.2721,34.2193],[24.5155,56.2765,34.0979],[24.5316,56.2759,40.6695],[24.5322,56.2804,45.2151],[24.5564,56.2795,38.3643],[24.5569,56.284,51.1378],[24.565,56.2837,37.962],[24.5655,56.2882,38.8742],[24.5736,56.2879,39.2036],[24.5741,56.2923,38.4881],[24.5822,56.292,49.1001],[24.5838,56.3055,48.1684],[24.5758,56.3058,39.3525],[24.5769,56.3147,37.2546],[24.5849,56.3144,39.2109],[24.586,56.3234,37.5316],[24.5941,56.3231,39.1037],[24.5947,56.3276,38.3385],[24.6027,56.3273,54.3184],[24.6033,56.3317,38.5075],[24.6114,56.3314,38.3556],[24.6119,56.3359,35.4064],[24.62,56.3356,40.9398],[24.6211,56.3446,32.0821],[24.6292,56.3443,40.228],[24.6308,56.3577,34.9194],[24.6389,56.3574,41.7941],[24.64,56.3664,42.0475],[24.6481,56.3661,42.2097],[24.6487,56.3705,42.6877],[24.6648,56.3699,46.1209],[24.6654,56.3744,42.2216],[24.6897,56.3734,46.656],[24.6902,56.3779,30.8066],[24.7064,56.3773,49.0181],[24.707,56.3818,48.258],[24.715,56.3815,49.6608],[24.7173,56.3994,48.8468],[24.7092,56.3997,48.4312],[24.7098,56.4042,36.6956],[24.7017,56.4045,44.7841],[24.7022,56.409,47.1075],[24.686,56.4096,48.8757],[24.6888,56.432,56.1778],[24.6969,56.4317,48.1552],[24.6975,56.4362,50.9618],[24.7056,56.4359,59.6916],[24.7062,56.4404,49.3076],[24.7143,56.44,54.6056],[24.7154,56.449,52.3488],[24.7397,56.448,44.2724],[24.7408,56.457,56.4866],[24.7327,56.4573,66.4411],[24.7333,56.4618,53.5928],[24.7252,56.4621,48.8531],[24.7257,56.4666,49.9407],[24.7095,56.4672,48.5201],[24.7101,56.4717,50.6352],[24.6939,56.4724,50.3982],[24.6944,56.4768,60.0375],[24.662,56.4781,47.7864],[24.6642,56.496,44.9802],[24.6561,56.4963,42.0016],[24.6572,56.5053,44.8889],[24.6491,56.5056,40.4635],[24.6497,56.5101,43.5376],[24.6415,56.5104,38.4994],[24.6426,56.5194,41.4514],[24.6508,56.5191,43.4915],[24.653,56.537,38.2969],[24.6449,56.5373,37.5896],[24.646,56.5463,43.8705],[24.6541,56.5459,37.0335],[24.6563,56.5639,39.6829],[24.6401,56.5645,33.572],[24.6406,56.569,38.0538],[24.6488,56.5687,40.1612],[24.6499,56.5776,54.3883],[24.6661,56.577,46.371],[24.6667,56.5815,48.086],[24.6911,56.5805,49.8318],[24.6917,56.585,47.9119],[24.6835,56.5853,68.1377],[24.6847,56.5943,56.5043],[24.6521,56.5956,50.0011],[24.6527,56.6,55.0932],[24.6608,56.5997,63.6245],[24.6614,56.6042,48.6853],[24.6695,56.6039,52.5281],[24.6701,56.6084,51.1984],[24.6457,56.6093,42.7243],[24.6451,56.6048,40.3364],[24.6125,56.6061,36.0629],[24.6131,56.6106,36.1574],[24.6049,56.6109,36.1532],[24.6055,56.6154,36.342],[24.5974,56.6157,49.5116],[24.5979,56.6201,60.9651],[24.5898,56.6205,46.4426],[24.5914,56.6339,35.026],[24.5833,56.6342,36.5737],[24.5844,56.6432,35.0379],[24.5762,56.6435,41.3724],[24.5779,56.6569,36.1451],[24.5697,56.6572,41.6383],[24.5719,56.6752,56.6383],[24.5801,56.6749,58.6363],[24.5806,56.6793,56.3139],[24.5888,56.679,65.4914],[24.5893,56.6835,54.049],[24.6057,56.6829,43.6015],[24.6062,56.6874,56.9863],[24.6307,56.6864,54.1274],[24.6329,56.7044,53.4432],[24.6248,56.7047,52.9181],[24.627,56.7226,49.1877],[24.6025,56.7235,48.8154],[24.6019,56.7191,44.9641],[24.5448,56.7212,50.7355],[24.5442,56.7167,60.4248],[24.5197,56.7176,51.3937],[24.5203,56.7221,49.8828],[24.5121,56.7224,50.6654],[24.5127,56.7269,46.8606],[24.5045,56.7272,45.178],[24.505,56.7317,52.7977]]]]}}