{"type": "Feature","id": "1079","bbox": [23.98131,56.25745,24.57277,56.53679],"geometry": {"type": "Polygon","coordinates": [[[24.38062,56.52964,43.4513],[24.34486,56.53679,23.465699999999998],[24.30016,56.535,28.7591],[24.25189,56.51891,32.7899],[24.23401,56.50103,39.9603],[24.19468,56.50997,28.4524],[24.17323,56.51712,26.6275],[24.14999,56.52428,21.4674],[24.10529,56.52964,19.2586],[24.07887,56.53546,20.0961],[24.08094,56.52745,36.4647],[24.0429,56.50283,12.1472],[24.03174,56.50172,6.9381],[24.01774,56.50201,11.998],[24.0302,56.47779,17.3349],[24.03556,56.4474,29.6612],[24.03735,56.42594,34.4499],[24.06417,56.41522,23.3836],[24.11423,56.40091,27.1656],[24.15535,56.38661,27.8316],[24.12674,56.36873,25.7789],[24.09099,56.38304,25.6691],[24.06774,56.38304,24.6606],[24.07311,56.36337,33.0806],[24.04093,56.35085,30.9143],[24.03556,56.33119,35.0356],[24.00875,56.32225,45.3724],[23.98131,56.3124,37.8011],[24.07515,56.27119,41.2091],[24.10864,56.2607,39.9366],[24.13892,56.25745,51.6074],[24.14042,56.2576,51.6074],[24.16682,56.26031,37.1458],[24.28764,56.29553,31.1274],[24.31855,56.29858,21.436],[24.35079,56.29155,27.4468],[24.41435,56.26551,28.2484],[24.44722,56.26052,30.2429],[24.48133,56.26884,30.2558],[24.539,56.28762,38.1116],[24.55791,56.29858,37.2186],[24.57277,56.30981,55.174],[24.52901,56.32225,25.7588],[24.48074,56.30973,36.0602],[24.46822,56.33119,32.284],[24.49146,56.3437,55.668],[24.50577,56.36158,35.3542],[24.45213,56.36695,47.8636],[24.44677,56.38125,36.6162],[24.5147,56.39734,55.7658],[24.5308,56.40985,55.5402],[24.51292,56.45455,43.1214],[24.47358,56.48315,33.953],[24.43783,56.47422,25.1261],[24.4271,56.49388,27.1985],[24.40028,56.50997,30.0374],[24.38062,56.52964,43.4513]]]}
,"properties": {"ISO3166-1-Alpha-3": "LVA","country": "Latvia","fill": "#F0F","name": "Bauska","area_km2": 751.7504,"hist_schema_id": "Elevation0-9000","hist_area_km2": {"0": 6.6204,"25": 619.4421,"50": 125.4648,"75": 0.2231}}}