{"type":"Feature","properties":{"ISO3166-1-Alpha-3":"LVA","country":"Latvia","fill":"#FF0","id":"5736","name":"Iecavas"},
"geometry":{"type": "Polygon","coordinates": [[[24.35536,56.66156,26.0812],[24.33586,56.66362,24.5678],[24.29457,56.67546,32.5963],[24.27473,56.68396,24.8577],[24.26341,56.69044,22.4306],[24.25783,56.70119,30.2514],[24.24568,56.70367,16.0159],[24.23046,56.69942,27.711],[24.2091,56.69346,21.4003],[24.19587,56.69153,22.1447],[24.18471,56.69256,14.783],[24.17943,56.69044,29.6403],[24.1737,56.68512,20.3622],[24.17246,56.6785,30.2762],[24.16021,56.67011,25.4387],[24.14858,56.66807,21.8473],[24.13101,56.66827,17.9487],[24.11799,56.67137,12.4592],[24.08714,56.68207,13.3297],[24.03391,56.68822,16.3391],[24.04213,56.66124,13.3136],[24.03453,56.65949,16.1225],[24.02347,56.65851,9.9461],[24.01774,56.66274,11.9891],[24.0089,56.66621,8.9131],[24.00673,56.66476,5.6985],[24.00999,56.65887,5.0523],[24.03639,56.64148,7.9981],[24.04616,56.63776,4.447],[24.05097,56.63525,4.2976],[24.05035,56.63184,4.307],[24.0519,56.62796,10.1143],[24.05515,56.62378,11.8651],[24.05748,56.61908,15.6079],[24.04911,56.61099,16.5765],[24.03934,56.60879,23.5917],[24.03004,56.60879,19.7136],[24.02647,56.60784,8.4698],[24.02658,56.60275,2.4457],[24.04089,56.59241,9.3709],[24.05562,56.58575,16.092],[24.08156,56.5819,20.7804],[24.09427,56.58177,32.3996],[24.10667,56.58037,19.795],[24.11024,56.57494,22.9436],[24.10528,56.56396,31.8615],[24.08838,56.55076,33.9479],[24.07887,56.53546,20.0961],[24.10529,56.52964,19.2586],[24.14999,56.52428,21.4674],[24.17323,56.51712,26.6275],[24.19468,56.50997,28.4524],[24.23401,56.50103,39.9603],[24.25189,56.51891,32.7899],[24.30016,56.535,28.7591],[24.34486,56.53679,23.465699999999998],[24.38062,56.52964,43.4513],[24.38777,56.55288,26.7501],[24.34844,56.5654,33.8024],[24.32162,56.56361,23.5844],[24.3091,56.61188,41.4388],[24.3681,56.61903,50.0869],[24.35536,56.66156,26.0812]]]}}