{"type":"Feature","properties":{"ISO3166-1-Alpha-3":"LVA","country":"Latvia","fill":"#00F","id":"5772","name":"Olaines"},
"geometry":{"type": "MultiPolygon","coordinates": [[[[24.2091,56.69346,21.4003],[24.23046,56.69942,27.711],[24.20541,56.71379,22.3306],[24.18817,56.71794,39.6704],[24.14558,56.72821,13.9361],[24.03556,56.72094,8.1375],[24.00813,56.70998,6.0693],[24.00069,56.69564,6.1936],[24.03391,56.68822,16.3391],[24.08714,56.68207,13.3297],[24.11799,56.67137,12.4592],[24.13101,56.66827,17.9487],[24.14858,56.66807,21.8473],[24.16021,56.67011,25.4387],[24.17246,56.6785,30.2762],[24.1737,56.68512,20.3622],[24.17943,56.69044,29.6403],[24.18471,56.69256,14.783],[24.19587,56.69153,22.1447],[24.2091,56.69346,21.4003]]],
[[[24.06625,56.88612,14.0217],[24.03556,56.86754,12.3027],[24.01232,56.85145,11.388],[23.96763,56.84966,11.1551],[23.88539,56.84251,13.2271],[23.85499,56.82642,8.9821],[23.8246,56.80318,7.2957],[23.78169,56.82106,12.4922],[23.76964,56.80005,31.3071],[23.75972,56.77188,16.9698],[23.76421,56.76827,17.8391],[23.75631,56.74413,9.2112],[23.76747,56.73793,15.2342],[23.7839,56.73209,24.3641],[23.80127,56.72954,26.2797],[23.81124,56.73256,9.0518],[23.81822,56.7355,7.6911],[23.82829,56.73814,11.4032],[23.9009,56.74584,4.7728],[23.91289,56.74543,3.6242],[23.91955,56.74214,4.8087],[23.92498,56.73411,4.9833],[23.93521,56.73124,8.5359],[23.94141,56.72858,6.0438],[23.99634,56.73049,13.1857],[24.00436,56.73765,13.102],[24.00517,56.76206,10.3121],[24.03556,56.76742,7.0073],[24.08562,56.76206,6.9185],[24.08741,56.77994,7.809],[24.11423,56.80139,16.6455],[24.12317,56.82106,27.1146],[24.1035,56.83536,20.6258],[24.09099,56.84609,10.7334],[24.08815,56.87613,12.3679],[24.07081,56.8725,13.2668],[24.06625,56.88612,14.0217]]]]}}