{"type": "Feature","id": "4851","bbox": [27.27428,56.47491,27.36554,56.56076],"geometry": {"type": "Polygon","coordinates": [[[27.33907,56.47491,152.4609],[27.3555,56.49498,156.3563],[27.36097,56.52054,148.7583],[27.36554,56.53879,165.3164],[27.36371,56.55522,153.9295],[27.34017,56.56076,156.9279],[27.31006,56.55335,147.6343],[27.27428,56.51555,141.5096],[27.28464,56.48966,144.1263],[27.33907,56.47491,152.4609]]]}
,"properties": {"ISO3166-1-Alpha-3": "LVA","country": "Latvia","fill": "#F0F","name": "Rezekne","area_km2": 36.89095,"hist_schema_id": "Elevation0-9000","hist_area_km2": {"125": 8.08273,"150": 26.97207,"175": 1.82445,"200": 0.01169}}}