{"type":"Feature","properties":{"GID_2":"LVA.2.6_1","GID_0":"LVA","country":"Latvia","GID_1":"LVA.2_1","province":"Latgale","NL_NAME_1":"NA","county":"Rezekne","VARNAME_2":"Rositten|Ryezhitsa(Russian-obso","NL_NAME_2":"NA","TYPE_2":"Aprinki|rajoni","ENGTYPE_2":"District","CC_2":"NA","HASC_2":"LV.RZ","name":"Rezekne.county"},
"geometry":{"type": "MultiPolygon","coordinates": [[[[27.6295,56.4122,165.9973],[27.6286,56.4078,161.8344],[27.6367,56.4073,158.2259],[27.6376,56.4117,168.3683],[27.6295,56.4122,165.9973]]],
[[[26.9309,56.8293,95.4512],[26.9318,56.8338,93.1201],[26.9236,56.8342,93.0957],[26.9219,56.8253,96.0143],[26.9138,56.8258,92.8915],[26.9112,56.8124,91.788],[26.9031,56.8128,91.1522],[26.9022,56.8084,91.0359],[26.8941,56.8088,90.5],[26.8924,56.7999,90.5],[26.8843,56.8004,90.7871],[26.8826,56.7914,90.5],[26.8744,56.7919,91.3704],[26.8728,56.783,90.8294],[26.8646,56.7834,90.9471],[26.863,56.7745,90.5],[26.8548,56.7749,90.5],[26.8532,56.766,90.5],[26.845,56.7665,90.5],[26.8434,56.7575,90.5],[26.8352,56.758,90.5],[26.8344,56.7535,91.2823],[26.8262,56.754,91.6149],[26.8254,56.7495,90.5],[26.8173,56.75,90.5],[26.8164,56.7455,90.5],[26.8083,56.746,90.5],[26.8075,56.7415,90.5],[26.7993,56.742,90.5],[26.7985,56.7375,90.5],[26.7903,56.7379,90.6771],[26.7895,56.7335,90.7106],[26.7814,56.7339,90.8393],[26.7806,56.7295,90.7152],[26.7724,56.7299,91.8084],[26.7716,56.7255,91.9422],[26.7797,56.725,90.5],[26.7789,56.7205,90.5],[26.7708,56.721,92.0672],[26.7692,56.712,92.054],[26.7773,56.7116,91.3992],[26.7781,56.7161,91.8617],[26.8025,56.7147,90.7046],[26.8009,56.7058,95.0401],[26.7928,56.7062,92.8114],[26.7903,56.6928,95.5755],[26.7822,56.6933,95.8534],[26.7805,56.6843,107.0576],[26.7724,56.6848,94.1043],[26.7716,56.6803,96.4764],[26.7635,56.6808,100.2856],[26.7618,56.6718,97.4915],[26.7781,56.6709,99.5325],[26.7765,56.662,93.6306],[26.7846,56.6615,97.9665],[26.783,56.6526,96.129],[26.7911,56.6521,99.0422],[26.7903,56.6477,95.2956],[26.7822,56.6481,97.8437],[26.7813,56.6437,100.9325],[26.7732,56.6441,98.0097],[26.7716,56.6352,106.6767],[26.7797,56.6347,99.9504],[26.7773,56.6213,97.53],[26.7935,56.6204,100.742],[26.7927,56.6159,102.8408],[26.8008,56.6155,100.0633],[26.8,56.611,100.3287],[26.7838,56.6119,99.2948],[26.7829,56.6075,99.2881],[26.7748,56.6079,105.1773],[26.774,56.6034,101.996],[26.7659,56.6039,99.6687],[26.7651,56.5994,102.2213],[26.7407,56.6008,108.6791],[26.7375,56.5829,104.8893],[26.7294,56.5834,106.5427],[26.7278,56.5744,118.9274],[26.744,56.5735,104.7576],[26.7432,56.5691,109.8111],[26.7594,56.5681,114.6907],[26.7578,56.5592,111.9221],[26.7659,56.5588,112.1101],[26.7651,56.5543,106.4867],[26.7975,56.5525,108.3038],[26.7967,56.548,110.3899],[26.8048,56.5475,111.1306],[26.804,56.5431,113.6176],[26.8121,56.5426,122.7926],[26.8105,56.5337,118.3522],[26.7943,56.5346,114.2878],[26.7935,56.5301,122.2954],[26.7854,56.5306,116.7457],[26.7845,56.5261,115.2345],[26.7683,56.527,113.3737],[26.7675,56.5225,113.475],[26.7594,56.523,111.776],[26.7586,56.5185,113.6191],[26.791,56.5167,130.8405],[26.7894,56.5078,117.869],[26.7975,56.5073,123.8417],[26.7967,56.5029,116.3151],[26.8048,56.5024,118.3919],[26.8056,56.5069,121.5804],[26.8299,56.5055,120.2838],[26.8307,56.51,120.6881],[26.8388,56.5095,118.8725],[26.8363,56.4961,120.7774],[26.8444,56.4956,123.6578],[26.8436,56.4912,118.8178],[26.8922,56.4884,125.5166],[26.893,56.4929,124.9733],[26.9173,56.4915,127.3943],[26.9165,56.487,141.3223],[26.9407,56.4856,130.8741],[26.9374,56.4677,131.634],[26.9293,56.4682,136.0996],[26.9302,56.4727,139.083],[26.9221,56.4731,144.1374],[26.9204,56.4642,137.6443],[26.9123,56.4647,140.8952],[26.9107,56.4557,142.6264],[26.9026,56.4562,144.82],[26.8977,56.4294,133.0912],[26.8896,56.4298,134.2503],[26.8888,56.4254,131.3732],[26.8807,56.4258,131.4039],[26.879,56.4169,134.5735],[26.8952,56.416,130.7249],[26.8944,56.4115,129.7072],[26.9024,56.4111,138.4129],[26.9016,56.4066,131.6414],[26.9178,56.4057,143.9912],[26.9169,56.4012,136.9816],[26.925,56.4007,137.8488],[26.9242,56.3963,137.9475],[26.9323,56.3958,136.9358],[26.9306,56.3869,141.0614],[26.9468,56.3859,135.8004],[26.9443,56.3725,148.2353],[26.9604,56.3716,150.9882],[26.9588,56.3626,162.8618],[26.9668,56.3622,158.341],[26.9652,56.3532,156.4449],[26.9732,56.3528,157.4044],[26.9724,56.3483,159.0052],[26.9805,56.3478,158.7291],[26.9796,56.3434,159.5159],[26.9877,56.3429,160.8225],[26.986,56.334,156.4062],[26.978,56.3344,157.5344],[26.9771,56.33,162.8175],[26.9691,56.3304,163.7318],[26.9683,56.326,164.7324],[26.9521,56.3269,167.7841],[26.9538,56.3358,158.9968],[26.9377,56.3368,160.5244],[26.9368,56.3323,158.5074],[26.9288,56.3328,160.7238],[26.928,56.3283,159.1591],[26.936,56.3278,157.5293],[26.9344,56.3189,160.166],[26.9424,56.3184,154.2886],[26.9416,56.314,157.6337],[26.9336,56.3144,162.9684],[26.9311,56.301,165.0391],[26.9472,56.3001,160.4952],[26.948,56.3046,159.6833],[26.9561,56.3041,161.8792],[26.9552,56.2996,168.0293],[26.9633,56.2992,160.5616],[26.9625,56.2947,161.0573],[26.9705,56.2942,160.4101],[26.9697,56.2898,160.8432],[26.9777,56.2893,158.3572],[26.9769,56.2848,161.5905],[26.985,56.2844,163.4453],[26.9841,56.2799,155.3092],[27.0002,56.279,154.0],[26.9994,56.2745,154.0],[27.0074,56.274,154.0],[27.0058,56.2651,163.7614],[26.9977,56.2656,163.526],[26.9969,56.2611,162.6261],[26.9889,56.2616,159.9899],[26.9872,56.2526,175.5685],[26.9952,56.2522,171.5623],[26.9936,56.2432,164.3106],[27.0097,56.2423,167.8846],[27.0088,56.2378,183.2907],[27.0169,56.2373,171.698],[27.0152,56.2284,164.0005],[27.0313,56.2275,164.5327],[27.0281,56.2231,157.3109],[27.0224,56.2235,158.5077],[27.0208,56.2145,163.262],[27.0288,56.2141,165.5485],[27.0296,56.2185,161.7622],[27.0328,56.2229,166.5761],[27.0385,56.2225,162.4548],[27.0377,56.2181,156.2166],[27.0457,56.2176,160.5235],[27.044,56.2086,147.0791],[27.0521,56.2082,154.9606],[27.0512,56.2037,149.5138],[27.0592,56.2032,171.2599],[27.0584,56.1988,172.8899],[27.0452,56.1995,144.5],[27.0432,56.2042,148.8064],[27.0352,56.2047,161.1071],[27.0343,56.2002,144.5],[27.0401,56.1998,144.5],[27.0415,56.1952,144.5],[27.0399,56.1863,144.5],[27.0559,56.1854,170.0107],[27.0576,56.1943,144.5],[27.0656,56.1938,176.2082],[27.0648,56.1894,158.3188],[27.0728,56.1889,159.5522],[27.072,56.1844,173.5614],[27.08,56.1839,155.4096],[27.0808,56.1884,157.385],[27.0889,56.1879,153.7395],[27.088,56.1835,157.6015],[27.096,56.183,144.5],[27.0952,56.1785,156.3914],[27.1032,56.178,144.5],[27.1024,56.1736,144.5],[27.1104,56.1731,157.7874],[27.1129,56.1865,161.1479],[27.1049,56.187,163.743],[27.1066,56.1959,144.5],[27.1146,56.1954,155.8052],[27.1138,56.191,144.5],[27.1218,56.1905,154.6495],[27.1235,56.1994,156.7319],[27.1315,56.1989,172.8645],[27.1324,56.2034,187.6106],[27.1404,56.2029,177.2641],[27.1395,56.1985,186.4592],[27.1476,56.198,174.1263],[27.1501,56.2114,162.5],[27.1581,56.2109,181.4663],[27.1598,56.2198,165.3946],[27.1679,56.2194,166.3424],[27.167,56.2149,169.2347],[27.1831,56.2139,159.114],[27.1822,56.2095,163.8827],[27.1903,56.209,162.7276],[27.1911,56.2134,166.0619],[27.1991,56.213,158.8468],[27.1983,56.2085,160.6462],[27.2143,56.2075,162.5078],[27.2152,56.212,167.7619],[27.2313,56.211,179.1132],[27.2321,56.2155,170.162],[27.2401,56.215,162.4983],[27.2482,56.2145,178.5982],[27.2473,56.21,164.2639],[27.2634,56.2091,174.743],[27.2625,56.2046,175.4508],[27.2786,56.2036,179.4255],[27.2794,56.2081,172.5078],[27.2955,56.2071,165.1531],[27.2964,56.2116,166.1407],[27.3044,56.2111,172.2765],[27.3035,56.2066,179.9403],[27.3115,56.2061,174.4289],[27.3124,56.2106,176.9377],[27.3204,56.2101,168.3906],[27.3213,56.2146,158.4973],[27.3534,56.2126,214.1546],[27.3543,56.2171,184.1541],[27.3864,56.2151,175.4075],[27.3855,56.2106,176.5883],[27.3936,56.2101,170.1565],[27.3927,56.2057,164.0],[27.4007,56.2052,164.0],[27.4016,56.2096,184.3056],[27.4257,56.2081,171.0537],[27.4266,56.2126,164.0],[27.4346,56.2121,169.1397],[27.4355,56.2166,178.2234],[27.4435,56.2161,176.0267],[27.4426,56.2116,176.5756],[27.4506,56.2111,180.3246],[27.4515,56.2156,188.4896],[27.4595,56.2151,194.3307],[27.4613,56.224,189.3091],[27.4453,56.225,178.4247],[27.4461,56.2295,178.8734],[27.4381,56.23,183.7418],[27.4399,56.2389,201.0181],[27.4961,56.2354,205.1962],[27.497,56.2398,194.5174],[27.505,56.2393,219.8062],[27.5059,56.2438,197.8149],[27.5139,56.2433,224.6063],[27.5148,56.2477,213.6126],[27.5309,56.2467,209.3001],[27.5345,56.2646,183.3222],[27.5505,56.2636,196.3986],[27.5479,56.2502,199.1671],[27.5719,56.2487,214.5093],[27.5729,56.2531,213.5157],[27.5809,56.2526,213.8628],[27.5791,56.2437,210.9646],[27.5952,56.2427,250.9419],[27.5961,56.2471,244.5834],[27.6121,56.2461,231.0163],[27.613,56.2506,239.555],[27.6291,56.2496,235.4506],[27.63,56.254,254.8377],[27.6461,56.253,222.4215],[27.647,56.2575,230.9416],[27.663,56.2564,215.8483],[27.6621,56.252,233.0259],[27.6702,56.2514,203.6953],[27.6692,56.247,209.039],[27.6773,56.2465,198.1473],[27.6791,56.2554,205.1518],[27.6871,56.2549,200.7397],[27.688,56.2593,188.6958],[27.6961,56.2588,185.8674],[27.6979,56.2678,203.2308],[27.6818,56.2688,220.6872],[27.6864,56.2911,213.4526],[27.6944,56.2906,197.0857],[27.6972,56.304,212.3619],[27.7133,56.3029,207.7142],[27.7151,56.3118,200.9345],[27.7231,56.3113,207.7402],[27.7241,56.3158,199.2797],[27.716,56.3163,197.6958],[27.7169,56.3208,211.8211],[27.7089,56.3213,226.2243],[27.7098,56.3257,216.8244],[27.7017,56.3263,202.992],[27.7027,56.3307,183.797],[27.6946,56.3312,186.5113],[27.6955,56.3357,190.604],[27.6875,56.3362,200.5334],[27.6948,56.3719,171.9896],[27.6867,56.3724,167.6378],[27.6886,56.3814,160.3259],[27.6402,56.3844,158.0712],[27.642,56.3934,165.4652],[27.6339,56.3939,176.015],[27.633,56.3894,173.3896],[27.625,56.3899,169.4972],[27.6259,56.3944,179.169],[27.6178,56.3949,167.8896],[27.6251,56.4306,156.1519],[27.617,56.4311,158.0847],[27.6161,56.4267,157.4513],[27.6,56.4277,159.563],[27.6018,56.4366,155.1812],[27.5856,56.4376,156.8392],[27.5865,56.4421,161.3655],[27.5785,56.4426,158.9092],[27.5803,56.4515,155.7143],[27.5722,56.452,156.229],[27.5731,56.4565,155.4514],[27.565,56.457,154.9916],[27.5668,56.4659,147.2023],[27.5587,56.4664,147.0847],[27.5596,56.4709,153.6711],[27.5516,56.4714,147.6194],[27.5525,56.4759,150.3416],[27.5605,56.4754,153.0366],[27.5623,56.4843,145.5139],[27.5462,56.4853,144.5984],[27.5453,56.4808,142.2035],[27.5372,56.4813,144.0419],[27.5354,56.4724,147.5091],[27.5192,56.4734,150.2085],[27.5183,56.469,147.3371],[27.5102,56.4695,150.7863],[27.5111,56.4739,153.3605],[27.5031,56.4744,146.6377],[27.5049,56.4834,141.7623],[27.4968,56.4839,144.9048],[27.4986,56.4928,157.644],[27.5066,56.4923,146.0291],[27.5084,56.5012,147.3388],[27.4923,56.5022,146.8509],[27.4932,56.5067,152.4024],[27.4851,56.5072,156.2808],[27.486,56.5117,152.8213],[27.4941,56.5112,154.2542],[27.4958,56.5201,151.3333],[27.4878,56.5206,144.1475],[27.4895,56.5295,142.078],[27.4976,56.529,142.1918],[27.4994,56.5379,150.2238],[27.5075,56.5374,153.5096],[27.5084,56.5419,158.045],[27.5165,56.5414,147.5694],[27.5156,56.5369,154.4277],[27.5399,56.5354,143.8274],[27.5408,56.5399,148.7865],[27.5651,56.5383,147.902],[27.5669,56.5473,145.5586],[27.575,56.5468,154.9297],[27.5759,56.5512,146.7875],[27.584,56.5507,138.1349],[27.5849,56.5552,138.2047],[27.5768,56.5557,138.5606],[27.5814,56.578,152.9114],[27.5652,56.579,144.856],[27.5679,56.5924,152.8782],[27.5598,56.5929,160.113],[27.5616,56.6018,150.4702],[27.5778,56.6008,150.2894],[27.5814,56.6187,147.9413],[27.5895,56.6182,142.9233],[27.5923,56.6315,148.7265],[27.5761,56.6326,153.1531],[27.577,56.637,154.4929],[27.5607,56.638,152.608],[27.5625,56.647,152.8436],[27.5544,56.6475,150.2979],[27.5553,56.6519,148.0919],[27.5391,56.6529,143.0477],[27.54,56.6574,143.5922],[27.5156,56.6589,146.6247],[27.5147,56.6545,143.4958],[27.5066,56.655,145.6895],[27.5057,56.6505,144.4861],[27.4895,56.6515,145.6199],[27.4904,56.656,138.3488],[27.4822,56.6565,145.9919],[27.484,56.6654,141.578],[27.4759,56.6659,133.5333],[27.4768,56.6704,129.5085],[27.4687,56.6709,131.9018],[27.4696,56.6753,142.7314],[27.4777,56.6748,128.3156],[27.4786,56.6793,123.3483],[27.4949,56.6783,129.1158],[27.4967,56.6872,126.3023],[27.4885,56.6877,124.6743],[27.4903,56.6966,129.7075],[27.4822,56.6972,126.8464],[27.4831,56.7016,128.2655],[27.4587,56.7031,132.0468],[27.4578,56.6987,134.2242],[27.4497,56.6992,139.2577],[27.4488,56.6947,139.6987],[27.4325,56.6957,141.8454],[27.4316,56.6912,153.7786],[27.4235,56.6917,151.918],[27.4226,56.6873,152.8971],[27.4063,56.6883,159.0478],[27.4055,56.6838,154.8141],[27.3892,56.6848,166.164],[27.3883,56.6803,164.7922],[27.3802,56.6808,155.5581],[27.3811,56.6853,158.9224],[27.3729,56.6858,160.0501],[27.372,56.6813,163.0439],[27.3639,56.6818,164.7937],[27.363,56.6774,176.7254],[27.3549,56.6779,163.9303],[27.354,56.6734,165.7422],[27.3459,56.6739,172.7436],[27.345,56.6694,169.8217],[27.3369,56.6699,164.1515],[27.3378,56.6744,167.8948],[27.3296,56.6749,174.792],[27.3305,56.6793,161.7551],[27.3061,56.6808,161.8041],[27.307,56.6853,161.267],[27.2908,56.6863,164.1933],[27.2916,56.6907,152.7893],[27.2835,56.6912,160.566],[27.2844,56.6957,147.9216],[27.2681,56.6967,144.7455],[27.269,56.7011,135.5631],[27.2608,56.7016,131.09],[27.2635,56.715,112.74],[27.2553,56.7155,112.4382],[27.2562,56.72,103.2766],[27.2481,56.7204,99.6585],[27.2507,56.7338,99.923],[27.2425,56.7343,99.1667],[27.2443,56.7433,104.8835],[27.2361,56.7437,98.8138],[27.2405,56.7661,98.436],[27.2487,56.7656,98.152],[27.2504,56.7745,97.3227],[27.2423,56.775,98.2009],[27.2431,56.7795,113.8987],[27.2513,56.779,111.5662],[27.2522,56.7834,106.5378],[27.2359,56.7844,105.5354],[27.2376,56.7933,95.4955],[27.2131,56.7948,103.823],[27.2123,56.7903,97.9551],[27.1878,56.7918,100.5465],[27.1887,56.7962,103.2478],[27.1724,56.7972,103.3008],[27.1741,56.8061,102.2844],[27.1578,56.8071,94.8189],[27.1586,56.8116,93.927],[27.1342,56.813,96.6397],[27.1333,56.8085,100.2798],[27.117,56.8095,93.2978],[27.1178,56.814,93.1777],[27.0852,56.8159,100.1148],[27.0843,56.8114,95.5286],[27.068,56.8124,94.2206],[27.0689,56.8168,94.6719],[27.0607,56.8173,94.2676],[27.0581,56.8039,95.9313],[27.05,56.8044,96.1171],[27.0491,56.7999,100.2826],[27.0328,56.8009,100.8148],[27.0337,56.8053,96.2035],[27.0173,56.8063,95.2094],[27.0199,56.8197,93.0436],[26.9872,56.8216,98.8487],[26.9881,56.826,93.2971],[26.9799,56.8265,93.1334],[26.9791,56.822,92.849],[26.9709,56.8225,97.1101],[26.9692,56.8136,95.4511],[26.9611,56.814,95.6429],[26.9594,56.8051,95.6601],[26.9512,56.8056,99.1915],[26.9546,56.8234,96.4146],[26.9382,56.8244,101.6687],[26.9391,56.8288,97.3547],[26.9309,56.8293,95.4512]],
[[27.5847,56.4332,154.7919],[27.5928,56.4327,157.2578],[27.5919,56.4282,161.6481],[27.5838,56.4287,159.3176],[27.5847,56.4332,154.7919]]]]}}