{"type":"Feature","properties":{"featurecla":"Lake","scalerank":9,"name":"null594","name_abb":null,"name_alt":null,"note":"_untitled_145","delta":null,"dam_name":null,"year":-99,"admin":null,"min_zoom":7.0,"min_label":8.0},
"geometry":{"type": "Polygon","coordinates": [[[27.511716879793312,56.336109156785227,173.9689],[27.503474684233623,56.349355542506146,163.4269],[27.486401564859989,56.359658286955749,167.5007],[27.47403827152047,56.36142447171855,174.8996],[27.462558070562324,56.36054137933715,163.6762],[27.45225532611272,56.361718835845664,167.7959],[27.43047238070497,56.377320134583641,163.7244],[27.420758364509624,56.377614498710784,164.5184],[27.416342902602651,56.372021580295296,163.4982],[27.421347092763881,56.362896292354208,163.5804],[27.421935821018167,56.351121727268946,177.3496],[27.401035967991817,56.34464571647203,163.4433],[27.355703892413544,56.339052798056542,163.406],[27.355703892413544,56.332282423132511,163.7787],[27.377192473694151,56.326395140589881,163.3895],[27.398975419101873,56.32374586344568,163.3047],[27.418109087365451,56.316681124394535,163.4935],[27.431061108959227,56.298136184385243,163.4539],[27.477570641046043,56.290777081206954,163.3537],[27.503180320106509,56.293426358351127,174.3102],[27.51407179281037,56.3081445647077,164.0533],[27.51407179281037,56.321685314555765,167.0545],[27.511716879793312,56.336109156785227,173.9689]]]}}