{"type": "Feature","id": "5762","bbox": [24.50873,57.05924,24.77992,57.14767],"geometry": {"type": "Polygon","coordinates": [[[24.77992,57.13515,66.9374],[24.77296,57.14767,29.4745],[24.73681,57.14767,14.0984],[24.70065,57.13794,13.2018],[24.66588,57.12542,22.8642],[24.6186,57.13237,13.2792],[24.56853,57.13794,21.5443],[24.55324,57.12403,9.7289],[24.50873,57.10595,11.8489],[24.5143,57.07953,37.9895],[24.55046,57.0837,35.6418],[24.56553,57.06,41.7702],[24.58006,57.05924,52.7304],[24.63012,57.06102,47.7029],[24.65058,57.07396,46.6146],[24.6784,57.06006,49.828],[24.7076,57.06284,52.5694],[24.75906,57.07814,65.2597],[24.74932,57.099,43.132],[24.76601,57.11568,70.484],[24.77992,57.13515,66.9374]]]}
,"properties": {"ISO3166-1-Alpha-3": "LVA","country": "Latvia","fill": "#F0F","name": "Incukalna","area_km2": 109.33354,"hist_schema_id": "Elevation0-9000","hist_area_km2": {"0": 2.1867,"25": 27.66837,"50": 71.28009,"75": 8.19838}}}