{"type":"Feature","properties":{"ISO3166-1-Alpha-3":"LVA","country":"Latvia","fill":"#00F","id":"5789","name":"Ligatnes"},
"geometry":{"type": "Polygon","coordinates": [[[25.10466,57.23352,104.008],[25.09057,57.24761,88.2051],[25.04829,57.24135,61.8319],[24.98097,57.23822,75.2786],[24.93313,57.24622,24.7615],[24.92347,57.23604,24.0859],[24.90037,57.21868,27.8148],[24.93438,57.20839,89.7526],[24.9674,57.18501,117.3066],[24.97313,57.17775,117.7059],[24.97566,57.17067,125.6325],[24.97825,57.15873,128.6442],[24.98357,57.14501,128.4404],[24.98404,57.14075,121.9949],[24.98745,57.12468,121.4815],[25.02637,57.11923,116.5687],[25.06708,57.11453,136.4783],[25.11249,57.10983,162.3151],[25.13754,57.1114,210.3727],[25.17355,57.11766,214.9638],[25.19547,57.13332,210.3629],[25.21269,57.14584,201.4377],[25.18921,57.16307,179.8458],[25.17825,57.18186,134.6525],[25.17198,57.20691,121.7564],[25.15946,57.22726,68.2098],[25.1391,57.23352,101.5123],[25.10466,57.23352,104.008]]]}}