{"type": "Feature","id": "5720","bbox": [21.25406,56.50305,21.61864,56.75676],"geometry": {"type": "Polygon","coordinates": [[[21.31589,56.7397,22.3042],[21.29244,56.75676,35.6616],[21.26046,56.7397,28.4825],[21.27325,56.70772,28.6919],[21.28818,56.68214,32.6657],[21.25833,56.65655,35.4964],[21.28178,56.61178,44.8201],[21.25406,56.58833,42.6919],[21.2562,56.53076,32.7996],[21.34787,56.54356,47.4785],[21.35427,56.50305,62.4601],[21.40757,56.5201,45.6627],[21.39904,56.55848,29.3645],[21.43315,56.54569,25.8602],[21.47366,56.5201,36.2247],[21.48219,56.51158,35.7698],[21.52909,56.51371,56.6439],[21.49924,56.55208,45.9293],[21.52909,56.57127,69.5392],[21.57173,56.56061,71.7963],[21.61864,56.58833,100.5187],[21.61864,56.61391,94.9354],[21.60798,56.64376,79.7404],[21.57173,56.65868,61.0438],[21.51843,56.65229,95.8121],[21.49072,56.65229,74.04],[21.45234,56.64589,67.2252],[21.43102,56.67361,62.4746],[21.4033,56.67148,45.6568],[21.39904,56.6928,41.7947],[21.33721,56.71838,37.8754],[21.31589,56.7397,22.3042]]]}
,"properties": {"ISO3166-1-Alpha-3": "LVA","country": "Latvia","fill": "#FF0","name": "Durbes","area_km2": 335.5545,"hist_schema_id": "Elevation0-9000","hist_area_km2": {"0": 0.0116,"25": 122.8817,"50": 146.4126,"75": 49.2093,"100": 16.7124,"125": 0.3269}}}