{"type":"Feature","properties":{"ISO3166-1-Alpha-3":"LVA","country":"Latvia","fill":"#F0F","id":"5740","name":"Auces"},
"geometry":{"type": "Polygon","coordinates": [[[22.98074,56.57791,99.0893],[22.96107,56.60115,104.5138],[22.92532,56.58864,125.0422],[22.93068,56.56897,111.0295],[22.89671,56.56718,121.6424],[22.86274,56.55288,110.1192],[22.84844,56.53858,109.8043],[22.83414,56.54037,119.2647],[22.82341,56.56182,119.402],[22.79812,56.56833,120.1768],[22.77342,56.5675,120.5763],[22.75513,56.56203,131.7104],[22.7359,56.56554,120.6971],[22.73229,56.56528,120.1041],[22.71207,56.56537,130.1199],[22.70144,56.4933,108.779],[22.74133,56.47544,105.5633],[22.7449,56.46813,99.8013],[22.74815,56.4557,100.2337],[22.74288,56.44927,100.337],[22.73663,56.44379,100.2917],[22.72655,56.42454,105.029],[22.76753,56.42183,98.2584],[22.78598,56.41842,92.7167],[22.82184,56.40271,92.563],[22.85853,56.39723,90.0433],[22.8596,56.39707,92.3493],[22.88897,56.40844,85.0912],[22.92452,56.41211,87.7776],[22.95698,56.40198,84.2911],[22.98137,56.37318,94.5649],[23.01671,56.32385,96.6914],[23.06229,56.30416,77.3999],[23.11273,56.31088,83.257],[23.16285,56.34101,77.0008],[23.15417,56.35139,72.7853],[23.17257,56.35796,82.589],[23.15237,56.39019,78.3877],[23.1184,56.40985,70.7092],[23.1488,56.4331,78.5999],[23.12913,56.44561,74.0671],[23.12198,56.47064,66.8884],[23.0898,56.47958,72.9825],[23.08622,56.52428,107.5845],[23.08801,56.54573,105.8053],[23.06655,56.55109,85.6775],[23.04153,56.57791,103.2893],[23.02186,56.59043,106.9304],[22.98074,56.57791,99.0893]]]}}