{"type":"Feature","properties":{"ISO3166-1-Alpha-3":"LVA","country":"Latvia","fill":"#00F","id":"5738","name":"Rundales"},
"geometry":{"type": "Polygon","coordinates": [[[24.01774,56.50201,11.998],[23.99231,56.50255,7.7879],[23.96265,56.49784,13.6817],[23.95009,56.48803,18.3871],[23.93211,56.48275,20.6768],[23.92002,56.47273,20.8749],[23.88602,56.46611,21.5886],[23.87501,56.46286,24.1381],[23.86168,56.44849,23.432],[23.84752,56.43883,25.3416],[23.840699999999998,56.43418,26.9757],[23.84101,56.43035,28.5335],[23.84271,56.42741,29.523],[23.85015,56.42338,29.1838],[23.85046,56.41847,31.5922],[23.84798,56.41175,38.0196],[23.84302,56.40183,34.0783],[23.83868,56.39702,35.6733],[23.83666,56.39325,36.97],[23.8362,56.38785,40.9653],[23.87392,56.38948,32.4827],[23.87935,56.38428,32.1085],[23.87361,56.37377,44.7386],[23.87082,56.36715,35.8117],[23.86865,56.34328,47.2305],[23.87103,56.33243,43.293],[23.87111,56.33207,52.202],[23.98131,56.3124,37.8011],[24.00875,56.32225,45.3724],[24.03556,56.33119,35.0356],[24.04093,56.35085,30.9143],[24.07311,56.36337,33.0806],[24.06774,56.38304,24.6606],[24.09099,56.38304,25.6691],[24.12674,56.36873,25.7789],[24.15535,56.38661,27.8316],[24.11423,56.40091,27.1656],[24.06417,56.41522,23.3836],[24.03735,56.42594,34.4499],[24.03556,56.4474,29.6612],[24.0302,56.47779,17.3349],[24.01774,56.50201,11.998]]]}}