{"type":"Feature","properties":{"ISO3166-1-Alpha-3":"LVA","country":"Latvia","fill":"#00F","id":"5784","name":"Burtnieku"},
"geometry":{"type": "Polygon","coordinates": [[[25.24557,57.8003,46.1554],[25.22365,57.80499,47.8971],[25.15789,57.83318,51.903],[25.14223,57.84414,57.9559],[25.11249,57.83787,52.3044],[25.12345,57.82691,50.1218],[25.13284,57.80813,43.0043],[25.12814,57.79873,54.9469],[25.11249,57.8003,53.5962],[25.09213,57.81282,58.5252],[25.06082,57.81282,74.6638],[25.0342,57.81439,59.7125],[25.01747,57.79647,69.5671],[25.07726,57.76717,67.6879],[25.08362,57.75415,73.7301],[25.09871,57.73601,67.3187],[25.0909,57.73126,70.8604],[25.08718,57.72717,72.7944],[25.08021,57.72123,78.8888],[25.07618,57.71451,72.3556],[25.07571,57.70594,74.6992],[25.08222,57.69689,82.5083],[25.09245,57.68824,80.3261],[25.08532,57.67462,78.5904],[25.09375,57.65312,80.8768],[25.12188,57.65312,73.3967],[25.15633,57.66252,64.6484],[25.18921,57.67348,56.3365],[25.1986,57.65469,53.8216],[25.22522,57.64843,48.9687],[25.23148,57.63903,47.5472],[25.26905,57.61555,64.1352],[25.27845,57.59363,65.685],[25.31289,57.5858,69.6996],[25.35204,57.56701,61.2749],[25.37865,57.54979,47.0477],[25.41153,57.55605,50.5143],[25.43971,57.55605,63.8907],[25.45694,57.53726,47.6947],[25.48042,57.54822,50.0563],[25.50704,57.56701,36.2447],[25.53679,57.58423,37.6489],[25.56966,57.59206,34.5129],[25.59123,57.61411,46.479],[25.57102,57.61946,53.2679],[25.5333,57.62945,62.6443],[25.5099,57.6462,72.981],[25.5302,57.65906,62.1033],[25.60098,57.66878,71.5731],[25.60098,57.69696,61.4522],[25.61194,57.70792,63.892],[25.62133,57.71888,59.5356],[25.67143,57.72045,52.5968],[25.68866,57.73767,53.9245],[25.66047,57.7502,68.4989],[25.61664,57.75802,60.7993],[25.59628,57.77368,51.1517],[25.56483,57.78265,46.0921],[25.55289,57.79239,59.8477],[25.49451,57.78934,56.5993],[25.45537,57.78934,76.7664],[25.37865,57.78777,43.9781],[25.31289,57.78308,45.6763],[25.27062,57.77838,51.6991],[25.26749,57.7956,55.9828],[25.24557,57.8003,46.1554]]]}}