{"type":"Feature","properties":{"ISO3166-1-Alpha-3":"LVA","country":"Latvia","fill":"#000","id":"5793","name":"Pargaujas"},
"geometry":{"type": "Polygon","coordinates": [[[25.09778,57.48796,62.1742],[25.07959,57.50021,88.7405],[25.06191,57.49822,88.2683],[25.05323,57.49184,95.6976],[25.04563,57.4828,89.7985],[25.01256,57.4761,93.1729],[25.00295,57.4675,83.9733],[24.98884,57.4613,83.6193],[24.98032,57.45288,67.7984],[24.88688,57.42089,77.6288],[24.87588,57.41303,54.8738],[24.84668,57.41221,56.1624],[24.81268,57.41903,71.1469],[24.7995,57.41712,71.6242],[24.79996,57.41143,80.0261],[24.83164,57.39552,71.9249],[24.85428,57.37273,65.9349],[24.87076,57.35056,62.3986],[24.87882,57.34293,75.2196],[24.88099,57.33722,69.4694],[24.90332,57.32772,52.3608],[24.90285,57.32312,60.0099],[24.90022,57.31893,47.0779],[24.88936,57.31221,46.193],[24.88874,57.30922,60.0548],[24.89805,57.3026,53.041],[24.9151,57.28937,65.9525],[24.93577,57.27826,69.8091],[24.94213,57.26751,50.03],[24.93965,57.25798,35.9812],[24.93313,57.24622,24.7615],[24.98097,57.23822,75.2786],[25.04829,57.24135,61.8319],[25.09057,57.24761,88.2051],[25.13128,57.2664,31.1551],[25.16572,57.26327,97.5781],[25.20643,57.26484,117.8159],[25.23148,57.28519,112.1271],[25.23148,57.29615,107.9114],[25.23148,57.33059,28.7302],[25.24557,57.34782,83.3557],[25.28628,57.36034,45.5528],[25.31916,57.35565,61.6311],[25.35673,57.35721,59.6315],[25.37709,57.36974,51.9612],[25.38685,57.38606,35.8721],[25.35735,57.38508,89.6155],[25.34898,57.3889,81.0642],[25.33487,57.39732,76.2154],[25.32898,57.40345,85.5029],[25.32278,57.40549,68.9471],[25.30117,57.40368,71.7265],[25.2728,57.40492,88.507],[25.23818,57.41505,81.232],[25.21074,57.41665,68.1966],[25.19689,57.42184,68.6661],[25.18464,57.43009,66.0676],[25.15968,57.44825,71.2798],[25.14056,57.46176,64.0565],[25.14087,57.47502,66.7835],[25.12305,57.49494,73.0601],[25.09778,57.48796,62.1742]]]}}