{"type": "Feature","id": "5751","bbox": [26.29311,56.12112,26.67358,56.31334],"geometry": {"type": "Polygon","coordinates": [[[26.44199,56.26578,99.3198],[26.4027,56.28232,99.524],[26.37996,56.31334,97.7498],[26.35514,56.31127,94.9848],[26.35308,56.27405,100.4944],[26.29311,56.28439,111.0218],[26.31172,56.22649,103.7033],[26.33543,56.18975,107.7326],[26.38085,56.19691,104.8488],[26.41656,56.18355,101.3657],[26.45537,56.18045,108.0796],[26.48451,56.16779,111.2475],[26.50751,56.13234,103.9868],[26.54084,56.13391,105.5794],[26.54394,56.1421,102.5126],[26.55655,56.15657,114.0019],[26.57066,56.15396,107.8423],[26.57624,56.14805,114.5409],[26.60962,56.13221,105.5916],[26.62063,56.12495,121.5473],[26.62481,56.12112,109.8455],[26.64791,56.13528,105.1478],[26.61775,56.14998,98.9221],[26.60328,56.16653,103.9369],[26.6467,56.16446,118.3628],[26.67151,56.17687,104.9149],[26.67358,56.21822,126.8494],[26.65911,56.25958,126.6384],[26.6405,56.27612,119.7647],[26.60121,56.28232,110.8497],[26.56192,56.26785,109.2458],[26.51023,56.26785,106.5662],[26.44199,56.26578,99.3198]]]}
,"properties": {"ISO3166-1-Alpha-3": "LVA","country": "Latvia","fill": "#F00","name": "Varkavas","area_km2": 271.4178,"hist_schema_id": "Elevation0-9000","hist_area_km2": {"100": 216.6367,"125": 54.5218,"150": 0.2593}}}