{"type":"Feature","properties":{"ISO3166-1-Alpha-3":"LVA","country":"Latvia","fill":"#F0F","id":"5783","name":"Beverinas"},
"geometry":{"type": "Polygon","coordinates": [[[25.72936,57.57014,59.6724],[25.71058,57.57641,70.2294],[25.72467,57.58893,72.5278],[25.70744,57.60302,56.4842],[25.69492,57.61555,59.6055],[25.66361,57.61868,39.7864],[25.63073,57.62024,50.1193],[25.59123,57.61411,46.479],[25.56966,57.59206,34.5129],[25.53679,57.58423,37.6489],[25.50704,57.56701,36.2447],[25.48042,57.54822,50.0563],[25.45694,57.53726,47.6947],[25.45224,57.51534,53.4645],[25.43189,57.50595,79.8296],[25.39587,57.50908,60.1493],[25.37709,57.50908,49.1202],[25.37865,57.48403,73.5026],[25.39274,57.46524,32.5105],[25.39879,57.44125,42.9192],[25.42096,57.44745,50.8929],[25.4745,57.44254,68.8377],[25.50044,57.45014,83.6208],[25.50943,57.44701,77.5438],[25.51935,57.44125,79.423],[25.52679,57.4382,73.9254],[25.54762,57.44156,69.9327],[25.56111,57.45102,66.3801],[25.6024,57.46864,82.3882],[25.65795,57.46461,59.9617],[25.67578,57.47272,56.1623],[25.68012,57.47959,61.2199],[25.7184,57.49656,67.6499],[25.77633,57.49969,63.147],[25.82174,57.52474,62.9021],[25.80921,57.53726,66.5519],[25.77901,57.5298,64.9581],[25.74345,57.53413,59.9226],[25.73406,57.54666,77.2146],[25.77164,57.54822,70.4984],[25.7826,57.55292,77.8405],[25.75285,57.57014,58.1277],[25.72936,57.57014,59.6724]]]}}