{"type":"Feature","properties":{"GID_1":"LVA.4_1","GID_0":"LVA","country":"Latvia","province":"Vidzeme","VARNAME_1":"NA","NL_NAME_1":"NA","TYPE_1":"Province","ENGTYPE_1":"Province","CC_1":"NA","HASC_1":"V","ISO_1":"NA","name":"Vidzeme.province"},
"geometry":{"type": "MultiPolygon","coordinates": [[[[27.1484,57.2277,122.1559],[27.1502,57.2366,135.4843],[27.1667,57.2356,129.5734],[27.1658,57.2312,132.2753],[27.1988,57.2292,115.025],[27.1997,57.2337,118.7918],[27.2162,57.2327,121.289],[27.218,57.2416,121.2367],[27.2345,57.2407,126.2576],[27.2336,57.2362,123.8512],[27.2419,57.2357,124.6354],[27.2436,57.2446,123.6563],[27.2519,57.2442,130.2399],[27.2528,57.2486,126.6506],[27.261,57.2481,130.2289],[27.2628,57.2571,141.7807],[27.2876,57.2556,132.693],[27.2867,57.2511,133.753],[27.295,57.2506,125.3597],[27.2959,57.2551,133.9423],[27.3041,57.2546,133.4515],[27.3068,57.268,151.3677],[27.3151,57.2675,133.1517],[27.316,57.272,145.3484],[27.3242,57.2715,134.4753],[27.3251,57.2759,132.4429],[27.3334,57.2755,144.4871],[27.3352,57.2844,137.0199],[27.36,57.2829,145.9028],[27.3609,57.2874,137.7128],[27.3774,57.2864,141.3167],[27.3765,57.2819,147.7672],[27.3848,57.2814,143.6024],[27.3838,57.2769,150.2846],[27.3921,57.2764,145.479],[27.3912,57.272,140.3386],[27.3995,57.2715,151.9005],[27.3986,57.267,147.928],[27.4068,57.2665,146.5589],[27.4059,57.2621,147.1276],[27.4224,57.2611,144.7282],[27.4215,57.2566,148.4281],[27.4298,57.2561,136.3396],[27.4307,57.2606,138.4086],[27.4389,57.2601,141.1635],[27.4408,57.269,137.7313],[27.4738,57.267,142.8707],[27.4784,57.2893,147.1232],[27.5032,57.2878,147.2951],[27.5022,57.2833,125.6967],[27.5105,57.2828,142.0611],[27.5068,57.265,141.6414],[27.5398,57.2629,110.1798],[27.5408,57.2674,122.5958],[27.5573,57.2664,118.6843],[27.5582,57.2708,122.1947],[27.5665,57.2703,110.495],[27.5655,57.2659,121.8504],[27.5738,57.2654,114.1795],[27.5775,57.2832,121.683],[27.6023,57.2817,117.6756],[27.6051,57.2951,124.0905],[27.5968,57.2956,123.4068],[27.5996,57.309,122.3561],[27.6244,57.3074,119.958],[27.6253,57.3119,111.5401],[27.6501,57.3103,125.4176],[27.6511,57.3148,108.7513],[27.6594,57.3143,120.62],[27.6603,57.3187,121.8237],[27.6686,57.3182,126.3156],[27.6704,57.3271,107.6024],[27.6952,57.3256,124.9566],[27.6962,57.3301,117.467],[27.7045,57.3295,115.3802],[27.713,57.3697,109.1433],[27.6964,57.3707,107.7372],[27.6974,57.3752,112.8288],[27.6808,57.3762,116.9257],[27.6818,57.3807,126.5255],[27.6735,57.3812,112.6775],[27.6744,57.3856,121.413],[27.6662,57.3862,117.8693],[27.6681,57.3951,116.6944],[27.6598,57.3956,126.4368],[27.6607,57.4001,134.938],[27.6524,57.4006,130.0223],[27.6534,57.405,130.1749],[27.6451,57.4056,121.1313],[27.646,57.41,127.1086],[27.6295,57.411,124.2182],[27.6304,57.4155,138.5442],[27.5889,57.4181,137.6431],[27.5899,57.4225,133.722],[27.5734,57.4241,148.4473],[27.5742,57.428,150.7354],[27.5494,57.4295,132.9384],[27.5503,57.434,133.5361],[27.5338,57.4356,133.0053],[27.5346,57.4395,132.929],[27.518,57.4405,136.3951],[27.519,57.445,143.7109],[27.5107,57.4455,132.3532],[27.5153,57.4678,133.5815],[27.5236,57.4673,137.4422],[27.5245,57.4717,137.7959],[27.5412,57.4707,140.2282],[27.5421,57.4752,131.8681],[27.5504,57.4747,128.6683],[27.5523,57.4836,133.99],[27.5606,57.4831,134.4261],[27.5671,57.5143,131.7412],[27.5588,57.5148,133.3664],[27.5597,57.5193,136.9519],[27.5431,57.5203,136.5575],[27.5468,57.5381,137.8519],[27.4969,57.5412,150.9497],[27.496,57.5367,143.5154],[27.4794,57.5377,151.6394],[27.4784,57.5333,148.2897],[27.4618,57.5343,155.6235],[27.4609,57.5298,160.4613],[27.4276,57.5318,169.343],[27.4269,57.5284,164.8675],[27.4184,57.5278,168.8666],[27.3853,57.5309,167.2212],[27.386,57.5343,170.0997],[27.3694,57.5353,178.6706],[27.3703,57.5398,167.3853],[27.3453,57.5412,176.314],[27.3462,57.5457,159.6715],[27.313,57.5477,185.6858],[27.3139,57.5521,179.0813],[27.2972,57.5531,176.5844],[27.2963,57.5487,178.8443],[27.2833,57.5494,189.6991],[27.2861,57.5435,180.172],[27.2922,57.5435,178.9651],[27.2951,57.5453,174.4035],[27.2972,57.5397,172.327],[27.2808,57.5374,173.2262],[27.2753,57.5439,177.3661],[27.2662,57.5443,176.817],[27.2652,57.5488,175.5099],[27.258,57.5508,176.3511],[27.2487,57.5487,178.6807],[27.2255,57.5547,179.7729],[27.1942,57.5506,179.8588],[27.1614,57.5605,197.4586],[27.1221,57.5619,183.6785],[27.1224,57.5633,180.4063],[27.1057,57.5643,185.1981],[27.1059,57.5655,172.7066],[27.1008,57.5663,175.032],[27.0991,57.569,187.1337],[27.0899,57.5697,182.5723],[27.0904,57.5724,175.1789],[27.0874,57.5768,171.5],[27.0759,57.5769,177.4023],[27.0758,57.579,182.9146],[27.0734,57.5789,180.1473],[27.0745,57.5811,183.1766],[27.0647,57.5849,187.2419],[27.0582,57.5896,191.7459],[27.0518,57.59,200.3501],[27.0525,57.5939,203.9982],[27.0517,57.5926,192.6868],[27.0443,57.5949,201.4521],[27.0452,57.5994,213.1882],[27.0397,57.5997,217.0751],[27.0349,57.6025,213.073],[27.0377,57.6043,225.4725],[27.021,57.6053,196.2591],[27.0219,57.6097,197.6189],[27.0136,57.6102,195.3807],[27.0144,57.6147,186.0648],[27.0061,57.6151,176.0015],[27.007,57.6196,179.4322],[26.9819,57.621,154.3784],[26.9813,57.618,150.9724],[26.9863,57.6204,159.2083],[26.9924,57.6183,164.5467],[26.9988,57.619,177.8789],[26.9922,57.6135,193.6543],[26.9959,57.6132,189.84],[26.987,57.6091,163.4542],[26.9845,57.6119,167.5753],[26.9779,57.6118,166.5112],[26.9683,57.6151,148.4676],[26.9673,57.6173,146.1401],[26.9644,57.6175,146.1401],[26.9652,57.6219,171.5058],[26.9402,57.6234,148.3348],[26.9411,57.6278,158.4092],[26.9327,57.6283,153.3043],[26.9336,57.6328,152.0378],[26.9169,57.6337,145.1417],[26.9177,57.6381,144.6249],[26.8927,57.6395,155.2803],[26.8918,57.6351,152.5651],[26.8835,57.6355,150.8755],[26.8826,57.6311,143.3748],[26.8743,57.6315,147.664],[26.8726,57.6226,144.1735],[26.8642,57.6231,144.6421],[26.8625,57.6141,146.0296],[26.8542,57.6146,142.2617],[26.8577,57.6098,140.8016],[26.8643,57.6084,140.7693],[26.861,57.6044,145.7301],[26.8611,57.6023,147.2309],[26.8576,57.6009,147.6041],[26.8594,57.5965,150.33],[26.8636,57.5943,167.1351],[26.8617,57.592,127.5517],[26.8465,57.5893,130.4348],[26.8339,57.5827,135.7979],[26.8173,57.5814,129.9795],[26.8105,57.5841,128.6895],[26.81,57.59,149.6729],[26.7907,57.591,117.7962],[26.7899,57.5866,126.3905],[26.7852,57.5868,133.7986],[26.7986,57.5799,147.8883],[26.7946,57.5778,152.2496],[26.7956,57.5755,148.237],[26.7928,57.5733,135.6626],[26.782,57.5786,132.7537],[26.7825,57.5807,102.4199],[26.7785,57.5806,102.4199],[26.7811,57.5762,142.2455],[26.7868,57.5753,137.2133],[26.7821,57.5726,133.1724],[26.775,57.5613,113.6371],[26.7774,57.5608,115.5129],[26.7766,57.56,114.6282],[26.7701,57.5604,113.7742],[26.7629,57.5632,114.3893],[26.7536,57.5624,121.8771],[26.7689,57.5704,127.9087],[26.7734,57.5744,138.0748],[26.7678,57.5774,133.1457],[26.749,57.5777,117.3682],[26.7527,57.5802,85.5312],[26.7378,57.5877,76.6641],[26.729,57.5803,98.085],[26.7378,57.5759,111.0738],[26.7308,57.5693,110.7956],[26.7238,57.5724,99.7903],[26.7124,57.5668,118.7934],[26.7083,57.5664,118.3428],[26.7005,57.5709,106.4006],[26.6971,57.5708,102.0409],[26.6973,57.5674,113.3368],[26.6923,57.5661,99.3727],[26.6759,57.5667,81.5062],[26.6697,57.563,74.1142],[26.6725,57.5613,75.4745],[26.6673,57.5616,81.2176],[26.6665,57.5572,80.9359],[26.6582,57.5576,89.9983],[26.6573,57.5539,77.8897],[26.6471,57.554,85.4756],[26.6428,57.5466,78.4679],[26.6345,57.5435,78.147],[26.6146,57.5293,85.2385],[26.6152,57.5238,92.1472],[26.6099,57.5241,106.0022],[26.6091,57.5196,100.8236],[26.6008,57.5201,91.0071],[26.6016,57.5245,113.8307],[26.5614,57.5267,86.3755],[26.5611,57.5226,90.9191],[26.5662,57.5195,85.3689],[26.5574,57.5139,87.5538],[26.5249,57.5162,95.8442],[26.4999,57.5245,92.243],[26.491,57.5455,95.6423],[26.4695,57.5756,62.3399],[26.4016,57.5722,83.5806],[26.3756,57.5777,70.1726],[26.3763,57.5815,71.7359],[26.3513,57.5828,57.8847],[26.3521,57.5872,59.2751],[26.3187,57.5889,55.6064],[26.3195,57.5934,53.904],[26.3111,57.5938,57.9928],[26.3119,57.5983,77.9053],[26.2869,57.5996,70.7653],[26.2877,57.6041,71.9442],[26.271,57.6049,54.1559],[26.2718,57.6094,58.2478],[26.2634,57.6103,56.0569],[26.2608,57.6131,56.6087],[26.2551,57.614,56.378],[26.2564,57.618,56.0901],[26.2522,57.6183,55.8458],[26.256,57.6214,56.3086],[26.2475,57.6208,54.4497],[26.2498,57.6225,54.5896],[26.2496,57.6276,54.7786],[26.2404,57.6342,52.8621],[26.2425,57.6352,59.6108],[26.2453,57.6513,66.9122],[26.2431,57.6514,50.4085],[26.2383,57.6554,56.2725],[26.2397,57.6577,57.0466],[26.2381,57.6581,56.0503],[26.2385,57.6607,57.5765],[26.2223,57.6618,55.8673],[26.2234,57.6704,54.25],[26.215,57.6709,59.3703],[26.2158,57.6753,58.6895],[26.2074,57.6758,63.384],[26.2082,57.6801,57.8902],[26.2016,57.6811,51.4585],[26.2001,57.6836,56.0351],[26.196,57.6852,54.4209],[26.1863,57.6851,52.7709],[26.1793,57.6876,55.5731],[26.1823,57.6916,50.6563],[26.1885,57.6945,76.5141],[26.1986,57.7091,71.0937],[26.2057,57.715,70.5647],[26.1969,57.7204,67.9429],[26.1901,57.7221,68.4046],[26.1908,57.7262,60.2397],[26.1824,57.7266,61.3858],[26.1832,57.7311,70.9759],[26.1581,57.7323,83.8876],[26.1588,57.7368,70.5439],[26.1421,57.7376,77.3523],[26.1428,57.7421,87.0843],[26.1385,57.7423,90.4051],[26.1417,57.745,93.8674],[26.136,57.751,76.8607],[26.1092,57.7569,78.3342],[26.0787,57.7668,77.3293],[26.078,57.7647,71.7101],[26.0747,57.7646,72.1498],[26.0706,57.767,73.2433],[26.0618,57.7626,61.0888],[26.062,57.7641,63.0419],[26.0475,57.7648,57.6756],[26.0456,57.7667,61.9673],[26.046,57.7694,58.5799],[26.0377,57.7702,57.5481],[26.0384,57.7743,65.7909],[26.0271,57.7748,50.2872],[26.0258,57.7767,50.484],[26.0274,57.7815,55.2548],[26.0247,57.7833,66.0813],[26.0289,57.789,63.5057],[26.0329,57.7898,62.7432],[26.0353,57.8001,69.6079],[26.0388,57.8058,71.7976],[26.0386,57.8101,75.9949],[26.0505,57.8226,84.8062],[26.055,57.8307,82.8334],[26.0549,57.8335,73.855],[26.0586,57.8368,74.7879],[26.0581,57.8465,78.7749],[26.0565,57.8484,78.9519],[26.0476,57.8492,78.7293],[26.047,57.8505,80.8889],[26.0159,57.852,67.5594],[26.0109,57.8582,86.7246],[26.0018,57.8588,84.8421],[26.0023,57.8617,86.0391],[25.9939,57.8621,86.9177],[25.9931,57.8576,77.2841],[25.9847,57.858,84.9142],[25.984,57.8535,80.0086],[25.9672,57.8544,79.2932],[25.9664,57.8499,75.2895],[25.9407,57.8511,79.2171],[25.9315,57.8534,77.2644],[25.9167,57.8523,82.9872],[25.8907,57.8535,65.2247],[25.8915,57.858,67.3322],[25.8768,57.859,69.2278],[25.8761,57.8651,66.0434],[25.8635,57.8593,91.9868],[25.8578,57.8595,91.5246],[25.8586,57.864,80.3776],[25.8417,57.8648,79.8347],[25.8425,57.8693,79.8123],[25.8341,57.8697,74.7687],[25.8348,57.8741,79.7428],[25.818,57.8749,78.5552],[25.8187,57.8794,79.2279],[25.8103,57.8798,85.4055],[25.811,57.8843,87.6682],[25.8026,57.8847,81.7994],[25.8033,57.8891,82.9469],[25.795,57.8895,80.3746],[25.7956,57.894,82.9819],[25.7902,57.8943,80.583],[25.7861,57.8983,81.5733],[25.7879,57.8989,89.0451],[25.7851,57.8992,88.4165],[25.7883,57.9046,90.8213],[25.7733,57.9131,88.625],[25.765,57.9145,91.5562],[25.7656,57.9179,106.2691],[25.75,57.9186,89.6211],[25.7385,57.9237,87.82],[25.727,57.9221,91.1178],[25.7208,57.9131,94.5052],[25.7174,57.9111,92.9969],[25.7136,57.9113,94.7414],[25.7132,57.9088,97.5087],[25.7098,57.907,87.1933],[25.696,57.9076,91.188],[25.6954,57.9037,86.8971],[25.679,57.9044,79.1504],[25.6778,57.9124,81.2979],[25.6613,57.9154,82.3548],[25.6547,57.9149,85.6062],[25.6553,57.9185,96.22],[25.6497,57.9187,93.0097],[25.6476,57.9233,94.9815],[25.6386,57.9307,88.3442],[25.6238,57.9342,107.1236],[25.6244,57.9379,100.7365],[25.6075,57.9386,95.8331],[25.6082,57.9431,99.2702],[25.5998,57.9435,98.5671],[25.5992,57.9398,102.4591],[25.5828,57.9436,95.7589],[25.5832,57.946,93.7481],[25.5943,57.9596,92.5222],[25.5893,57.9651,103.2489],[25.5826,57.9677,108.6275],[25.5805,57.972,118.5413],[25.5747,57.974,99.2408],[25.5701,57.9708,109.2092],[25.5703,57.9719,109.2092],[25.5534,57.9726,101.583],[25.553,57.9702,107.424],[25.5514,57.9724,102.0842],[25.5253,57.9719,87.2107],[25.5237,57.9694,85.7247],[25.5189,57.9696,91.7688],[25.5203,57.9786,93.0886],[25.5034,57.9793,94.6662],[25.5032,57.9776,89.7875],[25.4848,57.9756,93.771],[25.4786,57.9803,90.1061],[25.4786,57.9825,83.1129],[25.4585,57.9916,83.353],[25.4544,57.992,81.9506],[25.4559,58.0021,84.4098],[25.4669,58.0052,73.7834],[25.4486,58.0171,81.5786],[25.4083,58.0291,76.6075],[25.3667,58.0305,72.4561],[25.3673,58.0348,74.1791],[25.3606,58.0351,82.9086],[25.3591,58.0368,77.5559],[25.3595,58.0396,75.1047],[25.3565,58.0398,75.0993],[25.3534,58.0436,75.7105],[25.345,58.0469,78.8732],[25.336,58.0573,79.8288],[25.3295,58.0587,77.2849],[25.3261,58.0639,78.7389],[25.32,58.0661,79.6659],[25.3187,58.0695,79.9553],[25.2957,58.0815,79.736],[25.2868,58.0816,86.1262],[25.2812,58.07,78.7573],[25.2661,58.0672,76.2518],[25.2649,58.0601,75.4757],[25.2686,58.0577,75.3734],[25.2678,58.0525,79.2688],[25.2773,58.0521,80.4123],[25.2843,58.0492,78.2522],[25.2841,58.0473,77.9945],[25.2925,58.0467,85.6117],[25.2919,58.0425,81.2858],[25.298,58.0423,79.672],[25.2999,58.0396,77.2552],[25.2963,58.0153,76.0342],[25.3048,58.0149,75.6131],[25.3014,57.9931,65.9031],[25.2922,57.993,74.2177],[25.2828,57.9896,74.6011],[25.277,57.9929,72.6907],[25.2677,57.9945,74.128],[25.2683,57.9985,78.2265],[25.2598,57.9988,74.522],[25.2605,58.0033,75.1162],[25.2459,58.003,76.9963],[25.2306,58.0153,78.4802],[25.2284,58.0181,76.3735],[25.2371,58.0179,81.4063],[25.2378,58.0223,82.272],[25.2293,58.0226,78.6542],[25.2296,58.0247,76.7636],[25.227,58.0245,75.0868],[25.2255,58.0218,75.8704],[25.219,58.032,74.5622],[25.2137,58.0323,72.7424],[25.217,58.0547,80.2172],[25.2162,58.0596,80.4138],[25.2129,58.0621,76.2634],[25.2096,58.0623,72.4512],[25.2099,58.064,71.3494],[25.2037,58.065,74.0673],[25.2166,58.074,69.7235],[25.2122,58.0808,74.5353],[25.1994,58.0856,77.3128],[25.1894,58.0799,75.3414],[25.1912,58.076,75.0133],[25.1539,58.0747,69.2056],[25.1517,58.077,65.9962],[25.1355,58.0796,65.925],[25.1362,58.0805,70.7684],[25.1187,58.0812,69.1004],[25.1183,58.0788,69.5398],[25.1058,58.0778,64.0601],[25.1054,58.0728,65.8124],[25.1004,58.073,67.2764],[25.0995,58.0663,73.0891],[25.077,58.0664,73.1843],[25.0738,58.065,70.9949],[25.0735,58.0635,74.262],[25.0302,58.0263,65.7683],[25.0257,58.0264,64.4802],[25.0251,58.0219,65.1271],[25.0204,58.0178,66.3666],[24.9947,58.011,62.4381],[24.9489,58.0094,66.1448],[24.9075,57.9951,58.5872],[24.9023,57.9953,59.1125],[24.902,57.9932,58.3569],[24.8471,57.9755,57.0019],[24.841,57.9756,67.4514],[24.8391,57.9798,64.1431],[24.8323,57.98,65.8694],[24.831,57.9711,57.2253],[24.8395,57.9707,70.2386],[24.8389,57.9662,68.0546],[24.8304,57.9666,63.5845],[24.8286,57.9531,63.9185],[24.837,57.9528,64.1996],[24.8358,57.9439,78.4797],[24.8443,57.9435,57.5637],[24.8437,57.939,59.6565],[24.8268,57.9397,73.4791],[24.8256,57.9307,52.5974],[24.834,57.9304,52.8353],[24.8328,57.9215,58.9504],[24.8497,57.9208,52.9899],[24.849,57.9163,55.9579],[24.8659,57.9157,54.3548],[24.8647,57.9067,58.3744],[24.89,57.9057,64.6481],[24.8894,57.9012,60.2841],[24.8809,57.9016,49.5825],[24.8791,57.8881,55.7519],[24.8875,57.8878,69.2342],[24.8857,57.8744,56.4138],[24.8941,57.874,56.0912],[24.8923,57.8606,58.325],[24.9007,57.8603,58.3778],[24.897,57.8334,57.2557],[24.9307,57.8321,63.757],[24.9301,57.8276,64.9204],[24.9385,57.8273,63.2004],[24.9397,57.8362,62.4855],[24.9481,57.8359,80.8867],[24.9469,57.8269,68.9398],[24.9553,57.8266,75.6626],[24.954,57.8176,64.0762],[24.9456,57.818,66.1164],[24.945,57.8135,68.4228],[24.9618,57.8128,66.0597],[24.9631,57.8218,66.6833],[24.9883,57.8208,66.674],[24.9877,57.8163,66.6],[24.9961,57.816,63.7335],[24.9948,57.807,66.9292],[25.0117,57.8063,70.468],[25.011,57.8018,69.578],[25.0194,57.8015,68.2191],[25.0182,57.7925,73.6718],[25.0434,57.7915,61.1656],[25.0428,57.7871,56.6744],[25.0596,57.7864,61.5321],[25.0589,57.7819,56.4561],[25.0757,57.7812,61.6232],[25.0732,57.7633,72.4037],[25.0816,57.763,64.1752],[25.081,57.7585,75.6264],[25.0894,57.7581,66.3196],[25.0887,57.7537,62.5689],[25.0971,57.7533,63.1772],[25.0958,57.7444,61.7026],[25.0874,57.7447,62.992],[25.0855,57.7313,77.1633],[25.0772,57.7316,67.053],[25.0759,57.7227,73.2195],[25.0675,57.723,72.5219],[25.0669,57.7185,72.8856],[25.0585,57.7189,70.396],[25.0566,57.7054,85.2776],[25.065,57.7051,79.358],[25.0637,57.6961,85.7694],[25.0553,57.6965,85.5371],[25.0528,57.6785,84.4931],[25.0696,57.6779,86.4065],[25.0683,57.6689,93.587],[25.0767,57.6686,87.3931],[25.076,57.6641,97.6813],[25.0844,57.6637,88.2753],[25.0838,57.6593,75.3729],[25.0419,57.661,81.4257],[25.0413,57.6565,77.8177],[25.0497,57.6562,90.315],[25.049,57.6517,81.3983],[25.0574,57.6513,79.659],[25.0568,57.6469,93.4577],[25.0651,57.6465,79.7471],[25.0645,57.642,82.8787],[25.0729,57.6417,76.504],[25.0722,57.6372,74.9492],[25.0639,57.6376,81.6624],[25.0626,57.6286,82.7912],[25.0292,57.63,85.118],[25.0298,57.6344,87.5442],[25.0214,57.6348,91.9438],[25.022,57.6393,88.7766],[25.0137,57.6396,90.6003],[25.0143,57.6441,86.76],[24.9724,57.6458,82.1938],[24.9706,57.6323,84.7971],[24.9622,57.6327,90.1964],[24.9616,57.6282,84.9095],[24.9532,57.6285,91.0671],[24.9526,57.624,95.7721],[24.9443,57.6244,93.2397],[24.9436,57.6199,89.7587],[24.9353,57.6202,94.3015],[24.9347,57.6157,91.9372],[24.9263,57.6161,90.519],[24.9269,57.6206,89.0751],[24.9186,57.6209,93.6878],[24.9102,57.6212,106.408],[24.9096,57.6167,92.0338],[24.9012,57.6171,95.0512],[24.8994,57.6036,102.3211],[24.9077,57.6033,85.5202],[24.9065,57.5943,96.4721],[24.9149,57.594,87.1047],[24.9137,57.5851,88.2865],[24.922,57.5847,86.7077],[24.9208,57.5758,86.5718],[24.9292,57.5754,91.5105],[24.9279,57.5665,85.4428],[24.9363,57.5661,87.2758],[24.9369,57.5706,90.1431],[24.962,57.5696,94.2003],[24.9626,57.5741,106.8152],[24.9876,57.5731,85.849],[24.9882,57.5776,82.8005],[25.005,57.5769,82.9054],[25.0037,57.5679,80.7634],[25.0204,57.5673,82.859],[25.0192,57.5583,79.5449],[25.0275,57.558,80.5234],[25.0269,57.5535,79.5019],[25.0185,57.5538,81.661],[25.0179,57.5494,81.1445],[25.0346,57.5487,79.3509],[25.034,57.5442,78.2974],[25.0423,57.5439,78.8068],[25.0411,57.5349,96.204],[25.0578,57.5342,80.1256],[25.0565,57.5253,89.4783],[25.0315,57.5263,82.2345],[25.0309,57.5218,88.8795],[25.0392,57.5215,105.0734],[25.0386,57.517,85.752],[25.0469,57.5166,86.2148],[25.0463,57.5122,87.2698],[25.038,57.5125,104.3187],[25.0367,57.5035,101.7036],[25.0284,57.5039,88.1895],[25.0265,57.4905,88.1798],[25.0015,57.4915,101.6781],[25.0009,57.487,92.9098],[25.0092,57.4866,89.7253],[25.0086,57.4822,90.0688],[25.0169,57.4818,90.0198],[25.0151,57.4684,85.5217],[24.9901,57.4694,83.9433],[24.9895,57.4649,87.2925],[24.9811,57.4653,82.5373],[24.9805,57.4608,78.7751],[24.9722,57.4611,72.7967],[24.9716,57.4566,74.3],[24.9549,57.4573,71.3871],[24.9543,57.4528,69.4487],[24.9377,57.4535,80.1403],[24.9371,57.449,73.6703],[24.9287,57.4494,71.3509],[24.9281,57.4449,70.1378],[24.9198,57.4452,60.5646],[24.9192,57.4407,67.2514],[24.9109,57.4411,63.407],[24.9103,57.4366,67.2776],[24.8853,57.4376,76.4258],[24.8847,57.4331,79.3045],[24.868,57.4337,84.1479],[24.8668,57.4248,82.7745],[24.8585,57.4251,73.5197],[24.8579,57.4206,71.9748],[24.8413,57.4213,62.4432],[24.8419,57.4258,80.3536],[24.8252,57.4264,66.52],[24.8258,57.4309,76.4439],[24.8092,57.4315,59.9895],[24.8098,57.436,75.7051],[24.7848,57.437,62.5897],[24.7842,57.4325,62.1339],[24.7759,57.4328,64.1035],[24.7712,57.397,66.9527],[24.7795,57.3967,67.9278],[24.7789,57.3922,67.8506],[24.8205,57.3906,70.7127],[24.8199,57.3861,70.502],[24.8282,57.3858,69.9697],[24.8276,57.3813,69.7208],[24.8442,57.3806,68.1834],[24.8436,57.3762,67.9039],[24.8602,57.3755,73.0341],[24.8584,57.3621,65.7037],[24.8668,57.3617,63.5832],[24.8655,57.3528,61.8549],[24.8822,57.3521,65.1126],[24.8816,57.3476,61.8721],[24.8733,57.348,65.6409],[24.8727,57.3435,64.5272],[24.8976,57.3425,63.5204],[24.8951,57.3246,55.4345],[24.8868,57.3249,56.4697],[24.8862,57.3204,56.6982],[24.878,57.3208,51.9448],[24.8774,57.3163,73.3273],[24.8939,57.3156,47.4891],[24.8933,57.3112,45.4162],[24.9099,57.3105,64.1217],[24.9093,57.306,57.2066],[24.9259,57.3054,53.3346],[24.9253,57.3009,54.7977],[24.9336,57.3005,54.3365],[24.933,57.2961,49.0108],[24.9413,57.2957,83.4574],[24.9407,57.2912,72.1222],[24.949,57.2909,87.4358],[24.9471,57.2775,74.3566],[24.9388,57.2778,78.1542],[24.9382,57.2733,85.6012],[24.9376,57.2688,92.1515],[24.9459,57.2685,29.7161],[24.9447,57.2596,38.4513],[24.9364,57.2599,61.2254],[24.9352,57.2509,56.2543],[24.9187,57.2516,90.0978],[24.918,57.2471,72.6781],[24.9263,57.2468,19.8198],[24.9257,57.2423,21.5245],[24.9174,57.2426,49.3552],[24.9168,57.2382,26.5681],[24.9086,57.2385,68.7993],[24.908,57.234,36.2505],[24.8997,57.2343,60.2924],[24.8991,57.2299,66.6613],[24.9156,57.2292,34.357],[24.915,57.2247,61.2547],[24.9233,57.2244,82.5322],[24.9239,57.2289,60.4345],[24.9322,57.2285,79.9018],[24.9316,57.2241,85.8069],[24.9399,57.2237,89.3559],[24.9392,57.2192,83.9192],[24.9475,57.2189,85.7819],[24.9463,57.21,93.405],[24.9546,57.2096,101.5256],[24.954,57.2051,105.6257],[24.9705,57.2045,111.2819],[24.9699,57.2,120.4561],[24.9782,57.1997,115.8728],[24.9769,57.1907,122.4524],[24.9852,57.1904,124.6335],[24.9809,57.159,123.9067],[24.9892,57.1587,122.4477],[24.9886,57.1542,122.8982],[24.9803,57.1545,124.6506],[24.9797,57.15,123.052],[24.9715,57.1504,126.3233],[24.9709,57.1459,135.9387],[24.9791,57.1456,126.1982],[24.9779,57.1366,123.3787],[24.9861,57.1363,122.9852],[24.9801,57.0915,111.9156],[24.9883,57.0911,103.4372],[24.9877,57.0867,99.1238],[24.9795,57.087,107.686],[24.9782,57.078,104.2955],[24.9865,57.0777,102.6137],[24.9847,57.0643,114.7617],[24.9929,57.0639,112.1919],[24.9923,57.0595,104.8571],[25.0088,57.0588,115.2132],[25.0081,57.0543,108.0866],[25.0329,57.0533,111.3218],[25.0322,57.0488,108.8771],[25.0487,57.0481,128.02],[25.0462,57.0302,109.4845],[25.0545,57.0299,107.2566],[25.0551,57.0344,109.0998],[25.0715,57.0337,102.7296],[25.0709,57.0292,106.2062],[25.0792,57.0289,107.7903],[25.0785,57.0244,103.6487],[25.095,57.0237,105.1649],[25.0938,57.0147,115.3159],[25.1102,57.014,124.7893],[25.1096,57.0096,112.3408],[25.126,57.0089,112.871],[25.1254,57.0044,115.5797],[25.1336,57.004,117.672],[25.133,56.9996,113.8192],[25.1412,56.9992,130.9441],[25.1387,56.9813,109.4704],[25.1469,56.981,108.4433],[25.1444,56.9631,106.8329],[25.1362,56.9634,109.0118],[25.1356,56.9589,106.5085],[25.1438,56.9586,110.5594],[25.1426,56.9496,103.4436],[25.1508,56.9493,107.7388],[25.152,56.9582,114.9805],[25.1602,56.9579,105.0914],[25.1596,56.9534,124.2445],[25.2007,56.9517,106.278],[25.2,56.9472,113.6728],[25.2411,56.9454,113.2401],[25.2405,56.9409,111.3702],[25.2569,56.9402,126.7249],[25.2588,56.9537,146.9831],[25.267,56.9533,157.804],[25.2676,56.9578,160.678],[25.2594,56.9581,149.9934],[25.2601,56.9626,153.5161],[25.2683,56.9623,159.3497],[25.2689,56.9667,156.4993],[25.2853,56.966,165.4516],[25.2873,56.9795,170.2044],[25.3119,56.9784,197.5442],[25.3126,56.9829,197.5627],[25.3208,56.9825,199.3866],[25.3221,56.9915,193.8716],[25.3632,56.9897,177.1364],[25.3625,56.9852,164.9976],[25.3707,56.9848,176.6005],[25.3694,56.9759,173.021],[25.3776,56.9755,174.9402],[25.3763,56.9666,176.6549],[25.3845,56.9662,182.7262],[25.3819,56.9483,191.2963],[25.3983,56.9476,153.9107],[25.3977,56.9431,161.796],[25.4223,56.942,158.125],[25.4236,56.951,156.6928],[25.4318,56.9506,167.3131],[25.4325,56.9551,169.2528],[25.4407,56.9547,184.0557],[25.4414,56.9592,187.5488],[25.4496,56.9588,194.6921],[25.4502,56.9633,205.9854],[25.442,56.9636,181.8574],[25.4427,56.9681,185.654],[25.4591,56.9674,187.7281],[25.4598,56.9719,191.8126],[25.468,56.9715,192.536],[25.4693,56.9805,193.9927],[25.4775,56.9801,188.3219],[25.4782,56.9846,218.8632],[25.47,56.9849,210.8864],[25.4706,56.9894,216.7669],[25.446,56.9905,191.5914],[25.4467,56.995,188.882],[25.4549,56.9946,196.6292],[25.4555,56.9991,196.6378],[25.4802,56.998,220.2048],[25.4815,57.0069,206.0761],[25.5062,57.0058,203.8083],[25.5048,56.9969,212.6448],[25.4966,56.9973,210.3522],[25.496,56.9928,202.1549],[25.5206,56.9917,212.5466],[25.5193,56.9827,208.4527],[25.5275,56.9823,212.7506],[25.5268,56.9779,196.7285],[25.5255,56.9689,198.6008],[25.5173,56.9693,194.1911],[25.5166,56.9648,188.5546],[25.533,56.9641,189.9958],[25.5303,56.9462,201.3417],[25.5385,56.9458,196.6103],[25.5379,56.9413,198.5919],[25.5461,56.9409,197.2588],[25.5447,56.932,182.2926],[25.5529,56.9316,183.3418],[25.5522,56.9271,196.0361],[25.544,56.9275,187.9064],[25.5427,56.9186,183.5799],[25.5345,56.9189,182.4442],[25.5338,56.9145,185.1826],[25.5256,56.9148,172.4704],[25.5229,56.8969,151.8538],[25.5393,56.8962,154.6265],[25.538,56.8872,144.4272],[25.5462,56.8868,159.197],[25.5455,56.8824,151.1851],[25.5537,56.882,152.7872],[25.553,56.8775,140.4914],[25.5366,56.8783,139.8524],[25.536,56.8738,128.5959],[25.5278,56.8742,125.348],[25.5271,56.8697,127.705],[25.5189,56.8701,122.9674],[25.5196,56.8745,141.7497],[25.5114,56.8749,139.6795],[25.5101,56.866,127.985],[25.5428,56.8645,141.0995],[25.5408,56.851,147.1427],[25.5163,56.8522,143.3701],[25.5149,56.8432,143.385],[25.5067,56.8436,132.2713],[25.5054,56.8346,137.3794],[25.5136,56.8342,143.3999],[25.5116,56.8208,155.3829],[25.5361,56.8197,145.6947],[25.5355,56.8152,161.4436],[25.5436,56.8149,157.5115],[25.543,56.8104,147.5375],[25.5511,56.81,148.9427],[25.5518,56.8145,147.3241],[25.56,56.8141,145.4191],[25.5607,56.8186,158.5915],[25.6097,56.8163,149.8039],[25.609,56.8118,144.9656],[25.6254,56.8111,149.5043],[25.6247,56.8066,148.5175],[25.6411,56.8059,162.2326],[25.6404,56.8014,151.6169],[25.6486,56.801,157.4727],[25.6479,56.7965,150.6958],[25.6806,56.795,172.429],[25.6792,56.7861,157.0453],[25.671,56.7864,152.5193],[25.6703,56.782,148.3359],[25.6785,56.7816,155.0905],[25.6778,56.7771,149.8433],[25.7105,56.7756,160.7322],[25.7112,56.78,160.2471],[25.7357,56.7789,168.8304],[25.7364,56.7834,164.8869],[25.7445,56.783,151.4678],[25.7452,56.7875,172.4223],[25.7289,56.7882,153.4777],[25.7317,56.8061,167.3404],[25.7398,56.8057,167.839],[25.7405,56.8102,174.8582],[25.7487,56.8098,188.4911],[25.7508,56.8233,188.1161],[25.7344,56.824,172.9832],[25.7351,56.8285,169.8687],[25.7433,56.8281,185.5352],[25.744,56.8326,199.7874],[25.7685,56.8314,205.6106],[25.7678,56.827,178.4471],[25.776,56.8266,189.5791],[25.7753,56.8221,182.5185],[25.7917,56.8213,186.2319],[25.791,56.8168,203.0082],[25.8073,56.8161,219.3926],[25.8066,56.8116,208.0644],[25.8148,56.8112,212.0817],[25.8141,56.8067,210.8142],[25.8304,56.8059,192.0919],[25.8297,56.8015,191.6548],[25.8379,56.8011,184.5135],[25.8365,56.7921,193.7999],[25.8447,56.7917,188.0455],[25.8433,56.7828,187.2581],[25.8514,56.7824,188.041],[25.8493,56.769,170.122],[25.833,56.7697,168.3029],[25.8316,56.7608,151.3169],[25.8234,56.7612,158.0281],[25.8227,56.7567,154.2611],[25.8145,56.7571,156.5659],[25.8131,56.7481,144.4513],[25.8213,56.7478,148.0916],[25.8206,56.7433,140.1657],[25.8288,56.7429,148.1159],[25.8245,56.716,111.8266],[25.8327,56.7157,115.3348],[25.832,56.7112,105.5942],[25.8483,56.7104,100.7768],[25.8476,56.7059,106.3453],[25.8802,56.7043,101.2718],[25.8795,56.6999,93.1144],[25.8958,56.6991,92.7577],[25.8965,56.7035,97.2595],[25.9209,56.7024,94.8325],[25.9202,56.6979,94.1411],[25.9365,56.6971,99.4455],[25.9358,56.6926,94.4554],[25.944,56.6922,90.9811],[25.9425,56.6833,97.7927],[25.9344,56.6837,110.8714],[25.933,56.6747,102.0946],[25.9248,56.6751,94.5817],[25.9241,56.6706,98.5719],[25.916,56.671,93.797],[25.9138,56.6576,99.2946],[25.9301,56.6568,87.7051],[25.9287,56.6479,99.7145],[25.945,56.6471,87.63],[25.9457,56.6515,90.4645],[25.9538,56.6511,84.3446],[25.9545,56.6556,91.6456],[25.9627,56.6552,96.0818],[25.9648,56.6686,115.2173],[25.9892,56.6674,85.0975],[25.9871,56.654,89.4855],[25.9952,56.6536,105.4094],[25.9945,56.6491,94.5973],[26.0026,56.6487,90.7761],[26.0033,56.6532,110.1795],[26.0115,56.6528,106.7165],[26.0108,56.6483,112.0217],[26.027,56.6475,113.6109],[26.0256,56.6386,114.3667],[26.0175,56.639,103.8225],[26.0167,56.6345,107.805],[26.0249,56.6341,108.3108],[26.0241,56.6296,98.8011],[26.0404,56.6288,100.3641],[26.0411,56.6333,95.5245],[26.0493,56.6329,101.85],[26.05,56.6373,104.6397],[26.0663,56.6365,97.981],[26.0677,56.6455,123.2233],[26.0759,56.6451,100.3804],[26.0766,56.6495,109.7658],[26.0847,56.6491,112.1069],[26.0854,56.6536,115.4158],[26.0936,56.6532,109.9486],[26.0943,56.6577,110.6737],[26.1187,56.6564,104.485],[26.1195,56.6609,120.0697],[26.1276,56.6605,120.8131],[26.1283,56.665,126.2329],[26.1446,56.6642,106.4154],[26.1439,56.6597,96.1096],[26.152,56.6593,102.7967],[26.1513,56.6548,113.9128],[26.1594,56.6544,107.5109],[26.1587,56.6499,110.6636],[26.1668,56.6495,112.5034],[26.1675,56.654,108.4662],[26.2082,56.6519,128.7813],[26.2075,56.6474,123.8757],[26.2156,56.647,132.8614],[26.2141,56.638,142.1417],[26.206,56.6385,134.1738],[26.2045,56.6295,125.8966],[26.2126,56.6291,122.9131],[26.2111,56.6202,109.2287],[26.2193,56.6197,121.8525],[26.2185,56.6153,111.3856],[26.2348,56.6144,112.1642],[26.2355,56.6189,113.1544],[26.2437,56.6185,106.8335],[26.2444,56.623,112.8714],[26.2688,56.6217,112.9165],[26.2695,56.6262,115.5108],[26.2858,56.6253,107.5085],[26.285,56.6208,108.831],[26.2932,56.6204,106.4313],[26.2924,56.616,102.5454],[26.2843,56.6164,101.3605],[26.2835,56.6119,101.0032],[26.2917,56.6115,105.5145],[26.2902,56.6025,100.131],[26.2983,56.6021,104.5135],[26.2975,56.5976,103.7207],[26.33,56.5959,108.7546],[26.3308,56.6004,110.0208],[26.3389,56.6,110.0204],[26.3397,56.6045,113.6174],[26.3478,56.604,110.5511],[26.3485,56.6085,113.3866],[26.3567,56.6081,110.5159],[26.3582,56.617,108.3986],[26.3663,56.6166,110.1314],[26.3686,56.63,111.0728],[26.3767,56.6296,109.8448],[26.379,56.643,110.3279],[26.3872,56.6426,109.0877],[26.3895,56.656,109.5334],[26.3976,56.6555,106.6251],[26.3968,56.6511,109.5748],[26.405,56.6506,112.2088],[26.4042,56.6462,113.7847],[26.4123,56.6457,112.9145],[26.4116,56.6413,110.8316],[26.4197,56.6408,111.4286],[26.4189,56.6364,111.4951],[26.4352,56.6355,112.0179],[26.4344,56.631,112.0103],[26.4507,56.6302,112.466],[26.4499,56.6257,112.6923],[26.4661,56.6248,110.4649],[26.4654,56.6204,110.7978],[26.4816,56.6195,111.3703],[26.4808,56.615,111.57],[26.489,56.6146,110.9543],[26.4882,56.6101,110.5684],[26.5857,56.6048,107.695],[26.5864,56.6093,108.1509],[26.6027,56.6084,115.5499],[26.5971,56.5771,103.5763],[26.589,56.5776,109.0908],[26.5867,56.5642,119.0983],[26.5948,56.5637,107.5673],[26.594,56.5592,111.4167],[26.6021,56.5588,109.6607],[26.6037,56.5677,106.4238],[26.6199,56.5669,109.4804],[26.6183,56.5579,127.527],[26.6264,56.5575,110.4292],[26.6248,56.5485,119.3815],[26.6816,56.5454,108.525],[26.6824,56.5499,108.9656],[26.6905,56.5494,107.2096],[26.731,56.5472,109.6299],[26.7294,56.5382,123.6423],[26.7375,56.5378,109.8677],[26.7383,56.5422,112.2346],[26.7465,56.5418,111.7276],[26.7505,56.5641,126.5933],[26.7586,56.5637,109.5804],[26.7594,56.5681,114.6907],[26.7432,56.5691,109.8111],[26.744,56.5735,104.7576],[26.7278,56.5744,118.9274],[26.7294,56.5834,106.5427],[26.7375,56.5829,104.8893],[26.7407,56.6008,108.6791],[26.7651,56.5994,102.2213],[26.7659,56.6039,99.6687],[26.774,56.6034,101.996],[26.7748,56.6079,105.1773],[26.7829,56.6075,99.2881],[26.7838,56.6119,99.2948],[26.8,56.611,100.3287],[26.8008,56.6155,100.0633],[26.7927,56.6159,102.8408],[26.7935,56.6204,100.742],[26.7773,56.6213,97.53],[26.7797,56.6347,99.9504],[26.7716,56.6352,106.6767],[26.7732,56.6441,98.0097],[26.7813,56.6437,100.9325],[26.7822,56.6481,97.8437],[26.7903,56.6477,95.2956],[26.7911,56.6521,99.0422],[26.783,56.6526,96.129],[26.7846,56.6615,97.9665],[26.7765,56.662,93.6306],[26.7781,56.6709,99.5325],[26.7618,56.6718,97.4915],[26.7635,56.6808,100.2856],[26.7716,56.6803,96.4764],[26.7724,56.6848,94.1043],[26.7805,56.6843,107.0576],[26.7822,56.6933,95.8534],[26.7903,56.6928,95.5755],[26.7928,56.7062,92.8114],[26.8009,56.7058,95.0401],[26.8025,56.7147,90.7046],[26.7781,56.7161,91.8617],[26.7773,56.7116,91.3992],[26.7692,56.712,92.054],[26.7708,56.721,92.0672],[26.7789,56.7205,90.5],[26.7797,56.725,90.5],[26.7716,56.7255,91.9422],[26.7724,56.7299,91.8084],[26.7806,56.7295,90.7152],[26.7814,56.7339,90.8393],[26.7895,56.7335,90.7106],[26.7903,56.7379,90.6771],[26.7985,56.7375,90.5],[26.7993,56.742,90.5],[26.8075,56.7415,90.5],[26.8083,56.746,90.5],[26.8164,56.7455,90.5],[26.8173,56.75,90.5],[26.8254,56.7495,90.5],[26.8262,56.754,91.6149],[26.8344,56.7535,91.2823],[26.8352,56.758,90.5],[26.8434,56.7575,90.5],[26.845,56.7665,90.5],[26.8532,56.766,90.5],[26.8548,56.7749,90.5],[26.863,56.7745,90.5],[26.8646,56.7834,90.9471],[26.8728,56.783,90.8294],[26.8744,56.7919,91.3704],[26.8826,56.7914,90.5],[26.8843,56.8004,90.7871],[26.8924,56.7999,90.5],[26.8941,56.8088,90.5],[26.9022,56.8084,91.0359],[26.9031,56.8128,91.1522],[26.9112,56.8124,91.788],[26.9138,56.8258,92.8915],[26.9219,56.8253,96.0143],[26.9236,56.8342,93.0957],[26.9318,56.8338,93.1201],[26.9326,56.8382,93.1069],[26.9489,56.8373,92.1105],[26.9506,56.8462,92.5376],[26.9588,56.8458,92.0146],[26.9596,56.8502,92.1135],[26.9678,56.8498,92.7544],[26.9686,56.8542,92.5758],[26.9768,56.8538,92.3896],[26.9777,56.8582,91.9394],[26.9858,56.8578,92.3376],[26.9875,56.8667,92.1062],[26.9957,56.8662,96.3553],[26.9982,56.8796,97.4348],[26.9901,56.8801,100.8913],[26.9909,56.8846,95.6809],[26.9827,56.885,95.8655],[26.9853,56.8984,95.8031],[26.9771,56.8989,96.1465],[26.9796,56.9123,94.2222],[26.9714,56.9128,92.7594],[26.974,56.9262,94.8498],[26.9658,56.9266,96.3666],[26.9666,56.9311,95.288],[26.9421,56.9325,106.5279],[26.9429,56.937,96.196],[26.9183,56.9384,93.133],[26.9192,56.9428,93.0196],[26.911,56.9433,93.4601],[26.9135,56.9567,101.0376],[26.9217,56.9562,98.2293],[26.9234,56.9652,102.2254],[26.9316,56.9647,96.8603],[26.9349,56.9826,110.203],[26.9103,56.984,103.4077],[26.9112,56.9884,97.9622],[26.903,56.9889,96.2881],[26.9021,56.9844,96.4852],[26.8857,56.9854,102.3185],[26.8849,56.9809,97.4822],[26.8767,56.9814,99.6124],[26.8775,56.9858,106.9877],[26.8693,56.9863,104.3852],[26.8702,56.9908,104.4131],[26.8538,56.9917,99.1004],[26.8579,57.014,100.2358],[26.8497,57.0145,104.4289],[26.8514,57.0234,101.0205],[26.8596,57.023,95.6989],[26.8613,57.0319,111.0435],[26.8695,57.0314,97.6914],[26.8703,57.0359,98.4348],[26.8785,57.0354,96.8522],[26.8802,57.0444,100.2892],[26.8884,57.0439,97.5842],[26.8893,57.0484,98.7545],[26.9139,57.047,113.7581],[26.9147,57.0514,103.7797],[26.923,57.051,110.2006],[26.9238,57.0555,102.8708],[26.932,57.055,109.7884],[26.9337,57.0639,102.7608],[26.9419,57.0634,109.4108],[26.9428,57.0679,109.9155],[26.951,57.0674,105.4361],[26.9527,57.0764,108.0135],[26.9609,57.0759,107.1328],[26.966,57.1027,105.614],[26.9742,57.1022,111.238],[26.9751,57.1067,114.3886],[26.9833,57.1062,112.9057],[26.985,57.1152,117.5534],[26.9932,57.1147,115.126],[26.9941,57.1192,108.5179],[27.0023,57.1187,111.685],[27.004,57.1276,111.5724],[27.0123,57.1272,111.8208],[27.0131,57.1316,114.4958],[27.0214,57.1311,109.8712],[27.0231,57.1401,107.4032],[27.0313,57.1396,110.9928],[27.0347,57.1575,106.1703],[27.043,57.157,101.4733],[27.0447,57.1659,117.8328],[27.0529,57.1655,108.2706],[27.0547,57.1744,105.8359],[27.0794,57.173,117.8262],[27.0803,57.1774,123.6839],[27.0885,57.1769,125.0329],[27.092,57.1948,118.7195],[27.1002,57.1943,117.5908],[27.1011,57.1988,120.5158],[27.1093,57.1983,126.8904],[27.1102,57.2028,130.3169],[27.1185,57.2023,138.9991],[27.1193,57.2068,119.9195],[27.1276,57.2063,129.5583],[27.1302,57.2197,129.9108],[27.1384,57.2192,129.5459],[27.1393,57.2237,139.6372],[27.1476,57.2232,127.654],[27.1484,57.2277,122.1559]]]]}}