{"type":"Feature","properties":{"ISO3166-1-Alpha-3":"LVA","country":"Latvia","fill":"#F0F","id":"5756","name":"Babites"},
"geometry":{"type": "Polygon","coordinates": [[[23.94265,56.93867,28.2617],[23.94916,56.94678,22.2433],[23.98859,56.96469,27.3646],[23.99417,56.97316,22.8864],[24.001,56.97926,23.2501],[23.99278,56.98453,3.4708],[23.96777,56.98768,21.5744],[23.95445,56.99138,13.7719],[23.93723,56.97302,3.5239],[23.90326,56.9623,0.5246],[23.86393,56.95514,-0.6487],[23.80136,56.94978,10.9899],[23.7799,56.95693,1.837],[23.76739,56.94263,18.6906],[23.7066,56.9319,3.2125],[23.67263,56.92833,15.8892],[23.63866,56.92833,1.7521],[23.61363,56.9319,0.0],[23.59039,56.92296,0.4096],[23.54927,56.92475,4.3176],[23.49203,56.93464,22.5462],[23.50676,56.89462,9.3977],[23.58764,56.8912,6.8963],[23.60081,56.88929,0.2542],[23.62624,56.88924,0.168],[23.66954,56.8749,7.9037],[23.70727,56.85214,8.9904],[23.71843,56.83596,12.1296],[23.73409,56.82201,14.1786],[23.76964,56.80005,31.3071],[23.78169,56.82106,12.4922],[23.8246,56.80318,7.2957],[23.85499,56.82642,8.9821],[23.84426,56.84787,13.0701],[23.82281,56.88363,9.4675],[23.85678,56.89793,12.1108],[23.89969,56.91402,16.4112],[23.91757,56.92833,4.8009],[23.94265,56.93867,28.2617]]]}}