{"type":"Feature","properties":{"ISO3166-1-Alpha-3":"LVA","country":"Latvia","fill":"#F00","id":"1094","name":"Riga"},
"geometry":{"type": "Polygon","coordinates": [[[24.16238,57.05282,4.4032],[24.15168,57.05559,19.2585],[24.11303,57.08872,0.0],[24.07455,57.07494,0.0],[24.03566,57.069,0.0],[24.02198,57.05903,1.2079],[24.00929,57.0456,1.7066],[23.99122,57.03124,4.0118],[23.95289,57.01325,13.8964],[23.92816,57.00666,0.4484],[23.9287,57.0059,0.1109],[23.93428,56.99699,0.0],[23.95445,56.99138,13.7719],[23.96777,56.98768,21.5744],[23.99278,56.98453,3.4708],[24.001,56.97926,23.2501],[23.99417,56.97316,22.8864],[23.98859,56.96469,27.3646],[23.94916,56.94678,22.2433],[23.94265,56.93867,28.2617],[23.97149,56.93324,8.3806],[24.00239,56.92371,13.0726],[24.02658,56.91963,9.9808],[24.04027,56.91004,10.6964],[24.06213,56.89844,12.0115],[24.06625,56.88612,14.0217],[24.07081,56.8725,13.2668],[24.08815,56.87613,12.3679],[24.09939,56.87849,11.303],[24.10404,56.88361,12.629],[24.11225,56.89263,16.8587],[24.13272,56.89836,13.3442],[24.1554,56.90239,2.3635],[24.197,56.88206,1.7893],[24.25872,56.87299,10.2758],[24.23669,56.90412,11.1884],[24.23468,56.9304,32.2548],[24.24651,56.94097,9.0005],[24.25845,56.94601,8.6598],[24.29906,56.95554,24.9127],[24.3202,56.96903,3.9334],[24.30253,56.99099,10.8502],[24.2879,56.99988,6.5266],[24.27442,57.00637,18.1555],[24.24992,57.01264,26.7626],[24.22444,57.02164,14.6849],[24.18129,57.04794,11.3847],[24.16238,57.05282,4.4032]]]}}