{"type":"Feature","properties":{"GID_2":"LVA.3.3_1","GID_0":"LVA","country":"Latvia","GID_1":"LVA.3_1","province":"Riga","NL_NAME_1":"NA","county":"Riga","VARNAME_2":"Rigaincl.Jurmala|Riia","NL_NAME_2":"NA","TYPE_2":"Aprinki|rajoni","ENGTYPE_2":"District","CC_2":"NA","HASC_2":"LV.RG","name":"Riga.county"},
"geometry":{"type": "MultiPolygon","coordinates": [[[[24.4086,57.307,4.3674],[24.4064,57.3046,4.8291],[24.4064,57.3018,11.4829],[24.4086,57.2915,0.0],[24.4125,57.2874,13.7404],[24.4125,57.2707,17.4806],[24.4086,57.2601,3.5266],[24.4047,57.2549,4.1063],[24.4053,57.2529,15.7279],[24.3958,57.2396,14.482],[24.3769,57.2212,2.7102],[24.3431,57.1974,1.6054],[24.3403,57.194,6.5074],[24.3336,57.1921,0.0],[24.3231,57.1849,14.1916],[24.3075,57.1771,5.3933],[24.2681,57.1607,1.091],[24.2681,57.1582,0.0],[24.2803,57.1512,1.3012],[24.2731,57.1532,2.5658],[24.2725,57.1549,0.0],[24.2675,57.1571,0.0],[24.2586,57.1565,0.6734],[24.2308,57.1351,9.9287],[24.2186,57.1279,8.3935],[24.1864,57.111,7.0485],[24.1581,57.0993,6.9827],[24.1203,57.0854,15.1049],[24.1031,57.0807,0.3658],[24.0997,57.0782,7.988],[24.0314,57.0649,2.3002],[24.0319,57.0632,0.3526],[24.0253,57.0579,4.9283],[24.0208,57.0601,0.8036],[24.0219,57.0571,7.9225],[24.0158,57.0532,1.0234],[24.0014,57.0385,4.3333],[23.9969,57.0379,2.5548],[23.9825,57.0279,3.4254],[23.9697,57.0218,8.1695],[23.9425,57.0132,0.2536],[23.9336,57.0088,0.0],[23.9347,57.0076,0.0],[23.8808,56.9926,9.9157],[23.8125,56.9787,8.2728],[23.7508,56.9687,16.1731],[23.6886,56.9629,9.5229],[23.6508,56.9621,0.5316],[23.6269,56.9637,12.0867],[23.6131,56.966,2.8324],[23.5975,56.9721,0.0583],[23.5631,56.9754,17.4955],[23.5531,56.9793,3.4801],[23.5364,56.9797,3.5999],[23.536,56.9752,13.4385],[23.5113,56.9759,7.382],[23.5109,56.9715,9.6804],[23.4944,56.9719,6.9973],[23.494,56.9674,6.6291],[23.4858,56.9677,6.817],[23.4841,56.9497,7.5777],[23.4758,56.95,13.8955],[23.475,56.941,18.7217],[23.4832,56.9408,16.7958],[23.4828,56.9363,21.2042],[23.491,56.936,15.862],[23.4906,56.9315,26.9565],[23.4988,56.9313,14.7219],[23.498,56.9223,20.7778],[23.5062,56.9221,21.3539],[23.504,56.8997,9.5641],[23.5123,56.8994,9.2339],[23.5118,56.895,9.3982],[23.5283,56.8945,14.3991],[23.5287,56.899,16.8819],[23.5451,56.8985,5.8783],[23.5533,56.8982,11.6928],[23.5529,56.8938,25.1822],[23.5775,56.893,14.9374],[23.5779,56.8975,13.014],[23.5944,56.897,8.2184],[23.5948,56.9015,7.3117],[23.6523,56.8998,-0.3721],[23.6518,56.8953,0.1104],[23.66,56.8951,-0.0105],[23.6592,56.8861,1.7669],[23.6838,56.8854,5.4955],[23.6833,56.8809,9.6249],[23.6915,56.8806,10.3929],[23.6911,56.8762,6.0692],[23.7075,56.8757,20.0388],[23.7071,56.8712,27.2219],[23.7153,56.8709,17.6008],[23.7148,56.8664,16.67],[23.7312,56.8659,11.752],[23.7303,56.857,10.1393],[23.7385,56.8567,22.5318],[23.7367,56.8388,11.0466],[23.7449,56.8385,7.3407],[23.744,56.8295,12.1409],[23.7522,56.8293,6.8512],[23.7513,56.8203,10.3649],[23.7758,56.8196,7.2793],[23.7745,56.8061,17.5964],[23.7827,56.8059,14.6303],[23.7822,56.8014,10.9903],[23.7904,56.8011,15.8897],[23.7899,56.7966,19.0903],[23.7818,56.7969,20.6398],[23.7799,56.7789,9.5421],[23.7717,56.7792,15.6771],[23.7704,56.7657,29.1425],[23.7622,56.766,7.1611],[23.7617,56.7615,23.4262],[23.7536,56.7618,5.3517],[23.7522,56.7483,5.8232],[23.7604,56.7481,23.2652],[23.7599,56.7436,25.2291],[23.7763,56.7431,21.8917],[23.7758,56.7386,10.3632],[23.7922,56.7381,22.7538],[23.7917,56.7336,24.7507],[23.8162,56.7328,5.9455],[23.8167,56.7373,25.9555],[23.8249,56.737,19.7374],[23.8253,56.7415,8.6311],[23.8335,56.7413,16.9855],[23.8326,56.7323,8.1796],[23.840699999999998,56.732,17.1458],[23.8421,56.7455,22.3943],[23.8585,56.745,15.4246],[23.859,56.7495,18.4946],[23.908,56.7479,5.5037],[23.9085,56.7524,7.6116],[23.9167,56.7521,5.3483],[23.9162,56.7476,3.9826],[23.9244,56.7474,8.5246],[23.9229,56.7339,5.1761],[23.9556,56.7328,12.608],[23.9561,56.7373,14.3919],[23.997,56.736,11.9939],[23.9974,56.7405,8.7042],[24.0138,56.7399,18.4048],[24.0133,56.7355,9.7672],[24.0215,56.7352,9.5315],[24.0205,56.7262,8.1949],[24.0123,56.7265,11.0567],[24.0119,56.722,7.6846],[24.02,56.7217,6.4053],[24.0191,56.7128,15.7129],[24.0354,56.7122,14.9313],[24.0349,56.7077,6.4573],[24.0594,56.7069,23.4722],[24.0589,56.7024,7.7898],[24.0752,56.7019,9.4365],[24.0748,56.6974,8.9271],[24.0911,56.6969,9.518],[24.0921,56.7058,21.9256],[24.1002,56.7055,11.8655],[24.0987,56.6921,9.7461],[24.1069,56.6918,11.9385],[24.1064,56.6873,14.7764],[24.1227,56.6868,19.3835],[24.1222,56.6823,17.5929],[24.1386,56.6817,18.1223],[24.1391,56.6862,35.7169],[24.1717,56.6851,20.3622],[24.1727,56.6941,20.4535],[24.1564,56.6946,23.2049],[24.1569,56.6991,17.2656],[24.1814,56.6983,34.1957],[24.1817,56.7015,34.4793],[24.1737,56.703,25.7024],[24.1742,56.7075,29.1121],[24.1824,56.7072,26.9994],[24.1821,56.7045,29.9673],[24.1847,56.7027,38.1242],[24.2227,56.7013,24.8167],[24.2232,56.7058,27.5957],[24.2314,56.7055,27.083],[24.2319,56.71,21.1533],[24.24,56.7097,38.2345],[24.2411,56.7187,12.4555],[24.2492,56.7184,15.9148],[24.2477,56.705,21.0466],[24.2558,56.7047,25.7818],[24.2553,56.7002,37.196],[24.288,56.6991,14.2188],[24.2875,56.6946,26.7807],[24.2956,56.6943,20.4753],[24.2951,56.6898,18.1274],[24.3196,56.6889,27.0878],[24.3191,56.6844,21.077],[24.3272,56.6842,29.8784],[24.3267,56.6797,31.3877],[24.3675,56.6782,27.11],[24.368,56.6827,43.1383],[24.3517,56.6833,51.2466],[24.3522,56.6878,49.8797],[24.3685,56.6872,24.7407],[24.3691,56.6917,30.3647],[24.4017,56.6905,41.4169],[24.4022,56.695,38.6528],[24.4186,56.6944,48.2455],[24.4191,56.6988,48.3796],[24.4273,56.6985,53.8377],[24.4278,56.703,50.0281],[24.436,56.7027,44.1921],[24.437,56.7117,51.6356],[24.4452,56.7114,37.6356],[24.4457,56.7159,40.8251],[24.4539,56.7156,36.438],[24.455,56.7245,47.0518],[24.4631,56.7242,47.2005],[24.4637,56.7287,48.6526],[24.48,56.7281,60.4672],[24.4805,56.7326,46.5954],[24.505,56.7317,52.7977],[24.511,56.781,27.899],[24.5192,56.7807,41.0902],[24.5203,56.7897,53.2925],[24.5121,56.79,44.1916],[24.5127,56.7944,53.3918],[24.5138,56.8034,29.5225],[24.5219,56.8031,28.8234],[24.5225,56.8076,16.0],[24.4979,56.8085,38.0964],[24.5006,56.8309,37.1599],[24.4761,56.8318,15.5],[24.4766,56.8363,14.0403],[24.4684,56.8366,15.0],[24.4679,56.8321,15.5],[24.4515,56.8327,17.282],[24.4531,56.8462,21.9399],[24.4367,56.8468,31.0544],[24.4373,56.8513,48.3669],[24.4209,56.8518,31.5026],[24.422,56.8608,35.4001],[24.4138,56.8611,23.1797],[24.4148,56.8701,26.5003],[24.423,56.8698,12.9679],[24.4236,56.8743,16.588],[24.4318,56.874,29.3193],[24.4334,56.8874,19.5251],[24.4252,56.8877,28.485],[24.4257,56.8922,23.4389],[24.4175,56.8925,17.1864],[24.418,56.897,17.605],[24.4591,56.8955,17.0459],[24.4585,56.891,16.8841],[24.4749,56.8904,30.6383],[24.4744,56.8859,16.4908],[24.4826,56.8856,26.8435],[24.482,56.8811,32.46],[24.4738,56.8814,34.3573],[24.4733,56.8769,26.5123],[24.4815,56.8766,30.1192],[24.481,56.8722,21.8728],[24.4892,56.8719,27.5839],[24.4897,56.8763,33.9292],[24.4979,56.876,23.8418],[24.4995,56.8895,21.326],[24.4913,56.8898,25.32],[24.4919,56.8943,15.7342],[24.4837,56.8946,14.5968],[24.4848,56.9035,30.5231],[24.5258,56.902,23.4332],[24.5263,56.9065,26.1004],[24.551,56.9056,22.5289],[24.5504,56.9011,31.8429],[24.5586,56.9008,46.7943],[24.5581,56.8963,27.657],[24.5663,56.896,37.2928],[24.5657,56.8915,23.7912],[24.6149,56.8897,45.0043],[24.6155,56.8941,39.304],[24.6483,56.8929,57.2104],[24.6489,56.8974,52.1624],[24.6735,56.8964,62.7158],[24.674,56.9009,65.8434],[24.715,56.8993,72.8456],[24.7168,56.9128,72.3729],[24.7414,56.9118,64.0908],[24.742,56.9163,67.0463],[24.7584,56.9157,61.6611],[24.7589,56.9202,67.2526],[24.7672,56.9198,69.6409],[24.7677,56.9243,69.0164],[24.7759,56.924,74.2752],[24.7765,56.9285,70.6556],[24.7847,56.9282,71.4448],[24.7853,56.9326,77.5569],[24.7935,56.9323,78.9315],[24.7941,56.9368,73.299],[24.8023,56.9365,81.1995],[24.8029,56.9409,63.3525],[24.8111,56.9406,76.5397],[24.8105,56.9361,84.8826],[24.8516,56.9345,73.0703],[24.851,56.93,67.0508],[24.8674,56.9294,61.8938],[24.8668,56.9249,62.5851],[24.8832,56.9242,65.474],[24.8838,56.9287,65.7119],[24.892,56.9284,72.6132],[24.8926,56.9329,86.2403],[24.9008,56.9325,73.7206],[24.9014,56.937,66.0496],[24.9096,56.9367,67.4729],[24.9102,56.9412,72.1713],[24.9349,56.9402,78.6597],[24.9355,56.9447,89.3832],[24.9437,56.9443,81.7586],[24.9443,56.9488,77.1279],[24.9607,56.9481,88.6668],[24.9601,56.9437,81.115],[24.9683,56.9433,89.1965],[24.9677,56.9388,87.5892],[24.9759,56.9385,97.9274],[24.9753,56.934,96.3502],[24.9917,56.9334,101.9209],[24.9923,56.9378,103.89],[25.0005,56.9375,95.948],[25.0018,56.9465,102.259],[25.0182,56.9458,97.3006],[25.0176,56.9413,90.8873],[25.0668,56.9393,109.5438],[25.0674,56.9437,103.1921],[25.0921,56.9427,107.9495],[25.0927,56.9472,97.422],[25.1337,56.9455,112.6984],[25.1344,56.95,104.7049],[25.1426,56.9496,103.4436],[25.1438,56.9586,110.5594],[25.1356,56.9589,106.5085],[25.1362,56.9634,109.0118],[25.1444,56.9631,106.8329],[25.1469,56.981,108.4433],[25.1387,56.9813,109.4704],[25.1412,56.9992,130.9441],[25.133,56.9996,113.8192],[25.1336,57.004,117.672],[25.1254,57.0044,115.5797],[25.126,57.0089,112.871],[25.1096,57.0096,112.3408],[25.1102,57.014,124.7893],[25.0938,57.0147,115.3159],[25.095,57.0237,105.1649],[25.0785,57.0244,103.6487],[25.0792,57.0289,107.7903],[25.0709,57.0292,106.2062],[25.0715,57.0337,102.7296],[25.0551,57.0344,109.0998],[25.0545,57.0299,107.2566],[25.0462,57.0302,109.4845],[25.0487,57.0481,128.02],[25.0322,57.0488,108.8771],[25.0329,57.0533,111.3218],[25.0081,57.0543,108.0866],[25.0088,57.0588,115.2132],[24.9923,57.0595,104.8571],[24.9929,57.0639,112.1919],[24.9847,57.0643,114.7617],[24.9865,57.0777,102.6137],[24.9782,57.078,104.2955],[24.9795,57.087,107.686],[24.9877,57.0867,99.1238],[24.9883,57.0911,103.4372],[24.9801,57.0915,111.9156],[24.9861,57.1363,122.9852],[24.9779,57.1366,123.3787],[24.9791,57.1456,126.1982],[24.9709,57.1459,135.9387],[24.9715,57.1504,126.3233],[24.9797,57.15,123.052],[24.9803,57.1545,124.6506],[24.9886,57.1542,122.8982],[24.9892,57.1587,122.4477],[24.9809,57.159,123.9067],[24.9852,57.1904,124.6335],[24.9769,57.1907,122.4524],[24.9782,57.1997,115.8728],[24.9699,57.2,120.4561],[24.9705,57.2045,111.2819],[24.954,57.2051,105.6257],[24.9546,57.2096,101.5256],[24.9463,57.21,93.405],[24.9475,57.2189,85.7819],[24.9392,57.2192,83.9192],[24.9399,57.2237,89.3559],[24.9316,57.2241,85.8069],[24.9322,57.2285,79.9018],[24.9239,57.2289,60.4345],[24.9233,57.2244,82.5322],[24.915,57.2247,61.2547],[24.9156,57.2292,34.357],[24.8991,57.2299,66.6613],[24.8997,57.2343,60.2924],[24.908,57.234,36.2505],[24.9086,57.2385,68.7993],[24.9168,57.2382,26.5681],[24.9174,57.2426,49.3552],[24.9257,57.2423,21.5245],[24.9263,57.2468,19.8198],[24.918,57.2471,72.6781],[24.9187,57.2516,90.0978],[24.9352,57.2509,56.2543],[24.9364,57.2599,61.2254],[24.9447,57.2596,38.4513],[24.9459,57.2685,29.7161],[24.9376,57.2688,92.1515],[24.9382,57.2733,85.6012],[24.9388,57.2778,78.1542],[24.9471,57.2775,74.3566],[24.949,57.2909,87.4358],[24.9407,57.2912,72.1222],[24.9413,57.2957,83.4574],[24.933,57.2961,49.0108],[24.9336,57.3005,54.3365],[24.9253,57.3009,54.7977],[24.9259,57.3054,53.3346],[24.9093,57.306,57.2066],[24.9099,57.3105,64.1217],[24.8933,57.3112,45.4162],[24.8939,57.3156,47.4891],[24.8856,57.316,57.1417],[24.8844,57.307,70.354],[24.8762,57.3073,66.2958],[24.875,57.2984,72.6854],[24.8667,57.2987,64.0834],[24.8655,57.2897,68.0266],[24.8572,57.2901,59.4404],[24.8566,57.2856,66.1446],[24.8317,57.2866,63.5068],[24.8311,57.2821,57.9444],[24.8228,57.2824,67.4257],[24.8222,57.2779,58.311],[24.814,57.2783,67.0286],[24.8134,57.2738,61.0],[24.8051,57.2741,66.2005],[24.8045,57.2696,60.7928],[24.7879,57.2703,65.6156],[24.7873,57.2658,70.3407],[24.7708,57.2664,71.2007],[24.7702,57.262,75.6828],[24.7619,57.2623,62.3144],[24.7613,57.2578,62.8007],[24.7282,57.2591,58.5254],[24.727,57.2501,51.8046],[24.7187,57.2504,60.8913],[24.7176,57.2415,48.2802],[24.7093,57.2418,53.8613],[24.7087,57.2373,49.633],[24.7004,57.2376,54.0808],[24.6999,57.2331,60.6236],[24.6585,57.2347,40.4372],[24.659,57.2392,58.3638],[24.6342,57.2401,58.0215],[24.6353,57.2491,39.1544],[24.6271,57.2494,50.3833],[24.6305,57.2763,41.4044],[24.6222,57.2766,45.9636],[24.6227,57.2811,52.483],[24.6062,57.2817,46.7453],[24.6067,57.2862,51.3393],[24.5902,57.2868,46.0195],[24.5913,57.2958,46.0577],[24.583,57.2961,45.1543],[24.5841,57.305,44.5687],[24.5675,57.3057,46.5064],[24.567,57.3012,43.3799],[24.5587,57.3015,39.9695],[24.5581,57.297,46.5352],[24.5498,57.2973,33.3377],[24.5504,57.3018,32.6189],[24.5421,57.3021,32.8757],[24.5432,57.3111,39.4715],[24.5515,57.3108,41.3223],[24.5521,57.3152,41.9724],[24.5438,57.3155,40.9362],[24.5454,57.329,40.0331],[24.5205,57.3299,36.3993],[24.52,57.3254,33.4485],[24.5034,57.326,30.1895],[24.5028,57.3216,47.8058],[24.4862,57.3222,29.2209],[24.4857,57.3177,30.4706],[24.4691,57.3183,33.5158],[24.4685,57.3138,38.6076],[24.4436,57.3147,22.4058],[24.4431,57.3102,28.8138],[24.4265,57.3108,23.5995],[24.4259,57.3063,21.2378],[24.4086,57.307,4.3674]]]]}}