{"type": "Feature","id": "5777","bbox": [24.37245,57.10595,24.68157,57.31635],"geometry": {"type": "Polygon","coordinates": [[[24.68157,57.22307,41.4041],[24.64328,57.23718,45.4167],[24.62215,57.26557,43.0212],[24.60153,57.27898,56.0944],[24.58912,57.28534,40.492],[24.57807,57.28875,44.0574],[24.57543,57.29087,42.7311],[24.57373,57.29573,42.7737],[24.56628,57.31004,50.9901],[24.55001,57.31635,42.0381],[24.47223,57.29371,32.0466],[24.46129,57.29477,23.1007],[24.47675,57.27005,27.2632],[24.48787,57.23806,23.1487],[24.44476,57.23528,18.125],[24.37245,57.18244,21.231],[24.3947,57.17827,10.1265],[24.42529,57.18105,17.1368],[24.46701,57.18244,20.3121],[24.50873,57.10595,11.8489],[24.55324,57.12403,9.7289],[24.56853,57.13794,21.5443],[24.6186,57.13237,13.2792],[24.66588,57.12542,22.8642],[24.67562,57.14906,59.3027],[24.67423,57.16992,47.4442],[24.65754,57.17966,43.331],[24.61999,57.17687,41.3149],[24.61582,57.2033,43.5604],[24.66032,57.21025,45.2136],[24.68157,57.22307,41.4041]]]}
,"properties": {"ISO3166-1-Alpha-3": "LVA","country": "Latvia","fill": "#00F","name": "Sejas","area_km2": 217.5532,"hist_schema_id": "Elevation0-9000","hist_area_km2": {"0": 5.6577,"25": 135.004,"50": 76.3747,"75": 0.5169}}}