{"type": "Feature","bbox": [26.9368,55.7818,28.0937,56.2646],"geometry": {"type": "MultiPolygon","coordinates": [[[[27.4916,55.7882,100.8374],[27.5272,55.7838,106.9964],[27.592,55.7818,121.0205],[27.5926,55.7888,126.799],[27.5972,55.7913,117.6696],[27.5968,55.7938,128.7851],[27.6289,55.8421,154.2681],[27.6307,55.8479,156.099],[27.6304,55.8912,161.5],[27.6322,55.897,162.4507],[27.6625,55.9152,161.4196],[27.6642,55.9308,161.7133],[27.6891,55.9438,168.7356],[27.7531,55.9698,166.9567],[27.7581,55.9724,158.3022],[27.7583,55.975,145.6819],[27.763,55.975,170.002],[27.7633,55.9776,156.3664],[27.7683,55.9802,140.0794],[27.768,55.9776,139.8162],[27.7727,55.9776,138.1149],[27.773,55.9802,142.233],[27.7821,55.9777,144.7503],[27.7774,55.9777,142.4303],[27.7772,55.9751,144.2043],[27.7819,55.9751,142.9733],[27.8007,55.9752,145.7483],[27.801,55.9778,150.4515],[27.8059,55.9804,155.0659],[27.8153,55.9804,165.4281],[27.8109,55.983,171.2342],[27.8112,55.9855,152.1015],[27.8159,55.9856,157.8308],[27.8115,55.9881,144.271],[27.8209,55.9882,144.3306],[27.8217,55.9959,138.4593],[27.8264,55.9959,139.7406],[27.822,55.9985,144.7956],[27.8226,56.0037,157.4877],[27.8181,56.0062,153.0402],[27.8275,56.0063,158.5191],[27.8278,56.0088,165.4798],[27.8328,56.0114,174.9981],[27.8375,56.0115,161.9158],[27.8378,56.014,152.3686],[27.8425,56.0141,159.9992],[27.8428,56.0166,154.1287],[27.8478,56.0192,150.7153],[27.848,56.0218,152.5954],[27.834,56.0252,152.2081],[27.8292,56.0247,149.6373],[27.8245,56.0281,152.3755],[27.8392,56.0317,153.9463],[27.8537,56.0333,156.0734],[27.8685,56.0387,154.3932],[27.8781,56.0395,148.4133],[27.8783,56.0417,156.2733],[27.8831,56.0421,147.3538],[27.8784,56.0438,146.5578],[27.8832,56.0442,144.0969],[27.8834,56.0463,144.1449],[27.888,56.0446,137.7282],[27.8882,56.0468,139.2699],[27.9073,56.0479,142.1503],[27.9117,56.0453,138.5035],[27.9164,56.0453,167.4897],[27.9214,56.0479,166.2683],[27.9219,56.0531,155.8661],[27.9314,56.0531,167.6108],[27.9316,56.0557,167.8608],[27.9363,56.0557,166.9898],[27.9366,56.0583,170.8332],[27.9516,56.0661,162.0084],[27.9526,56.0814,181.2424],[27.9671,56.0889,169.9429],[27.9673,56.094,184.5195],[27.9768,56.094,161.0755],[27.9816,56.0968,160.6796],[27.9817,56.0995,163.8007],[27.9864,56.0995,162.3601],[27.9867,56.1104,170.842],[28.0008,56.1104,151.3421],[28.0056,56.1131,149.0052],[28.0056,56.1158,169.3169],[28.0245,56.1159,147.2643],[28.0245,56.1132,143.4477],[28.0389,56.1145,139.1712],[28.0391,56.1102,137.7014],[28.0579,56.1104,137.8034],[28.0579,56.1204,142.2541],[28.0744,56.1271,139.7381],[28.0775,56.1387,142.9488],[28.0695,56.1392,144.7865],[28.0704,56.1437,148.5407],[28.0544,56.1448,146.0501],[28.0573,56.1581,171.0746],[28.0412,56.1592,168.6044],[28.0422,56.1637,166.8798],[28.0342,56.1642,164.0251],[28.0351,56.1687,185.3189],[28.0431,56.1681,171.2026],[28.0441,56.1726,169.6966],[28.0521,56.1721,158.7295],[28.054,56.181,170.9756],[28.062,56.1804,184.1791],[28.0649,56.1938,166.5175],[28.0729,56.1933,173.4695],[28.0757,56.2066,172.5136],[28.0838,56.2061,163.1396],[28.0847,56.2106,162.6406],[28.0927,56.21,160.3232],[28.0937,56.2145,152.4996],[28.0857,56.215,151.3746],[28.0866,56.2195,155.0047],[28.0706,56.2206,148.8595],[28.0677,56.2072,160.0129],[28.0517,56.2083,164.8824],[28.0546,56.2216,150.8141],[28.0465,56.2222,154.447],[28.0456,56.2177,168.1589],[28.0376,56.2183,155.1202],[28.0385,56.2227,170.6632],[28.0305,56.2233,158.7291],[28.0295,56.2188,156.291],[28.0215,56.2193,154.7657],[28.0206,56.2149,150.5903],[28.0045,56.216,150.3939],[28.0036,56.2115,150.431],[27.9956,56.212,150.9342],[27.9946,56.2076,163.7902],[27.9866,56.2081,157.7151],[27.9856,56.2037,160.6954],[27.9776,56.2042,151.8881],[27.9767,56.1997,153.1948],[27.9526,56.2013,192.4821],[27.9536,56.2058,183.8425],[27.9455,56.2063,180.8349],[27.9446,56.2019,179.6724],[27.9286,56.2029,175.9083],[27.9276,56.1985,179.4591],[27.9196,56.199,176.4785],[27.9168,56.1856,182.5702],[27.9008,56.1867,176.5312],[27.9017,56.1912,177.4872],[27.8937,56.1917,174.0281],[27.8956,56.2006,176.4821],[27.8795,56.2017,173.3729],[27.8786,56.1972,171.908],[27.8706,56.1977,171.2632],[27.8696,56.1933,181.5769],[27.8616,56.1938,172.9487],[27.8598,56.1849,173.2577],[27.8437,56.1859,174.4094],[27.8456,56.1949,182.7276],[27.8376,56.1954,172.5176],[27.8366,56.1909,173.2931],[27.8206,56.192,170.536],[27.8224,56.2009,176.6477],[27.7583,56.2051,184.1262],[27.7574,56.2006,180.9199],[27.7413,56.2017,179.368],[27.7422,56.2061,179.8965],[27.7182,56.2077,186.4937],[27.7191,56.2121,186.9866],[27.711,56.2127,185.4733],[27.712,56.2171,186.7854],[27.7039,56.2176,180.7625],[27.7058,56.2266,184.6814],[27.6977,56.2271,185.4561],[27.6986,56.2315,185.0093],[27.6826,56.2326,192.4315],[27.6835,56.237,191.9741],[27.6755,56.2375,193.903],[27.6773,56.2465,198.1473],[27.6692,56.247,209.039],[27.6702,56.2514,203.6953],[27.6621,56.252,233.0259],[27.663,56.2564,215.8483],[27.647,56.2575,230.9416],[27.6461,56.253,222.4215],[27.63,56.254,254.8377],[27.6291,56.2496,235.4506],[27.613,56.2506,239.555],[27.6121,56.2461,231.0163],[27.5961,56.2471,244.5834],[27.5952,56.2427,250.9419],[27.5791,56.2437,210.9646],[27.5809,56.2526,213.8628],[27.5729,56.2531,213.5157],[27.5719,56.2487,214.5093],[27.5479,56.2502,199.1671],[27.5505,56.2636,196.3986],[27.5345,56.2646,183.3222],[27.5309,56.2467,209.3001],[27.5148,56.2477,213.6126],[27.5139,56.2433,224.6063],[27.5059,56.2438,197.8149],[27.505,56.2393,219.8062],[27.497,56.2398,194.5174],[27.4961,56.2354,205.1962],[27.4399,56.2389,201.0181],[27.4381,56.23,183.7418],[27.4461,56.2295,178.8734],[27.4453,56.225,178.4247],[27.4613,56.224,189.3091],[27.4595,56.2151,194.3307],[27.4515,56.2156,188.4896],[27.4506,56.2111,180.3246],[27.4426,56.2116,176.5756],[27.4435,56.2161,176.0267],[27.4355,56.2166,178.2234],[27.4346,56.2121,169.1397],[27.4266,56.2126,164.0],[27.4257,56.2081,171.0537],[27.4016,56.2096,184.3056],[27.4007,56.2052,164.0],[27.3927,56.2057,164.0],[27.3936,56.2101,170.1565],[27.3855,56.2106,176.5883],[27.3864,56.2151,175.4075],[27.3543,56.2171,184.1541],[27.3534,56.2126,214.1546],[27.3213,56.2146,158.4973],[27.3204,56.2101,168.3906],[27.3124,56.2106,176.9377],[27.3115,56.2061,174.4289],[27.3035,56.2066,179.9403],[27.3044,56.2111,172.2765],[27.2964,56.2116,166.1407],[27.2955,56.2071,165.1531],[27.2794,56.2081,172.5078],[27.2786,56.2036,179.4255],[27.2625,56.2046,175.4508],[27.2634,56.2091,174.743],[27.2473,56.21,164.2639],[27.2482,56.2145,178.5982],[27.2401,56.215,162.4983],[27.2321,56.2155,170.162],[27.2313,56.211,179.1132],[27.2152,56.212,167.7619],[27.2143,56.2075,162.5078],[27.1983,56.2085,160.6462],[27.1991,56.213,158.8468],[27.1911,56.2134,166.0619],[27.1903,56.209,162.7276],[27.1822,56.2095,163.8827],[27.1831,56.2139,159.114],[27.167,56.2149,169.2347],[27.1679,56.2194,166.3424],[27.1598,56.2198,165.3946],[27.1581,56.2109,181.4663],[27.1501,56.2114,162.5],[27.1476,56.198,174.1263],[27.1395,56.1985,186.4592],[27.1404,56.2029,177.2641],[27.1324,56.2034,187.6106],[27.1315,56.1989,172.8645],[27.1235,56.1994,156.7319],[27.1218,56.1905,154.6495],[27.1138,56.191,144.5],[27.1146,56.1954,155.8052],[27.1066,56.1959,144.5],[27.1049,56.187,163.743],[27.1129,56.1865,161.1479],[27.1087,56.1642,144.5],[27.1168,56.1637,159.3273],[27.1159,56.1592,160.2032],[27.1239,56.1587,153.4038],[27.1231,56.1543,159.1171],[27.1311,56.1538,165.7226],[27.1303,56.1493,165.1104],[27.1383,56.1489,164.4226],[27.1374,56.1444,158.5881],[27.1294,56.1449,150.6902],[27.1277,56.1359,159.8851],[27.1358,56.1355,163.5703],[27.1315,56.1131,175.1684],[27.1396,56.1126,191.7191],[27.1387,56.1082,168.6335],[27.1467,56.1077,164.9819],[27.145,56.0988,168.5068],[27.121,56.1002,159.3691],[27.1219,56.1047,170.7828],[27.0978,56.1061,171.8153],[27.0974,56.1035,160.9531],[27.0996,56.1015,156.9948],[27.105,56.1012,155.5274],[27.1042,56.0967,151.4003],[27.0962,56.0972,147.8327],[27.0947,56.1018,148.8095],[27.081,56.1026,169.7493],[27.0801,56.0981,160.2878],[27.0721,56.0986,157.7865],[27.0713,56.0941,163.0248],[27.0633,56.0946,167.2581],[27.0616,56.0857,160.9729],[27.0456,56.0866,168.0492],[27.0448,56.0821,172.4405],[27.0368,56.0826,172.9965],[27.036,56.0782,172.4818],[27.028,56.0786,172.3459],[27.0271,56.0742,172.6379],[27.0111,56.0751,167.6564],[27.0095,56.0662,169.4177],[26.9855,56.0676,151.1736],[26.9846,56.0631,148.0253],[26.9766,56.0636,159.8198],[26.975,56.0546,179.727],[26.967,56.0551,167.5473],[26.9653,56.0462,150.3321],[26.9574,56.0466,131.2796],[26.9557,56.0377,148.207],[26.9637,56.0372,146.7324],[26.9629,56.0328,163.0864],[26.9709,56.0323,145.1494],[26.9692,56.0234,149.6185],[26.9772,56.0229,158.7921],[26.9756,56.014,167.7718],[26.9596,56.0149,161.0146],[26.9588,56.0104,158.0495],[26.9428,56.0114,166.1818],[26.9412,56.0024,156.8488],[26.9652,56.001,156.6733],[26.9643,55.9966,152.9301],[26.9484,55.9975,155.535],[26.9451,55.9796,167.9885],[26.9531,55.9792,165.9616],[26.9506,55.9658,161.0339],[26.9666,55.9648,175.5732],[26.9658,55.9603,163.0314],[26.9738,55.9599,173.859],[26.9721,55.9509,162.0185],[26.9562,55.9519,158.7117],[26.9554,55.9474,152.426],[26.9474,55.9479,151.9011],[26.9457,55.9389,151.1252],[26.9537,55.9385,142.2769],[26.9529,55.934,137.6595],[26.9689,55.9331,154.5121],[26.9672,55.9241,152.2539],[26.9592,55.9246,152.036],[26.9576,55.9157,148.0313],[26.9496,55.9161,139.9412],[26.9488,55.9117,131.8476],[26.9409,55.9121,134.259],[26.9368,55.8898,127.7838],[26.9448,55.8893,141.5737],[26.9423,55.8759,117.1796],[26.9583,55.875,147.0883],[26.9574,55.8705,133.095],[26.9654,55.8701,95.0808],[26.9662,55.8745,148.887],[26.9981,55.8726,112.0767],[26.9956,55.8592,135.1356],[26.9876,55.8597,149.1164],[26.986,55.8508,149.0831],[26.994,55.8503,142.3147],[26.9907,55.8324,160.6684],[26.9987,55.832,157.3339],[26.9962,55.8225,172.411],[27.0075,55.8103,164.4188],[27.012,55.8104,157.054],[27.022,55.8159,160.3289],[27.0268,55.816,159.3566],[27.027,55.8186,159.9908],[27.032,55.8213,147.0388],[27.0365,55.8188,150.5953],[27.0413,55.8189,144.7082],[27.041,55.8162,147.3607],[27.0458,55.8163,140.9478],[27.0455,55.8137,146.709],[27.0505,55.8164,138.16],[27.0508,55.8191,134.9287],[27.0555,55.8192,133.5],[27.0558,55.8218,135.0718],[27.0843,55.8224,139.12],[27.0981,55.8175,143.2474],[27.1128,55.8231,145.0815],[27.1131,55.8257,145.7905],[27.1181,55.8284,138.3919],[27.1188,55.8363,148.109],[27.1238,55.839,148.4903],[27.1286,55.8391,149.5976],[27.1336,55.8418,138.8841],[27.1431,55.842,145.8872],[27.1481,55.8447,135.4835],[27.1526,55.8422,135.2403],[27.1621,55.8422,137.5774],[27.1671,55.845,139.6915],[27.1715,55.8422,150.0287],[27.1763,55.8423,149.0636],[27.176,55.8395,144.0593],[27.1849,55.8341,153.4844],[27.1844,55.8287,155.4344],[27.1894,55.8314,151.7627],[27.1891,55.8287,157.0938],[27.1986,55.8287,162.5434],[27.203,55.826,169.3929],[27.2125,55.8261,171.1275],[27.2122,55.8234,166.4865],[27.2169,55.8234,177.4852],[27.2164,55.8179,162.3309],[27.2374,55.8038,166.0646],[27.2455,55.8004,154.3494],[27.2492,55.7973,140.1039],[27.2487,55.7954,155.8561],[27.2529,55.7941,155.8333],[27.2524,55.7922,148.8466],[27.2618,55.7936,132.3152],[27.2839,55.791,162.757],[27.2887,55.7919,160.7632],[27.3124,55.7904,163.3019],[27.3132,55.7949,151.0797],[27.3291,55.7939,154.9106],[27.33,55.7984,138.1284],[27.3458,55.7974,158.731],[27.3467,55.8018,144.4514],[27.3546,55.8014,164.7421],[27.3555,55.8058,151.6784],[27.3634,55.8053,127.6321],[27.3643,55.8098,114.7305],[27.3723,55.8093,98.9108],[27.3731,55.8138,107.7822],[27.3923,55.806399999999996,109.7134],[27.4013,55.8062,108.8368],[27.4036,55.8053,109.6419],[27.403199999999998,55.8028,96.5],[27.4119,55.8023,112.9304],[27.4178,55.8001,100.7941],[27.4182,55.7974,101.6271],[27.4579,55.7949,113.3613],[27.457,55.7904,117.5156],[27.4916,55.7882,100.8374]]]]}
,"properties": {"GID_2": "LVA.2.3_1","GID_0": "LVA","country": "Latvia","GID_1": "LVA.2_1","province": "Latgale","NL_NAME_1": "NA","county": "Kraslava","VARNAME_2": "NA","NL_NAME_2": "NA","TYPE_2": "Aprinki|rajoni","ENGTYPE_2": "District","CC_2": "NA","HASC_2": "LV.KR","name": "Kraslava.county","area_km2": 2331.645,"hist_schema_id": "Elevation0-9000","hist_area_km2": {"100": 21.975,"125": 124.355,"150": 690.982,"175": 1177.328,"200": 274.124,"225": 39.897,"250": 2.947,"275": 0.035}}}