{"type": "Feature","id": "1064","bbox": [26.93265,55.78722,27.76006,56.08063],"geometry": {"type": "Polygon","coordinates": [[[27.3856,56.02109,157.5],[27.36748,56.02368,157.5],[27.37525,56.05734,163.5],[27.37007,56.08063,200.7901],[27.3157,56.08063,165.6004],[27.26393,56.07287,173.925],[27.18886,56.05475,159.7806],[27.19403,56.01074,175.2435],[27.14743,55.98485,210.1897],[27.10343,55.98744,206.1135],[27.0413,55.98226,170.4065],[26.99988,55.99003,163.8079],[26.96774,56.00785,154.9863],[26.93265,56.0033,164.5055],[26.9435,55.96679,155.7796],[26.94712,55.96007,151.5304],[26.95565,55.95028,154.3976],[26.94448,55.94165,155.634],[26.9356,55.93219,152.3549],[26.95456,55.92759,150.2678],[26.94635,55.91132,131.425],[26.93782,55.90387,129.846],[26.93436,55.89276,125.1268],[26.9342,55.8739,105.5021],[26.97797,55.86421,124.8045],[26.98061,55.85535,129.8155],[26.98154,55.84465,143.5887],[26.97999,55.83892,159.3666],[26.97875,55.82708,154.5946],[26.97906,55.82672,154.5946],[26.97943,55.82629,154.5946],[26.98107,55.82688,153.6905],[27.11078,55.83628,133.3043],[27.15145,55.83246,151.4302],[27.1732,55.82574,146.2714],[27.23553,55.79585,163.5531],[27.26302,55.78722,158.192],[27.28245,55.79187,163.1809],[27.32916,55.81758,139.8618],[27.34963,55.83122,102.2736],[27.37459,55.81484,107.7822],[27.40585,55.80435,126.5056],[27.43882,55.79874,119.9562],[27.5646,55.79223,136.5863],[27.59271,55.79424,125.1593],[27.6015,55.80962,117.8314],[27.61013,55.83096,140.068],[27.61716,55.87855,191.1284],[27.64501,55.92284,165.3028],[27.74444,55.95974,154.317],[27.76006,55.97542,160.9662],[27.72473,55.99521,156.7247],[27.68072,56.00815,159.5769],[27.65483,56.02109,164.1339],[27.64189,56.01592,156.2868],[27.64448,55.98744,158.2839],[27.61859,55.99003,157.1067],[27.57199,55.99779,171.7979],[27.46068,56.03663,163.0254],[27.41408,56.03663,168.811],[27.3856,56.02109,157.5]]]}
,"properties": {"ISO3166-1-Alpha-3": "LVA","country": "Latvia","fill": "#00F","name": "Kraslavas","area_km2": 1032.6288,"hist_schema_id": "Elevation0-9000","hist_area_km2": {"100": 17.3475,"125": 114.919,"150": 420.8579,"175": 414.8646,"200": 60.4161,"225": 4.2237}}}