{"type": "Feature","bbox": [26.8497,56.7825,27.8684,57.3652],"geometry": {"type": "MultiPolygon","coordinates": [[[[26.9318,56.8338,93.1201],[26.9309,56.8293,95.4512],[26.9391,56.8288,97.3547],[26.9382,56.8244,101.6687],[26.9546,56.8234,96.4146],[26.9512,56.8056,99.1915],[26.9594,56.8051,95.6601],[26.9611,56.814,95.6429],[26.9692,56.8136,95.4511],[26.9709,56.8225,97.1101],[26.9791,56.822,92.849],[26.9799,56.8265,93.1334],[26.9881,56.826,93.2971],[26.9872,56.8216,98.8487],[27.0199,56.8197,93.0436],[27.0173,56.8063,95.2094],[27.0337,56.8053,96.2035],[27.0328,56.8009,100.8148],[27.0491,56.7999,100.2826],[27.05,56.8044,96.1171],[27.0581,56.8039,95.9313],[27.0607,56.8173,94.2676],[27.0689,56.8168,94.6719],[27.068,56.8124,94.2206],[27.0843,56.8114,95.5286],[27.0852,56.8159,100.1148],[27.1178,56.814,93.1777],[27.117,56.8095,93.2978],[27.1333,56.8085,100.2798],[27.1342,56.813,96.6397],[27.1586,56.8116,93.927],[27.1578,56.8071,94.8189],[27.1741,56.8061,102.2844],[27.1724,56.7972,103.3008],[27.1887,56.7962,103.2478],[27.1878,56.7918,100.5465],[27.2123,56.7903,97.9551],[27.2131,56.7948,103.823],[27.2702,56.7914,96.765],[27.2711,56.7958,104.6415],[27.2792,56.7954,103.3457],[27.2784,56.7909,98.7739],[27.3028,56.7894,104.1345],[27.302,56.785,100.2757],[27.3427,56.7825,96.9557],[27.3445,56.7914,101.276],[27.3363,56.7919,101.1755],[27.3399,56.8098,99.536],[27.348,56.8093,106.8625],[27.3489,56.8137,109.011],[27.3408,56.8142,109.7525],[27.3425,56.8232,104.5106],[27.3589,56.8222,109.638],[27.3606,56.8311,102.6685],[27.377,56.8301,106.4063],[27.3761,56.8256,112.9643],[27.3679,56.8261,110.6158],[27.367,56.8217,103.8018],[27.3996,56.8197,107.9841],[27.4005,56.8242,103.652],[27.4087,56.8237,111.865],[27.4096,56.8281,123.035],[27.4014,56.8286,123.4883],[27.4023,56.8331,110.1159],[27.3778,56.8346,104.1282],[27.3787,56.839,106.7123],[27.3951,56.838,109.8661],[27.3969,56.847,106.7632],[27.4132,56.846,108.5548],[27.4141,56.8504,107.2647],[27.4222,56.8499,107.6908],[27.424,56.8589,110.8175],[27.5057,56.8538,128.3465],[27.5066,56.8583,127.5558],[27.5229,56.8573,131.5923],[27.5238,56.8618,122.5608],[27.5483,56.8602,120.4915],[27.5493,56.8647,113.8048],[27.5329,56.8657,122.93],[27.5357,56.8791,116.7311],[27.5683,56.8771,122.9388],[27.5674,56.8726,112.6841],[27.5756,56.8721,114.045],[27.5738,56.8632,123.4556],[27.5819,56.8627,110.2215],[27.581,56.8582,110.4604],[27.5973,56.8572,109.792],[27.5983,56.8616,111.0171],[27.6064,56.8611,114.6285],[27.6055,56.8567,104.2892],[27.6137,56.8562,110.5644],[27.6127,56.8517,102.4677],[27.6209,56.8512,99.3397],[27.6191,56.8423,109.1384],[27.6272,56.8418,102.8722],[27.6263,56.8373,110.9364],[27.6589,56.8352,94.8336],[27.6608,56.8442,101.7169],[27.669,56.8436,103.4148],[27.6699,56.8481,99.0823],[27.6754,56.8749,101.2718],[27.6673,56.8754,98.0475],[27.6756,56.9155,91.1277],[27.6838,56.915,89.7228],[27.6848,56.9195,90.0273],[27.6929,56.919,92.6441],[27.6939,56.9234,93.5269],[27.7102,56.9224,92.6372],[27.7112,56.9268,92.6251],[27.7193,56.9263,92.1293],[27.7212,56.9352,90.041],[27.7294,56.9347,90.5388],[27.736,56.966,89.9556],[27.7278,56.9665,92.5444],[27.7287,56.9709,90.4525],[27.7369,56.9704,89.45],[27.7416,56.9927,92.849],[27.7334,56.9932,91.4159],[27.7343,56.9977,96.8481],[27.7261,56.9982,99.324],[27.7271,57.0027,104.0591],[27.7189,57.0032,101.9828],[27.7255,57.0344,91.7311],[27.7337,57.0339,105.9166],[27.7355,57.0428,93.9907],[27.7438,57.0423,96.4681],[27.7532,57.0869,87.9451],[27.7203,57.089,88.8237],[27.7222,57.0979,90.0988],[27.7304,57.0974,88.6811],[27.7323,57.1063,93.2144],[27.7405,57.1058,99.5634],[27.7415,57.1102,96.7862],[27.7497,57.1097,88.965],[27.7525,57.1231,102.4606],[27.7608,57.1226,84.0232],[27.7627,57.1315,83.7686],[27.7709,57.131,84.2357],[27.7718,57.1354,83.8067],[27.7801,57.1349,84.6814],[27.781,57.1394,86.1027],[27.7892,57.1389,90.2854],[27.7902,57.1433,92.026],[27.7984,57.1428,97.152],[27.7994,57.1472,98.0793],[27.8076,57.1467,82.5955],[27.8085,57.1512,85.5991],[27.8168,57.1507,81.8748],[27.8196,57.164,82.9311],[27.8279,57.1635,78.9271],[27.8346,57.1947,81.8623],[27.8428,57.1942,85.8418],[27.8486,57.2209,81.0525],[27.8568,57.2204,82.0174],[27.8684,57.2739,84.7812],[27.8601,57.2745,93.9475],[27.863,57.2878,84.5831],[27.8548,57.2884,86.325],[27.8577,57.3017,82.9316],[27.8525,57.3021,82.9885],[27.8501,57.3058,89.4986],[27.8513,57.3112,85.7942],[27.8431,57.3117,92.7456],[27.844,57.3162,82.3878],[27.8275,57.3172,93.2067],[27.8285,57.3217,95.0362],[27.8037,57.3233,94.0455],[27.8046,57.3277,98.8843],[27.7881,57.3288,94.4044],[27.789,57.3332,96.8558],[27.7808,57.3338,89.4526],[27.7827,57.3427,91.2405],[27.7744,57.3432,87.1264],[27.7754,57.3477,88.9307],[27.7671,57.3482,100.666],[27.7681,57.3526,108.9965],[27.7515,57.3537,109.6305],[27.7525,57.3582,111.5708],[27.7359,57.3592,114.8587],[27.7369,57.3637,116.6814],[27.7121,57.3652,133.9011],[27.7045,57.3295,115.3802],[27.6962,57.3301,117.467],[27.6952,57.3256,124.9566],[27.6704,57.3271,107.6024],[27.6686,57.3182,126.3156],[27.6603,57.3187,121.8237],[27.6594,57.3143,120.62],[27.6511,57.3148,108.7513],[27.6501,57.3103,125.4176],[27.6253,57.3119,111.5401],[27.6244,57.3074,119.958],[27.5996,57.309,122.3561],[27.5968,57.2956,123.4068],[27.6051,57.2951,124.0905],[27.6023,57.2817,117.6756],[27.5775,57.2832,121.683],[27.5738,57.2654,114.1795],[27.5655,57.2659,121.8504],[27.5665,57.2703,110.495],[27.5582,57.2708,122.1947],[27.5573,57.2664,118.6843],[27.5408,57.2674,122.5958],[27.5398,57.2629,110.1798],[27.5068,57.265,141.6414],[27.5105,57.2828,142.0611],[27.5022,57.2833,125.6967],[27.5032,57.2878,147.2951],[27.4784,57.2893,147.1232],[27.4738,57.267,142.8707],[27.4408,57.269,137.7313],[27.4389,57.2601,141.1635],[27.4307,57.2606,138.4086],[27.4298,57.2561,136.3396],[27.4215,57.2566,148.4281],[27.4224,57.2611,144.7282],[27.4059,57.2621,147.1276],[27.4068,57.2665,146.5589],[27.3986,57.267,147.928],[27.3995,57.2715,151.9005],[27.3912,57.272,140.3386],[27.3921,57.2764,145.479],[27.3838,57.2769,150.2846],[27.3848,57.2814,143.6024],[27.3765,57.2819,147.7672],[27.3774,57.2864,141.3167],[27.3609,57.2874,137.7128],[27.36,57.2829,145.9028],[27.3352,57.2844,137.0199],[27.3334,57.2755,144.4871],[27.3251,57.2759,132.4429],[27.3242,57.2715,134.4753],[27.316,57.272,145.3484],[27.3151,57.2675,133.1517],[27.3068,57.268,151.3677],[27.3041,57.2546,133.4515],[27.2959,57.2551,133.9423],[27.295,57.2506,125.3597],[27.2867,57.2511,133.753],[27.2876,57.2556,132.693],[27.2628,57.2571,141.7807],[27.261,57.2481,130.2289],[27.2528,57.2486,126.6506],[27.2519,57.2442,130.2399],[27.2436,57.2446,123.6563],[27.2419,57.2357,124.6354],[27.2336,57.2362,123.8512],[27.2345,57.2407,126.2576],[27.218,57.2416,121.2367],[27.2162,57.2327,121.289],[27.1997,57.2337,118.7918],[27.1988,57.2292,115.025],[27.1658,57.2312,132.2753],[27.1667,57.2356,129.5734],[27.1502,57.2366,135.4843],[27.1476,57.2232,127.654],[27.1393,57.2237,139.6372],[27.1384,57.2192,129.5459],[27.1302,57.2197,129.9108],[27.1276,57.2063,129.5583],[27.1193,57.2068,119.9195],[27.1185,57.2023,138.9991],[27.1102,57.2028,130.3169],[27.1093,57.1983,126.8904],[27.1011,57.1988,120.5158],[27.1002,57.1943,117.5908],[27.092,57.1948,118.7195],[27.0885,57.1769,125.0329],[27.0803,57.1774,123.6839],[27.0794,57.173,117.8262],[27.0547,57.1744,105.8359],[27.0529,57.1655,108.2706],[27.0447,57.1659,117.8328],[27.043,57.157,101.4733],[27.0347,57.1575,106.1703],[27.0313,57.1396,110.9928],[27.0231,57.1401,107.4032],[27.0214,57.1311,109.8712],[27.0131,57.1316,114.4958],[27.0123,57.1272,111.8208],[27.004,57.1276,111.5724],[27.0023,57.1187,111.685],[26.9941,57.1192,108.5179],[26.9932,57.1147,115.126],[26.985,57.1152,117.5534],[26.9833,57.1062,112.9057],[26.9751,57.1067,114.3886],[26.9742,57.1022,111.238],[26.966,57.1027,105.614],[26.9609,57.0759,107.1328],[26.9527,57.0764,108.0135],[26.951,57.0674,105.4361],[26.9428,57.0679,109.9155],[26.9419,57.0634,109.4108],[26.9337,57.0639,102.7608],[26.932,57.055,109.7884],[26.9238,57.0555,102.8708],[26.923,57.051,110.2006],[26.9147,57.0514,103.7797],[26.9139,57.047,113.7581],[26.8893,57.0484,98.7545],[26.8884,57.0439,97.5842],[26.8802,57.0444,100.2892],[26.8785,57.0354,96.8522],[26.8703,57.0359,98.4348],[26.8695,57.0314,97.6914],[26.8613,57.0319,111.0435],[26.8596,57.023,95.6989],[26.8514,57.0234,101.0205],[26.8497,57.0145,104.4289],[26.8579,57.014,100.2358],[26.8538,56.9917,99.1004],[26.8702,56.9908,104.4131],[26.8693,56.9863,104.3852],[26.8775,56.9858,106.9877],[26.8767,56.9814,99.6124],[26.8849,56.9809,97.4822],[26.8857,56.9854,102.3185],[26.9021,56.9844,96.4852],[26.903,56.9889,96.2881],[26.9112,56.9884,97.9622],[26.9103,56.984,103.4077],[26.9349,56.9826,110.203],[26.9316,56.9647,96.8603],[26.9234,56.9652,102.2254],[26.9217,56.9562,98.2293],[26.9135,56.9567,101.0376],[26.911,56.9433,93.4601],[26.9192,56.9428,93.0196],[26.9183,56.9384,93.133],[26.9429,56.937,96.196],[26.9421,56.9325,106.5279],[26.9666,56.9311,95.288],[26.9658,56.9266,96.3666],[26.974,56.9262,94.8498],[26.9714,56.9128,92.7594],[26.9796,56.9123,94.2222],[26.9771,56.8989,96.1465],[26.9853,56.8984,95.8031],[26.9827,56.885,95.8655],[26.9909,56.8846,95.6809],[26.9901,56.8801,100.8913],[26.9982,56.8796,97.4348],[26.9957,56.8662,96.3553],[26.9875,56.8667,92.1062],[26.9858,56.8578,92.3376],[26.9777,56.8582,91.9394],[26.9768,56.8538,92.3896],[26.9686,56.8542,92.5758],[26.9678,56.8498,92.7544],[26.9596,56.8502,92.1135],[26.9588,56.8458,92.0146],[26.9506,56.8462,92.5376],[26.9489,56.8373,92.1105],[26.9326,56.8382,93.1069],[26.9318,56.8338,93.1201]]]]}
,"properties": {"GID_2": "LVA.2.1_1","GID_0": "LVA","country": "Latvia","GID_1": "LVA.2_1","province": "Latgale","NL_NAME_1": "NA","county": "Balvi","VARNAME_2": "NA","NL_NAME_2": "NA","TYPE_2": "Aprinki|rajoni","ENGTYPE_2": "District","CC_2": "NA","HASC_2": "LV.BL","name": "Balvi.county","area_km2": 2368.555,"hist_schema_id": "Elevation0-9000","hist_area_km2": {"75": 55.121,"100": 1080.684,"125": 1134.267,"150": 98.253,"175": 0.23}}}