{"type": "Feature","id": "1063","bbox": [26.92847,56.78268,27.66496,57.28477],"geometry": {"type": "Polygon","coordinates": [[[27.40627,57.26307,149.5656],[27.3549,57.28477,139.056],[27.32601,57.27743,132.5576],[27.27589,57.24669,129.942],[27.24814,57.24896,127.1845],[27.241,57.24643,139.5038],[27.23418,57.24281,134.2003],[27.22891,57.23899,124.623],[27.22049,57.23439,122.0834],[27.20111,57.2348,118.2305],[27.18437,57.22811,119.3379],[27.15656,57.22638,135.3628],[27.13021,57.19964,131.4824],[27.09125,57.1701,106.0521],[27.06505,57.15574,109.3356],[27.0081,57.1145,120.4677],[27.04979,57.11183,102.1791],[27.09764,57.11411,114.0993],[27.09764,57.09133,113.9583],[27.11815,57.08449,100.737],[27.14776,57.08905,104.4204],[27.19789,57.07766,112.707],[27.2708,57.06398,119.8204],[27.30497,57.06626,121.6451],[27.32548,57.06171,118.8356],[27.31409,57.02525,126.6302],[27.28903,57.00019,128.7299],[27.25485,56.99335,124.714],[27.26168,56.97285,121.0579],[27.28675,56.97285,128.8648],[27.31409,56.97968,124.5582],[27.33232,56.93639,122.0426],[27.2913,56.92728,128.8084],[27.26624,56.91589,116.9993],[27.22523,56.89538,128.1849],[27.20017,56.86121,120.1046],[27.16599,56.86121,103.3015],[27.08397,56.87488,103.6153],[27.03612,56.88399,95.9443],[26.9851,56.87823,96.1748],[26.98371,56.87079,99.2717],[26.98076,56.86562,93.5631],[26.95332,56.84668,92.0905],[26.94402,56.84025,92.1714],[26.92847,56.83111,92.0088],[26.96619,56.80956,96.3739],[26.98402,56.80594,94.8588],[27.01756,56.80651,95.2094],[27.03228,56.80134,100.8148],[27.05791,56.80036,98.5164],[27.06753,56.80532,95.8988],[27.09559,56.80925,94.1029],[27.12137,56.81062,93.3394],[27.13316,56.80821,100.2798],[27.16075,56.81136,94.2459],[27.18607,56.79379,105.5037],[27.24317,56.7892,97.7982],[27.33986,56.78268,98.2628],[27.34792,56.78431,98.6162],[27.34482,56.8016,106.7165],[27.34839,56.8072,108.9752],[27.34808,56.81514,101.446],[27.35521,56.82165,108.3722],[27.3625,56.82459,104.2333],[27.3687,56.82446,109.8851],[27.37133,56.82201,101.275],[27.3766,56.82061,105.0249],[27.38342,56.82136,101.4083],[27.39495,56.82803,104.2612],[27.39092,56.83191,111.6204],[27.39572,56.83596,109.4247],[27.41216,56.84532,117.1258],[27.42781,56.85126,116.6019],[27.4467,56.85266,117.2024],[27.43484,56.88399,124.2624],[27.41662,56.90222,111.7774],[27.44396,56.91589,117.0444],[27.49408,56.91361,117.6154],[27.53737,56.93412,118.004],[27.51915,56.95462,116.6211],[27.61256,56.98424,110.9697],[27.66496,56.9888,97.078],[27.63762,57.01842,106.8732],[27.63079,57.03892,94.1788],[27.58978,57.04348,112.3904],[27.55332,57.03892,121.3436],[27.54193,57.07766,125.9708],[27.51459,57.07993,144.843],[27.45535,57.11411,143.4741],[27.40295,57.15968,122.2747],[27.42573,57.21208,122.8417],[27.44624,57.24398,126.3686],[27.48709,57.27387,136.7814],[27.46073,57.27418,138.8289],[27.40627,57.26307,149.5656]]]}
,"properties": {"ISO3166-1-Alpha-3": "LVA","country": "Latvia","fill": "#FF0","name": "Balvu","area_km2": 989.1178,"hist_schema_id": "Elevation0-9000","hist_area_km2": {"75": 0.0348,"100": 309.9015,"125": 625.0901,"150": 53.9191,"175": 0.1723}}}