{"type": "Feature","id": "5724","bbox": [24.87097,56.15988,25.40856,56.49567],"geometry": {"type": "Polygon","coordinates": [[[25.02781,56.45991,69.5728],[25.01351,56.49567,74.9689],[24.92054,56.48673,88.1013],[24.9116,56.47243,72.6165],[24.90088,56.45991,65.3302],[24.87764,56.45455,51.6841],[24.87097,56.4426,55.8372],[24.89226,56.43873,68.5299],[24.91014,56.42196,60.2988],[24.93629,56.37992,59.0493],[24.96212,56.31928,63.3098],[24.97318,56.30075,69.8512],[24.98321,56.29049,79.8594],[25.01649,56.2699,83.1733],[25.0262,56.26018,79.7264],[25.04398,56.22799,86.9984],[25.07313,56.19781,76.511],[25.1092,56.18308,81.0702],[25.34909,56.15988,90.3159],[25.34954,56.16024,90.3159],[25.35952,56.1682,91.6788],[25.37182,56.17414,88.1774],[25.40375,56.17549,89.6215],[25.40856,56.17859,90.1293],[25.40809,56.18246,88.6456],[25.39554,56.2021,94.476],[25.40344,56.23156,97.6887],[25.37223,56.25579,93.9925],[25.35642,56.26163,94.0936],[25.3375,56.27589,82.317],[25.31048,56.28737,78.6211],[25.31094,56.29775,95.611],[25.32433,56.30933,94.739],[25.342,56.31703,85.1549],[25.36293,56.32266,91.3116],[25.37027,56.32731,81.2298],[25.36138,56.33475,85.7342],[25.30536,56.33067,93.0536],[25.29916,56.33416,96.3955],[25.29621,56.33695,77.0576],[25.29823,56.3425,93.8605],[25.3021,56.34938,99.4406],[25.29854,56.36555,87.1158],[25.29823,56.37708,85.5738],[25.29358,56.4079,88.8658],[25.1333,56.41343,89.6456],[25.0743,56.4027,86.3689],[25.05106,56.46349,79.0457],[25.02781,56.45991,69.5728]]]}
,"properties": {"ISO3166-1-Alpha-3": "LVA","country": "Latvia","fill": "#F0F","name": "Neretas","area_km2": 648.7714,"hist_schema_id": "Elevation0-9000","hist_area_km2": {"50": 31.8335,"75": 456.9432,"100": 159.6882,"125": 0.3064}}}