{"type": "Feature","bbox": [26.773746013074231,56.7105403264967,26.993341651914449,56.825931064332309],"geometry": {"type": "Polygon","coordinates": [[[26.958901049040037,56.801498841780386,97.552],[26.956251771895865,56.811507222102875,97.0994],[26.950070125226091,56.818571961154021,96.0685],[26.941239201412145,56.823281787188137,102.8596],[26.9315251852168,56.825931064332309,99.9997],[26.914157701716022,56.825636700205195,92.8915],[26.884426924875726,56.815039591628448,91.1022],[26.866176348993577,56.812095950357133,91.9283],[26.837623028661795,56.802381934161787,93.0823],[26.806714795312956,56.778244075736978,92.0108],[26.782282572761034,56.747041478261025,91.8072],[26.773746013074231,56.715838880785071,91.9341],[26.794057137846295,56.7105403264967,91.3123],[26.829969561356364,56.71995997856493,95.4337],[26.993341651914449,56.791196097330783,97.1552],[26.96331651094701,56.799143928763328,97.8851],[26.958901049040037,56.801498841780386,97.552]]]}
,"properties": {"featurecla": "Lake","scalerank": 9,"name": "null592","name_abb": null,"name_alt": null,"note": "_untitled_147","delta": null,"dam_name": null,"year": -99,"admin": null,"min_zoom": 7.0,"min_label": 8.0,"area_km2": 82.45443,"hist_schema_id": "Elevation0-9000","hist_area_km2": {"100": 82.45443}}}