{"type": "Feature","id": "5788","bbox": [24.88005,57.38508,25.40468,57.67348],"geometry": {"type": "Polygon","coordinates": [[[25.37865,57.54979,47.0477],[25.35204,57.56701,61.2749],[25.31289,57.5858,69.6996],[25.27845,57.59363,65.685],[25.26905,57.61555,64.1352],[25.23148,57.63903,47.5472],[25.22522,57.64843,48.9687],[25.1986,57.65469,53.8216],[25.18921,57.67348,56.3365],[25.15633,57.66252,64.6484],[25.12188,57.65312,73.3967],[25.09375,57.65312,80.8768],[25.06703,57.65498,87.883],[25.06222,57.6524,82.5612],[25.06331,57.64811,79.4688],[25.07587,57.6387,75.6864],[25.08331,57.63411,81.82],[25.0847,57.62976,69.0463],[25.0678,57.62646,79.3724],[25.0616,57.62395,80.1737],[25.04238,57.62584,84.7946],[25.03303,57.63018,101.6709],[25.0276,57.63426,83.4045],[25.02403,57.63736,98.3219],[25.01907,57.63814,88.6749],[25.00574,57.63612,86.9785],[25.00016,57.63586,86.8012],[24.99148,57.63648,85.3962],[24.96631,57.62842,85.6956],[24.93453,57.61204,92.1401],[24.88144,57.62467,83.3803],[24.88005,57.58295,104.6384],[24.89495,57.56716,92.4068],[24.91618,57.55579,88.826],[24.93298,57.55644,91.6188],[24.98435,57.5639,87.7871],[25.00434,57.5622,88.1833],[25.02233,57.5553,80.2631],[25.04641,57.53535,112.767],[25.05137,57.5245,85.2676],[25.05137,57.51835,86.6252],[25.04703,57.51577,86.2148],[25.0478,57.51409,84.6657],[25.05385,57.51176,89.1602],[25.06672,57.51269,92.8058],[25.08083,57.51083,89.0051],[25.08708,57.50724,90.6083],[25.0878,57.50373,88.4032],[25.07959,57.50021,88.7405],[25.09778,57.48796,62.1742],[25.12305,57.49494,73.0601],[25.14087,57.47502,66.7835],[25.14056,57.46176,64.0565],[25.15968,57.44825,71.2798],[25.18464,57.43009,66.0676],[25.19689,57.42184,68.6661],[25.21074,57.41665,68.1966],[25.23818,57.41505,81.232],[25.2728,57.40492,88.507],[25.30117,57.40368,71.7265],[25.32278,57.40549,68.9471],[25.32898,57.40345,85.5029],[25.33487,57.39732,76.2154],[25.34898,57.3889,81.0642],[25.35735,57.38508,89.6155],[25.38685,57.38606,35.8721],[25.39321,57.39068,70.4361],[25.3929,57.3982,35.9405],[25.39709,57.40453,35.2918],[25.39864,57.41112,48.2866],[25.39181,57.42805,43.4599],[25.40251,57.43355,26.7613],[25.40468,57.435,30.0445],[25.39879,57.44125,42.9192],[25.39274,57.46524,32.5105],[25.37865,57.48403,73.5026],[25.37709,57.50908,49.1202],[25.37239,57.52787,46.6572],[25.37865,57.54979,47.0477]]]}
,"properties": {"ISO3166-1-Alpha-3": "LVA","country": "Latvia","fill": "#F00","name": "Kocenu","area_km2": 496.338,"hist_schema_id": "Elevation0-9000","hist_area_km2": {"25": 2.7724,"50": 145.2455,"75": 294.4375,"100": 53.0754,"125": 0.807}}}