{"type": "Feature","bbox": [27.2359,56.1271,28.2405,56.8791],"geometry": {"type": "MultiPolygon","coordinates": [[[[27.5919,56.4282,161.6481],[27.5928,56.4327,157.2578],[27.5847,56.4332,154.7919],[27.5838,56.4287,159.3176],[27.5919,56.4282,161.6481]]],
[[[28.1512,56.1625,146.5645],[28.1512,56.1611,128.3945],[28.1522,56.1653,138.9997],[28.1562,56.165,140.6759],[28.1572,56.1694,145.8806],[28.1732,56.1683,151.1082],[28.18,56.1996,140.3493],[28.188,56.199,126.4797],[28.1899,56.2079,134.5516],[28.1979,56.2074,128.0787],[28.1997,56.2156,138.9381],[28.1919,56.2168,151.2229],[28.1928,56.2213,159.136],[28.1848,56.2218,164.5352],[28.1858,56.2263,163.3665],[28.1938,56.2257,159.6797],[28.1977,56.2436,156.0516],[28.2057,56.243,172.1545],[28.2076,56.2519,165.1028],[28.2157,56.2514,160.8313],[28.2176,56.2603,162.5036],[28.2256,56.2598,166.0703],[28.2276,56.2687,159.877],[28.2356,56.2681,167.7648],[28.2405,56.2904,159.5209],[28.2325,56.291,141.1396],[28.2335,56.2954,147.0661],[28.2254,56.296,144.5198],[28.2274,56.3049,135.6041],[28.2193,56.3054,133.573],[28.2213,56.3143,135.1119],[28.2132,56.3149,131.3162],[28.2152,56.3238,134.0642],[28.2072,56.3244,132.8613],[28.2091,56.3333,134.8153],[28.2011,56.3338,132.1452],[28.203,56.3427,153.7714],[28.195,56.3433,136.4695],[28.1969,56.3522,134.9417],[28.1889,56.3528,133.7434],[28.1898,56.3572,127.6491],[28.1818,56.3578,126.2063],[28.1837,56.3667,126.5591],[28.1757,56.3672,128.1514],[28.1767,56.3717,130.2949],[28.1686,56.3722,131.2364],[28.1696,56.3767,126.1642],[28.1615,56.3772,129.299],[28.1625,56.3817,134.7897],[28.1705,56.3811,127.4028],[28.1725,56.3901,125.6079],[28.1805,56.3895,119.2408],[28.1825,56.3984,134.6154],[28.1905,56.3979,136.5501],[28.1935,56.4112,119.1752],[28.1854,56.4118,126.3344],[28.1893,56.4296,122.4423],[28.1813,56.4302,117.3756],[28.1842,56.4436,119.2566],[28.1761,56.4441,113.217],[28.1781,56.453,118.9502],[28.17,56.4536,116.501],[28.171,56.458,120.3934],[28.1629,56.4586,121.1261],[28.1639,56.463,113.7356],[28.1558,56.4636,125.5536],[28.1568,56.468,113.726],[28.1487,56.4686,136.3313],[28.1497,56.473,120.4176],[28.1416,56.4736,122.1507],[28.1426,56.478,116.2308],[28.1345,56.4786,121.1334],[28.1355,56.483,126.9312],[28.1274,56.4836,113.2399],[28.1293,56.4925,126.0191],[28.1212,56.4931,119.2776],[28.1261,56.5153,104.8856],[28.1099,56.5164,105.1063],[28.1109,56.5209,110.7855],[28.1028,56.5214,117.3423],[28.1048,56.5304,125.4666],[28.0967,56.5309,106.5163],[28.0976,56.5354,105.5561],[28.1057,56.5348,112.4261],[28.1067,56.5393,111.1987],[28.1148,56.5387,119.9049],[28.1158,56.5432,111.6467],[28.1238,56.5426,110.1681],[28.1248,56.5471,104.4768],[28.141,56.546,121.6757],[28.1439,56.5594,107.0417],[28.1358,56.5599,107.0686],[28.1387,56.5733,117.8113],[28.1307,56.5738,117.7231],[28.1316,56.5783,114.1607],[28.1154,56.5794,111.4641],[28.1164,56.5838,109.5731],[28.0516,56.5882,112.7037],[28.0526,56.5926,111.1392],[28.0364,56.5937,111.5155],[28.0393,56.6071,108.1168],[28.0312,56.6076,108.2433],[28.0331,56.6166,113.6836],[28.025,56.6171,109.3806],[28.0269,56.626,109.3015],[28.0188,56.6266,108.9245],[28.0207,56.6355,109.326],[28.0126,56.636,108.2944],[28.0174,56.6583,119.4045],[28.0093,56.6588,115.8371],[28.0122,56.6722,111.1194],[28.0041,56.6728,120.8673],[28.005,56.6772,120.3624],[27.9969,56.6778,117.2465],[27.9979,56.6822,117.67529999999999],[27.9816,56.6833,108.7764],[27.9874,56.71,115.3509],[27.963,56.7116,115.1412],[27.964,56.7161,115.0828],[27.9558,56.7166,109.3139],[27.9568,56.7211,122.9342],[27.9487,56.7216,104.973],[27.9496,56.7261,106.0606],[27.9334,56.7272,102.6049],[27.9343,56.7316,108.9401],[27.9262,56.7322,109.6695],[27.9271,56.7366,115.7872],[27.919,56.7371,127.5027],[27.92,56.7416,121.2744],[27.9118,56.7421,102.9737],[27.9128,56.7466,102.7483],[27.9046,56.7471,100.5961],[27.9056,56.7516,106.009],[27.9137,56.7511,101.6767],[27.9166,56.7644,109.9452],[27.9247,56.7639,102.0792],[27.9257,56.7684,110.8305],[27.9338,56.7678,104.2133],[27.9348,56.7723,99.3355],[27.9429,56.7717,110.3202],[27.9439,56.7762,99.9485],[27.952,56.7757,108.7063],[27.9539,56.7846,104.4698],[27.9458,56.7851,99.1817],[27.9506,56.8074,106.1512],[27.975,56.8058,120.1912],[27.9779,56.8192,104.3809],[27.9698,56.8197,105.5777],[27.9707,56.8241,100.8949],[27.9626,56.8247,104.2904],[27.9636,56.8292,100.9484],[27.9473,56.8303,117.039],[27.9463,56.8258,109.5641],[27.9055,56.8285,112.8649],[27.9065,56.8329,123.2606],[27.8983,56.8334,99.5227],[27.8993,56.8379,108.5117],[27.8911,56.8384,102.8598],[27.8921,56.8429,109.8867],[27.8839,56.8434,98.9522],[27.8858,56.8523,100.7941],[27.8777,56.8529,98.9324],[27.8786,56.8573,99.2805],[27.8705,56.8579,97.1062],[27.8714,56.8623,106.9628],[27.8632,56.8629,104.7465],[27.8642,56.8673,95.2024],[27.856,56.8678,96.5919],[27.857,56.8723,95.7377],[27.8488,56.8728,107.0606],[27.8498,56.8773,100.738],[27.8416,56.8778,94.653],[27.840699999999998,56.8734,99.2306],[27.7998,56.876,106.0319],[27.7979,56.8671,96.0621],[27.7898,56.8676,95.6902],[27.7888,56.8631,92.3587],[27.7643,56.8647,98.3559],[27.7634,56.8602,92.1938],[27.7552,56.8608,98.6106],[27.7543,56.8563,92.6408],[27.7135,56.8589,101.7996],[27.7126,56.8544,101.7226],[27.7044,56.855,101.9199],[27.7025,56.846,95.6748],[27.6944,56.8466,99.4977],[27.6925,56.8376,94.0529],[27.668,56.8392,97.9155],[27.669,56.8436,103.4148],[27.6608,56.8442,101.7169],[27.6589,56.8352,94.8336],[27.6263,56.8373,110.9364],[27.6272,56.8418,102.8722],[27.6191,56.8423,109.1384],[27.6209,56.8512,99.3397],[27.6127,56.8517,102.4677],[27.6137,56.8562,110.5644],[27.6055,56.8567,104.2892],[27.6064,56.8611,114.6285],[27.5983,56.8616,111.0171],[27.5973,56.8572,109.792],[27.581,56.8582,110.4604],[27.5819,56.8627,110.2215],[27.5738,56.8632,123.4556],[27.5756,56.8721,114.045],[27.5674,56.8726,112.6841],[27.5683,56.8771,122.9388],[27.5357,56.8791,116.7311],[27.5329,56.8657,122.93],[27.5493,56.8647,113.8048],[27.5483,56.8602,120.4915],[27.5238,56.8618,122.5608],[27.5229,56.8573,131.5923],[27.5066,56.8583,127.5558],[27.5057,56.8538,128.3465],[27.424,56.8589,110.8175],[27.4222,56.8499,107.6908],[27.4141,56.8504,107.2647],[27.4132,56.846,108.5548],[27.3969,56.847,106.7632],[27.3951,56.838,109.8661],[27.3787,56.839,106.7123],[27.3778,56.8346,104.1282],[27.4023,56.8331,110.1159],[27.4014,56.8286,123.4883],[27.4096,56.8281,123.035],[27.4087,56.8237,111.865],[27.4005,56.8242,103.652],[27.3996,56.8197,107.9841],[27.367,56.8217,103.8018],[27.3679,56.8261,110.6158],[27.3761,56.8256,112.9643],[27.377,56.8301,106.4063],[27.3606,56.8311,102.6685],[27.3589,56.8222,109.638],[27.3425,56.8232,104.5106],[27.3408,56.8142,109.7525],[27.3489,56.8137,109.011],[27.348,56.8093,106.8625],[27.3399,56.8098,99.536],[27.3363,56.7919,101.1755],[27.3445,56.7914,101.276],[27.3427,56.7825,96.9557],[27.302,56.785,100.2757],[27.3028,56.7894,104.1345],[27.2784,56.7909,98.7739],[27.2792,56.7954,103.3457],[27.2711,56.7958,104.6415],[27.2702,56.7914,96.765],[27.2376,56.7933,95.4955],[27.2359,56.7844,105.5354],[27.2522,56.7834,106.5378],[27.2513,56.779,111.5662],[27.2431,56.7795,113.8987],[27.2423,56.775,98.2009],[27.2504,56.7745,97.3227],[27.2487,56.7656,98.152],[27.2405,56.7661,98.436],[27.2361,56.7437,98.8138],[27.2443,56.7433,104.8835],[27.2425,56.7343,99.1667],[27.2507,56.7338,99.923],[27.2481,56.7204,99.6585],[27.2562,56.72,103.2766],[27.2553,56.7155,112.4382],[27.2635,56.715,112.74],[27.2608,56.7016,131.09],[27.269,56.7011,135.5631],[27.2681,56.6967,144.7455],[27.2844,56.6957,147.9216],[27.2835,56.6912,160.566],[27.2916,56.6907,152.7893],[27.2908,56.6863,164.1933],[27.307,56.6853,161.267],[27.3061,56.6808,161.8041],[27.3305,56.6793,161.7551],[27.3296,56.6749,174.792],[27.3378,56.6744,167.8948],[27.3369,56.6699,164.1515],[27.345,56.6694,169.8217],[27.3459,56.6739,172.7436],[27.354,56.6734,165.7422],[27.3549,56.6779,163.9303],[27.363,56.6774,176.7254],[27.3639,56.6818,164.7937],[27.372,56.6813,163.0439],[27.3729,56.6858,160.0501],[27.3811,56.6853,158.9224],[27.3802,56.6808,155.5581],[27.3883,56.6803,164.7922],[27.3892,56.6848,166.164],[27.4055,56.6838,154.8141],[27.4063,56.6883,159.0478],[27.4226,56.6873,152.8971],[27.4235,56.6917,151.918],[27.4316,56.6912,153.7786],[27.4325,56.6957,141.8454],[27.4488,56.6947,139.6987],[27.4497,56.6992,139.2577],[27.4578,56.6987,134.2242],[27.4587,56.7031,132.0468],[27.4831,56.7016,128.2655],[27.4822,56.6972,126.8464],[27.4903,56.6966,129.7075],[27.4885,56.6877,124.6743],[27.4967,56.6872,126.3023],[27.4949,56.6783,129.1158],[27.4786,56.6793,123.3483],[27.4777,56.6748,128.3156],[27.4696,56.6753,142.7314],[27.4687,56.6709,131.9018],[27.4768,56.6704,129.5085],[27.4759,56.6659,133.5333],[27.484,56.6654,141.578],[27.4822,56.6565,145.9919],[27.4904,56.656,138.3488],[27.4895,56.6515,145.6199],[27.5057,56.6505,144.4861],[27.5066,56.655,145.6895],[27.5147,56.6545,143.4958],[27.5156,56.6589,146.6247],[27.54,56.6574,143.5922],[27.5391,56.6529,143.0477],[27.5553,56.6519,148.0919],[27.5544,56.6475,150.2979],[27.5625,56.647,152.8436],[27.5607,56.638,152.608],[27.577,56.637,154.4929],[27.5761,56.6326,153.1531],[27.5923,56.6315,148.7265],[27.5895,56.6182,142.9233],[27.5814,56.6187,147.9413],[27.5778,56.6008,150.2894],[27.5616,56.6018,150.4702],[27.5598,56.5929,160.113],[27.5679,56.5924,152.8782],[27.5652,56.579,144.856],[27.5814,56.578,152.9114],[27.5768,56.5557,138.5606],[27.5849,56.5552,138.2047],[27.584,56.5507,138.1349],[27.5759,56.5512,146.7875],[27.575,56.5468,154.9297],[27.5669,56.5473,145.5586],[27.5651,56.5383,147.902],[27.5408,56.5399,148.7865],[27.5399,56.5354,143.8274],[27.5156,56.5369,154.4277],[27.5165,56.5414,147.5694],[27.5084,56.5419,158.045],[27.5075,56.5374,153.5096],[27.4994,56.5379,150.2238],[27.4976,56.529,142.1918],[27.4895,56.5295,142.078],[27.4878,56.5206,144.1475],[27.4958,56.5201,151.3333],[27.4941,56.5112,154.2542],[27.486,56.5117,152.8213],[27.4851,56.5072,156.2808],[27.4932,56.5067,152.4024],[27.4923,56.5022,146.8509],[27.5084,56.5012,147.3388],[27.5066,56.4923,146.0291],[27.4986,56.4928,157.644],[27.4968,56.4839,144.9048],[27.5049,56.4834,141.7623],[27.5031,56.4744,146.6377],[27.5111,56.4739,153.3605],[27.5102,56.4695,150.7863],[27.5183,56.469,147.3371],[27.5192,56.4734,150.2085],[27.5354,56.4724,147.5091],[27.5372,56.4813,144.0419],[27.5453,56.4808,142.2035],[27.5462,56.4853,144.5984],[27.5623,56.4843,145.5139],[27.5605,56.4754,153.0366],[27.5525,56.4759,150.3416],[27.5516,56.4714,147.6194],[27.5596,56.4709,153.6711],[27.5587,56.4664,147.0847],[27.5668,56.4659,147.2023],[27.565,56.457,154.9916],[27.5731,56.4565,155.4514],[27.5722,56.452,156.229],[27.5803,56.4515,155.7143],[27.5785,56.4426,158.9092],[27.5865,56.4421,161.3655],[27.5856,56.4376,156.8392],[27.6018,56.4366,155.1812],[27.6,56.4277,159.563],[27.6161,56.4267,157.4513],[27.617,56.4311,158.0847],[27.6251,56.4306,156.1519],[27.6178,56.3949,167.8896],[27.6259,56.3944,179.169],[27.625,56.3899,169.4972],[27.633,56.3894,173.3896],[27.6339,56.3939,176.015],[27.642,56.3934,165.4652],[27.6402,56.3844,158.0712],[27.6886,56.3814,160.3259],[27.6867,56.3724,167.6378],[27.6948,56.3719,171.9896],[27.6875,56.3362,200.5334],[27.6955,56.3357,190.604],[27.6946,56.3312,186.5113],[27.7027,56.3307,183.797],[27.7017,56.3263,202.992],[27.7098,56.3257,216.8244],[27.7089,56.3213,226.2243],[27.7169,56.3208,211.8211],[27.716,56.3163,197.6958],[27.7241,56.3158,199.2797],[27.7231,56.3113,207.7402],[27.7151,56.3118,200.9345],[27.7133,56.3029,207.7142],[27.6972,56.304,212.3619],[27.6944,56.2906,197.0857],[27.6864,56.2911,213.4526],[27.6818,56.2688,220.6872],[27.6979,56.2678,203.2308],[27.697,56.2633,184.8607],[27.6961,56.2588,185.8674],[27.688,56.2593,188.6958],[27.6871,56.2549,200.7397],[27.6791,56.2554,205.1518],[27.6755,56.2375,193.903],[27.6835,56.237,191.9741],[27.6826,56.2326,192.4315],[27.6986,56.2315,185.0093],[27.6977,56.2271,185.4561],[27.7058,56.2266,184.6814],[27.7039,56.2176,180.7625],[27.712,56.2171,186.7854],[27.711,56.2127,185.4733],[27.7191,56.2121,186.9866],[27.7182,56.2077,186.4937],[27.7422,56.2061,179.8965],[27.7413,56.2017,179.368],[27.7574,56.2006,180.9199],[27.7583,56.2051,184.1262],[27.8224,56.2009,176.6477],[27.8206,56.192,170.536],[27.8366,56.1909,173.2931],[27.8376,56.1954,172.5176],[27.8456,56.1949,182.7276],[27.8437,56.1859,174.4094],[27.8598,56.1849,173.2577],[27.8616,56.1938,172.9487],[27.8696,56.1933,181.5769],[27.8706,56.1977,171.2632],[27.8786,56.1972,171.908],[27.8795,56.2017,173.3729],[27.8956,56.2006,176.4821],[27.8937,56.1917,174.0281],[27.9017,56.1912,177.4872],[27.9008,56.1867,176.5312],[27.9168,56.1856,182.5702],[27.9196,56.199,176.4785],[27.9276,56.1985,179.4591],[27.9286,56.2029,175.9083],[27.9446,56.2019,179.6724],[27.9455,56.2063,180.8349],[27.9536,56.2058,183.8425],[27.9526,56.2013,192.4821],[27.9767,56.1997,153.1948],[27.9776,56.2042,151.8881],[27.9856,56.2037,160.6954],[27.9866,56.2081,157.7151],[27.9946,56.2076,163.7902],[27.9956,56.212,150.9342],[28.0036,56.2115,150.431],[28.0045,56.216,150.3939],[28.0206,56.2149,150.5903],[28.0215,56.2193,154.7657],[28.0295,56.2188,156.291],[28.0305,56.2233,158.7291],[28.0385,56.2227,170.6632],[28.0376,56.2183,155.1202],[28.0456,56.2177,168.1589],[28.0465,56.2222,154.447],[28.0546,56.2216,150.8141],[28.0517,56.2083,164.8824],[28.0677,56.2072,160.0129],[28.0706,56.2206,148.8595],[28.0866,56.2195,155.0047],[28.0857,56.215,151.3746],[28.0937,56.2145,152.4996],[28.0927,56.21,160.3232],[28.0847,56.2106,162.6406],[28.0838,56.2061,163.1396],[28.0757,56.2066,172.5136],[28.0729,56.1933,173.4695],[28.0649,56.1938,166.5175],[28.062,56.1804,184.1791],[28.054,56.181,170.9756],[28.0521,56.1721,158.7295],[28.0441,56.1726,169.6966],[28.0431,56.1681,171.2026],[28.0351,56.1687,185.3189],[28.0342,56.1642,164.0251],[28.0422,56.1637,166.8798],[28.0412,56.1592,168.6044],[28.0573,56.1581,171.0746],[28.0544,56.1448,146.0501],[28.0704,56.1437,148.5407],[28.0695,56.1392,144.7865],[28.0775,56.1387,142.9488],[28.0744,56.1271,139.7381],[28.0815,56.1286,142.9356],[28.0814,56.1309,139.6157],[28.0955,56.1312,133.9243],[28.0955,56.1287,138.4862],[28.1049,56.1288,137.7944],[28.1047,56.1414,141.9733],[28.1141,56.1416,143.1086],[28.1141,56.1442,146.7606],[28.1187,56.1468,144.0127],[28.1186,56.1489,145.2673],[28.1234,56.1494,135.2426],[28.1232,56.1515,135.2614],[28.1325,56.157,134.8634],[28.1373,56.1547,134.5411],[28.1372,56.157,136.9986],[28.1419,56.1573,132.8454],[28.1418,56.1597,133.8764],[28.1465,56.1599,151.9983],[28.1465,56.1625,144.9375],[28.1512,56.1625,146.5645]],
[[27.6367,56.4073,158.2259],[27.6286,56.4078,161.8344],[27.6295,56.4122,165.9973],[27.6376,56.4117,168.3683],[27.6367,56.4073,158.2259]]]]}
,"properties": {"GID_2": "LVA.2.4_1","GID_0": "LVA","country": "Latvia","GID_1": "LVA.2_1","province": "Latgale","NL_NAME_1": "NA","county": "Ludza","VARNAME_2": "Ludsen","NL_NAME_2": "NA","TYPE_2": "Aprinki|rajoni","ENGTYPE_2": "District","CC_2": "NA","HASC_2": "LV.LU","name": "Ludza.county","area_km2": 2557.19,"hist_schema_id": "Elevation0-9000","hist_area_km2": {"75": 0.035,"100": 633.29,"125": 715.632,"150": 726.628,"175": 366.795,"200": 106.942,"225": 7.87}}}