{"type": "Feature","id": "1065","bbox": [27.486,56.18195,28.16787,56.57593],"geometry": {"type": "Polygon","coordinates": [[[27.65742,56.56732,138.0919],[27.60306,56.57509,138.2535],[27.56114,56.57593,141.598],[27.57432,56.55696,141.9913],[27.56657,56.54172,143.0863],[27.55117,56.5351,145.3393],[27.53845,56.53154,151.9053],[27.52512,56.52929,163.5081],[27.50683,56.52807,155.1505],[27.49375,56.52087,148.3321],[27.48678,56.5149,149.7194],[27.486,56.50885,151.3155],[27.48709,56.4995,152.6647],[27.49546,56.48803,147.424],[27.49639,56.47792,143.7741],[27.50869,56.46017,146.2055],[27.54993,56.47857,144.4944],[27.55938,56.46446,147.6628],[27.55969,56.4571,148.7948],[27.57168,56.44281,156.9239],[27.5816,56.43361,154.7919],[27.58967,56.42831,160.9432],[27.59215,56.42439,161.573],[27.59106,56.42183,154.7191],[27.59649,56.41899,158.8276],[27.60253,56.41857,156.935],[27.60796,56.42048,150.5235],[27.62181,56.42069,161.8414],[27.62041,56.40715,183.3443],[27.62398,56.40108,163.0374],[27.62243,56.39248,180.5677],[27.64041,56.37878,161.2637],[27.67038,56.3718,193.2354],[27.68992,56.36062,186.3987],[27.68961,56.3547,193.0256],[27.68759,56.34726,194.4993],[27.69023,56.33238,212.528],[27.69891,56.32199,201.2614],[27.711,56.31114,207.6815],[27.7155,56.29848,206.8547],[27.68682,56.27631,218.9094],[27.68682,56.26287,205.8968],[27.69426,56.26075,184.0776],[27.69891,56.25807,184.3351],[27.70046,56.25502,193.6189],[27.69255,56.24982,199.6987],[27.68356,56.24726,192.226],[27.66759,56.24024,202.2617],[27.68713,56.2251,186.5427],[27.70185,56.21949,179.4069],[27.72247,56.20665,182.7846],[27.74392,56.19977,177.8338],[27.77849,56.19564,171.2109],[27.81094,56.19626,165.9543],[27.82242,56.18567,169.5212],[27.83844,56.18231,173.0989],[27.85285,56.18195,165.9614],[27.88758,56.18665,176.472],[27.89848,56.18324,169.7553],[27.91306,56.1837,182.7747],[28.00132,56.20329,155.8036],[28.0209,56.20964,167.5689],[28.03145,56.21448,160.2106],[28.03982,56.21569,174.5394],[28.04804,56.2144,177.2721],[28.05269,56.21107,157.4171],[28.0561,56.20696,161.8302],[28.06126,56.20355,167.2495],[28.06509,56.20329,176.2731],[28.07041,56.20851,158.2136],[28.08974,56.23855,152.5415],[28.12081,56.27479,166.0965],[28.09492,56.29809,158.2472],[28.04315,56.31362,153.9748],[28.00432,56.33174,157.0262],[27.93183,56.30845,183.7626],[27.9163,56.28515,171.8676],[27.86452,56.28515,185.6382],[27.84122,56.32139,200.9483],[27.87747,56.33174,183.0391],[27.91371,56.35504,175.0479],[27.95513,56.37834,157.1214],[27.99137,56.37575,154.4556],[28.01208,56.38352,129.4258],[27.99137,56.40423,169.1612],[27.97843,56.43271,149.4174],[28.02244,56.43788,129.1248],[28.06903,56.42235,119.4393],[28.11822,56.42235,131.2742],[28.16787,56.42713,118.2542],[28.16425,56.43795,120.5745],[28.1565,56.44622,112.9499],[28.10452,56.48307,111.2292],[28.09646,56.49195,107.2241],[28.09325,56.50159,109.9704],[28.0535,56.51814,109.7581],[27.98878,56.52331,122.0794],[27.94477,56.5026,151.0058],[27.91889,56.48189,163.3444],[27.88523,56.49743,142.789],[27.86452,56.52849,142.4029],[27.81275,56.55179,152.6034],[27.7765,56.54143,141.0054],[27.75579,56.52072,135.0643],[27.72473,56.53367,139.2814],[27.69108,56.56732,135.2555],[27.65742,56.56732,138.0919]]]}
,"properties": {"ISO3166-1-Alpha-3": "LVA","country": "Latvia","fill": "#00F","name": "Ludzas","area_km2": 961.5837,"hist_schema_id": "Elevation0-9000","hist_area_km2": {"100": 14.551,"125": 93.5547,"150": 431.1676,"175": 328.607,"200": 86.5629,"225": 7.1405}}}