{"type":"Feature","properties":{"ISO3166-1-Alpha-3":"LVA","country":"Latvia","fill":"#F00","id":"5752","name":"Riebinu"},
"geometry":{"type": "Polygon","coordinates": [[[26.83323,56.49479,119.5355],[26.82031,56.49552,129.2652],[26.80759,56.49849,119.8083],[26.80093,56.50725,120.8518],[26.77545,56.512,117.547],[26.82609,56.52417,119.5449],[26.81566,56.54001,124.5091],[26.77111,56.55608,105.2387],[26.74367,56.55885,110.2482],[26.72228,56.54311,111.0829],[26.70641,56.54608,107.9761],[26.62776,56.54373,125.4714],[26.59515,56.50655,112.6529],[26.59376,56.50159,124.3794],[26.59314,56.4966,121.1689],[26.59732,56.49557,115.9942],[26.59701,56.49454,111.052],[26.59639,56.4888,107.0387],[26.5595,56.48616,107.7782],[26.54053,56.48968,108.7601],[26.53711,56.46636,105.5681],[26.53711,56.44568,105.3004],[26.55985,56.43947,104.6421],[26.5764,56.43327,107.8766],[26.59087,56.44568,109.768],[26.62396,56.44981,118.6388],[26.68599,56.42914,115.0348],[26.73355,56.39605,128.314],[26.7108,56.38364,127.8198],[26.66945,56.36917,115.0465],[26.65084,56.33608,116.5823],[26.66531,56.32161,129.5807],[26.70253,56.31334,117.196],[26.74182,56.29059,138.8198],[26.78317,56.28232,157.7901],[26.81419,56.25337,156.152],[26.83901,56.21409,148.8497],[26.83487,56.19961,157.4612],[26.80178,56.18514,143.3614],[26.8266,56.17687,151.0275],[26.86175,56.16239,170.7414],[26.88243,56.15205,176.8237],[26.88847,56.12887,157.9747],[26.92849,56.12424,159.8588],[26.93676,56.13582,167.9242],[26.92021,56.14575,151.4945],[26.9318,56.15733,157.1508],[26.96819,56.16891,159.7775],[26.99963,56.17056,144.5],[27.03802,56.18011,144.5],[27.03461,56.18665,144.5],[27.03569,56.19812,144.5],[27.0343,56.20778,161.9894],[27.02887,56.21543,166.3749],[27.0157,56.22417,160.2169],[27.00159,56.23057,158.0926],[26.99725,56.23858,160.033],[26.98851,56.24794,169.7166],[26.98619,56.26323,160.2667],[26.95983,56.28403,160.3455],[26.94914,56.29775,159.668],[26.9465,56.30432,165.8303],[26.94433,56.31295,164.0996],[26.95084,56.31966,158.1602],[26.9758,56.32013,169.5111],[26.99115,56.3315,160.3678],[26.9665,56.35907,160.4939],[26.95177,56.37263,151.1929],[26.89761,56.41131,129.7072],[26.89994,56.41847,129.405],[26.91002,56.42508,128.6381],[26.91467,56.4334,127.2683],[26.92536,56.44761,131.9291],[26.93312,56.45493,127.8393],[26.94976,56.45816,124.272],[26.95844,56.4611,126.2899],[26.9527,56.47691,124.9753],[26.90227,56.47916,128.4246],[26.86594,56.48575,122.3314],[26.85788,56.49255,121.2283],[26.84733,56.49552,117.1806],[26.83323,56.49479,119.5355]]]}}