{"type": "Feature","bbox": [25.2886,56.058,26.6329,56.6686],"geometry": {"type": "MultiPolygon","coordinates": [[[[26.3141,56.114,105.3918],[26.3126,56.1051,107.2757],[26.3206,56.1047,92.9706],[26.3221,56.1136,88.9748],[26.3141,56.114,105.3918]]],
[[[26.3068,56.118899999999996,107.6655],[26.3149,56.1185,89.7882],[26.3186,56.1409,89.2751],[26.3106,56.1413,97.8571],[26.3091,56.1324,108.3409],[26.301,56.1328,99.2044],[26.3003,56.1283,97.3205],[26.3083,56.1279,110.8461],[26.3068,56.118899999999996,107.6655]]],
[[[26.2851,56.1832,82.0],[26.2771,56.1837,94.5348],[26.2778,56.1881,83.2152],[26.2698,56.1886,97.2846],[26.2706,56.193,89.5586],[26.2625,56.1934,92.2598],[26.2647,56.2069,87.4587],[26.2487,56.2077,89.6601],[26.2494,56.2122,91.0596],[26.2333,56.213,88.7564],[26.2341,56.2175,86.2683],[26.218,56.2183,82.0],[26.2187,56.2228,90.8302],[26.1865,56.2245,94.1656],[26.1873,56.2289,82.0],[26.1792,56.2294,93.7282],[26.1799,56.2338,82.9393],[26.1719,56.2342,96.573],[26.1726,56.2387,86.8792],[26.1646,56.2391,99.787],[26.1682,56.2615,96.2868],[26.1763,56.2611,100.1743],[26.177,56.2656,96.1183],[26.1851,56.2651,91.4731],[26.1865,56.2741,92.0105],[26.1946,56.2737,91.6658],[26.1953,56.2781,92.7072],[26.1792,56.279,92.3598],[26.1807,56.2879,87.5956],[26.1726,56.2883,95.8896],[26.1741,56.2973,90.7321],[26.166,56.2977,96.3934],[26.169,56.3156,87.8801],[26.1609,56.316,102.6271],[26.1638,56.3339,87.3911],[26.1558,56.3343,91.6387],[26.158,56.3477,90.4252],[26.1499,56.3481,91.1447],[26.1528,56.366,87.3095],[26.1447,56.3665,96.0723],[26.1477,56.3843,80.7563],[26.1315,56.3852,90.6389],[26.1322,56.3896,91.5303],[26.1242,56.3901,94.3013],[26.1249,56.3945,80.0],[26.1087,56.3954,100.2981],[26.1109,56.4088,96.8007],[26.0948,56.4096,89.9264],[26.0962,56.4185,91.5779],[26.1043,56.4181,98.7415],[26.105,56.4226,99.0408],[26.1131,56.4222,99.1499],[26.1138,56.4267,94.5242],[26.13,56.4258,103.8675],[26.1307,56.4303,99.7713],[26.1388,56.4299,92.9759],[26.1396,56.4344,89.325],[26.1638,56.4331,97.5114],[26.1653,56.4421,88.6465],[26.1734,56.4417,92.1678],[26.1749,56.4506,87.8516],[26.183,56.4502,89.3588],[26.1844,56.4591,86.5685],[26.1925,56.4587,86.4684],[26.194,56.4677,100.1632],[26.2021,56.4673,106.9118],[26.2043,56.4807,88.0157],[26.2124,56.4803,89.9858],[26.2132,56.4847,88.8891],[26.2213,56.4843,89.3564],[26.2227,56.4933,90.928],[26.239,56.4924,90.6184],[26.2412,56.5058,93.994],[26.2493,56.5054,91.4909],[26.25,56.5099,91.6793],[26.2662,56.509,92.0722],[26.267,56.5135,91.829],[26.2751,56.5131,94.2831],[26.2781,56.531,95.8111],[26.3024,56.5297,93.7405],[26.3017,56.5252,92.9798],[26.3179,56.5244,102.9387],[26.3171,56.5199,96.5625],[26.3252,56.5195,113.4122],[26.323,56.5061,104.9313],[26.3311,56.5057,98.0977],[26.3303,56.5012,100.1191],[26.3465,56.5003,104.1882],[26.3458,56.4959,107.4073],[26.3539,56.4954,99.4077],[26.3531,56.491,99.4365],[26.3612,56.4905,104.5606],[26.3604,56.4861,102.6097],[26.3685,56.4856,100.451],[26.3678,56.4812,98.1095],[26.3759,56.4807,98.0908],[26.3728,56.4628,110.5681],[26.3971,56.4616,107.0521],[26.3979,56.466,122.127],[26.406,56.4656,119.1952],[26.4067,56.4701,119.3353],[26.4148,56.4696,110.6289],[26.4156,56.4741,115.9229],[26.4237,56.4737,115.5724],[26.4244,56.4782,114.7746],[26.4325,56.4777,114.9981],[26.4333,56.4822,112.8191],[26.4495,56.4813,105.4418],[26.4503,56.4858,110.7975],[26.4584,56.4854,105.8242],[26.4599,56.4943,107.8546],[26.468,56.4939,110.5886],[26.4696,56.5028,119.0473],[26.4777,56.5024,117.9502],[26.4784,56.5068,129.1464],[26.4865,56.5064,120.4977],[26.4873,56.5109,110.4566],[26.5197,56.5091,109.9622],[26.5189,56.5047,111.6257],[26.5594,56.5025,110.796],[26.5579,56.4935,110.9822],[26.566,56.4931,111.5553],[26.5668,56.4976,112.207],[26.6234,56.4944,105.4019],[26.6258,56.5079,121.7328],[26.6177,56.5083,107.4015],[26.6169,56.5038,109.023],[26.6088,56.5043,116.2953],[26.6128,56.5266,112.5959],[26.6209,56.5262,120.4258],[26.6225,56.5351,114.4074],[26.6306,56.5347,112.6506],[26.6329,56.5481,110.4411],[26.6248,56.5485,119.3815],[26.6264,56.5575,110.4292],[26.6183,56.5579,127.527],[26.6199,56.5669,109.4804],[26.6037,56.5677,106.4238],[26.6021,56.5588,109.6607],[26.594,56.5592,111.4167],[26.5948,56.5637,107.5673],[26.5867,56.5642,119.0983],[26.589,56.5776,109.0908],[26.5971,56.5771,103.5763],[26.6027,56.6084,115.5499],[26.5864,56.6093,108.1509],[26.5857,56.6048,107.695],[26.4882,56.6101,110.5684],[26.489,56.6146,110.9543],[26.4808,56.615,111.57],[26.4816,56.6195,111.3703],[26.4654,56.6204,110.7978],[26.4661,56.6248,110.4649],[26.4499,56.6257,112.6923],[26.4507,56.6302,112.466],[26.4344,56.631,112.0103],[26.4352,56.6355,112.0179],[26.4189,56.6364,111.4951],[26.4197,56.6408,111.4286],[26.4116,56.6413,110.8316],[26.4123,56.6457,112.9145],[26.4042,56.6462,113.7847],[26.405,56.6506,112.2088],[26.3968,56.6511,109.5748],[26.3976,56.6555,106.6251],[26.3895,56.656,109.5334],[26.3872,56.6426,109.0877],[26.379,56.643,110.3279],[26.3767,56.6296,109.8448],[26.3686,56.63,111.0728],[26.3663,56.6166,110.1314],[26.3582,56.617,108.3986],[26.3567,56.6081,110.5159],[26.3485,56.6085,113.3866],[26.3478,56.604,110.5511],[26.3397,56.6045,113.6174],[26.3389,56.6,110.0204],[26.3308,56.6004,110.0208],[26.33,56.5959,108.7546],[26.2975,56.5976,103.7207],[26.2983,56.6021,104.5135],[26.2902,56.6025,100.131],[26.2917,56.6115,105.5145],[26.2835,56.6119,101.0032],[26.2843,56.6164,101.3605],[26.2924,56.616,102.5454],[26.2932,56.6204,106.4313],[26.285,56.6208,108.831],[26.2858,56.6253,107.5085],[26.2695,56.6262,115.5108],[26.2688,56.6217,112.9165],[26.2444,56.623,112.8714],[26.2437,56.6185,106.8335],[26.2355,56.6189,113.1544],[26.2348,56.6144,112.1642],[26.2185,56.6153,111.3856],[26.2193,56.6197,121.8525],[26.2111,56.6202,109.2287],[26.2126,56.6291,122.9131],[26.2045,56.6295,125.8966],[26.206,56.6385,134.1738],[26.2141,56.638,142.1417],[26.2156,56.647,132.8614],[26.2075,56.6474,123.8757],[26.2082,56.6519,128.7813],[26.1675,56.654,108.4662],[26.1668,56.6495,112.5034],[26.1587,56.6499,110.6636],[26.1594,56.6544,107.5109],[26.1513,56.6548,113.9128],[26.152,56.6593,102.7967],[26.1439,56.6597,96.1096],[26.1446,56.6642,106.4154],[26.1283,56.665,126.2329],[26.1276,56.6605,120.8131],[26.1195,56.6609,120.0697],[26.1187,56.6564,104.485],[26.0943,56.6577,110.6737],[26.0936,56.6532,109.9486],[26.0854,56.6536,115.4158],[26.0847,56.6491,112.1069],[26.0766,56.6495,109.7658],[26.0759,56.6451,100.3804],[26.0677,56.6455,123.2233],[26.0663,56.6365,97.981],[26.05,56.6373,104.6397],[26.0493,56.6329,101.85],[26.0411,56.6333,95.5245],[26.0404,56.6288,100.3641],[26.0241,56.6296,98.8011],[26.0249,56.6341,108.3108],[26.0167,56.6345,107.805],[26.0175,56.639,103.8225],[26.0256,56.6386,114.3667],[26.027,56.6475,113.6109],[26.0108,56.6483,112.0217],[26.0115,56.6528,106.7165],[26.0033,56.6532,110.1795],[26.0026,56.6487,90.7761],[25.9945,56.6491,94.5973],[25.9952,56.6536,105.4094],[25.9871,56.654,89.4855],[25.9892,56.6674,85.0975],[25.9648,56.6686,115.2173],[25.9627,56.6552,96.0818],[25.9545,56.6556,91.6456],[25.9538,56.6511,84.3446],[25.9457,56.6515,90.4645],[25.945,56.6471,87.63],[25.9368,56.6475,101.555],[25.9361,56.643,85.3853],[25.928,56.6434,91.3228],[25.9273,56.6389,83.8785],[25.9191,56.6393,84.6146],[25.9184,56.6348,78.5],[25.9021,56.6356,85.5293],[25.9014,56.6312,82.3112],[25.8852,56.632,83.9363],[25.8845,56.6275,82.1506],[25.8763,56.6279,85.0947],[25.8756,56.6234,79.6032],[25.8512,56.6246,84.1856],[25.8505,56.6201,79.9268],[25.8424,56.6205,81.1284],[25.8417,56.616,79.5505],[25.8254,56.6168,83.6472],[25.8247,56.6123,78.3912],[25.7922,56.6139,80.0699],[25.7915,56.6094,77.3146],[25.7752,56.6102,70.0],[25.7759,56.6147,80.4773],[25.7271,56.617,69.5],[25.7265,56.6125,69.5],[25.7102,56.6133,73.917],[25.7095,56.6088,71.2292],[25.7014,56.6092,69.5],[25.7,56.6003,94.8068],[25.6675,56.6018,81.572],[25.6668,56.5973,69.5],[25.6506,56.5981,76.5068],[25.6499,56.5936,69.5],[25.6417,56.594,71.2717],[25.6404,56.585,71.9347],[25.616,56.5862,72.021],[25.6153,56.5817,82.3197],[25.5991,56.5824,82.045],[25.5984,56.578,69.5],[25.5822,56.5787,89.5756],[25.5815,56.5742,69.5],[25.5571,56.5754,69.5],[25.5565,56.5709,69.5],[25.5889,56.5694,71.7836],[25.5896,56.5739,69.5],[25.614,56.5727,95.1642],[25.6113,56.5548,90.0356],[25.6032,56.5552,89.5639],[25.6018,56.5462,93.6869],[25.5937,56.5466,87.7011],[25.5931,56.5421,91.0678],[25.5687,56.5433,110.2415],[25.566,56.5254,99.3781],[25.5579,56.5257,102.5616],[25.5553,56.5078,91.3972],[25.5715,56.5071,98.1265],[25.5701,56.4981,101.1931],[25.5783,56.4978,104.7307],[25.5776,56.4933,104.1281],[25.5857,56.4929,99.0981],[25.585,56.4884,99.438],[25.5931,56.488,113.4244],[25.5925,56.4836,104.2975],[25.6006,56.4832,120.1198],[25.5979,56.4653,109.638],[25.5898,56.4657,95.6492],[25.5891,56.4612,93.0639],[25.581,56.4616,92.4897],[25.5804,56.4571,91.5],[25.5723,56.4575,92.9938],[25.5716,56.453,91.5],[25.5635,56.4534,93.1979],[25.5628,56.4489,92.2458],[25.5466,56.4496,103.2029],[25.5473,56.4541,102.3307],[25.523,56.4552,101.3934],[25.5223,56.4507,100.3657],[25.5142,56.4511,101.616],[25.5129,56.4422,101.6899],[25.5048,56.4425,100.5487],[25.5042,56.4381,95.3932],[25.4961,56.4384,94.0948],[25.4948,56.4295,93.0883],[25.4867,56.4298,96.0794],[25.486,56.4254,93.1692],[25.4779,56.4257,95.6346],[25.4773,56.4213,101.2672],[25.4692,56.4216,93.3304],[25.4685,56.4171,103.3928],[25.4119,56.4197,102.6766],[25.4112,56.4152,83.3703],[25.3951,56.416,95.1402],[25.3944,56.4115,88.0822],[25.3863,56.4118,82.4846],[25.387,56.4163,83.3231],[25.3627,56.4174,83.0399],[25.3633,56.4219,92.9721],[25.339,56.423,86.5002],[25.3397,56.4274,98.0542],[25.2992,56.4292,90.7503],[25.2986,56.4248,84.5393],[25.2905,56.4251,82.8901],[25.2886,56.4117,86.8258],[25.2967,56.4113,92.4054],[25.2954,56.4024,85.5278],[25.3035,56.402,82.4717],[25.3016,56.3886,90.3904],[25.2935,56.3889,101.9618],[25.2923,56.38,91.2063],[25.3003,56.3796,93.1013],[25.2972,56.3572,94.0787],[25.3053,56.3569,84.9972],[25.304,56.3479,88.2513],[25.2959,56.3483,91.455],[25.294,56.3348,77.5643],[25.3183,56.3338,90.7095],[25.3189,56.3382,85.6868],[25.3512,56.3368,80.5257],[25.3518,56.3413,84.9613],[25.368,56.3406,89.285],[25.3661,56.3271,92.4218],[25.358,56.3275,88.3422],[25.3574,56.323,83.2951],[25.3332,56.3241,80.8927],[25.3325,56.3196,83.9362],[25.3164,56.3203,80.5134],[25.3145,56.3069,82.0308],[25.3064,56.3072,83.5179],[25.3051,56.2983,87.938],[25.3132,56.2979,104.7116],[25.3126,56.2934,80.4792],[25.3206,56.2931,102.1904],[25.32,56.2886,82.4919],[25.3361,56.2879,83.6006],[25.3349,56.2789,83.5327],[25.3429,56.2786,99.1698],[25.3417,56.2696,94.0573],[25.3497,56.2693,81.0643],[25.3491,56.2648,90.2351],[25.3813,56.2633,89.5599],[25.3801,56.2544,87.5526],[25.3881,56.254,111.6969],[25.3875,56.2496,98.7371],[25.3955,56.2492,96.0245],[25.3936,56.2358,97.9239],[25.4017,56.2354,104.4067],[25.401,56.2309,93.0295],[25.393,56.2313,98.814],[25.3917,56.2223,85.2504],[25.3837,56.2227,93.6098],[25.383,56.2182,112.9243],[25.3911,56.2178,83.2499],[25.3872,56.191,94.7212],[25.3953,56.1906,88.3866],[25.3946,56.1861,89.2835],[25.4027,56.1858,91.2326],[25.402,56.1813,87.7307],[25.4101,56.1809,85.1951],[25.4082,56.1675,96.7956],[25.376,56.1689,84.97],[25.3754,56.1645,94.8216],[25.3593,56.1652,87.5494],[25.358,56.1562,92.3513],[25.3821,56.1551,93.9169],[25.3828,56.1596,122.6349],[25.4069,56.1585,102.1549],[25.4063,56.1541,93.4205],[25.4143,56.1537,95.4299],[25.4137,56.1492,100.1288],[25.4297,56.1485,97.3359],[25.4304,56.153,91.7643],[25.4384,56.1526,95.1107],[25.439,56.1571,99.919],[25.4631,56.156,96.3025],[25.4625,56.1515,98.302],[25.4705,56.1511,99.7022],[25.4699,56.1467,100.2905],[25.494,56.1456,95.8487],[25.4946,56.15,100.0804],[25.5107,56.1493,117.2103],[25.5127,56.1627,111.1494],[25.5207,56.1624,95.5],[25.5214,56.1668,105.238],[25.5535,56.1653,105.8188],[25.5522,56.1564,107.384],[25.5602,56.156,104.1443],[25.5583,56.1426,108.623],[25.6546,56.1381,103.6353],[25.6553,56.1425,104.6596],[25.6633,56.1422,101.6371],[25.664,56.1466,109.0645],[25.672,56.1463,102.7622],[25.6727,56.1507,114.0844],[25.6807,56.1503,107.3398],[25.6801,56.1459,102.342],[25.6881,56.1455,103.1849],[25.6854,56.1276,105.4496],[25.6934,56.1272,121.1132],[25.6928,56.1227,118.8771],[25.7008,56.1223,123.1278],[25.6961,56.091,118.1154],[25.7041,56.0906,120.2226],[25.7034,56.0861,120.0964],[25.7115,56.0858,127.1753],[25.7108,56.0813,123.1293],[25.7429,56.0797,147.4785],[25.7422,56.0753,137.123],[25.7502,56.0749,131.314],[25.7495,56.0704,137.0095],[25.7656,56.0696,124.9987],[25.7649,56.0652,129.6105],[25.7969,56.0636,145.7299],[25.7962,56.0591,143.3022],[25.8203,56.058,128.5228],[25.821,56.0624,139.1084],[25.837,56.0616,129.1917],[25.8404,56.084,133.069],[25.8485,56.0836,133.6718],[25.8491,56.0881,136.0485],[25.8652,56.0873,135.7817],[25.8659,56.0918,123.4042],[25.8739,56.0914,133.1563],[25.8746,56.0959,142.0957],[25.8585,56.0967,131.7167],[25.8592,56.1011,125.4131],[25.8512,56.1015,124.3741],[25.8526,56.1105,116.1487],[25.8446,56.1109,123.0311],[25.8453,56.1154,95.0],[25.8372,56.1157,103.9175],[25.8382,56.1222,116.774],[25.836,56.1248,129.779],[25.8306,56.1251,102.582],[25.8313,56.1296,120.5279],[25.8393,56.1292,121.8434],[25.8388,56.1262,118.432],[25.8405,56.1246,112.3924],[25.8547,56.1239,126.3922],[25.854,56.1194,127.2409],[25.87,56.1187,116.1056],[25.8693,56.1142,131.1278],[25.8774,56.1138,117.0932],[25.8767,56.1093,121.0523],[25.9007,56.1081,139.9449],[25.8993,56.0992,123.5639],[25.9074,56.0988,139.5281],[25.9067,56.0943,137.7099],[25.9147,56.0939,135.2058],[25.914,56.0894,133.4282],[25.922,56.089,138.2891],[25.9213,56.0846,133.6107],[25.9293,56.0842,146.5917],[25.9272,56.0707,139.3134],[25.9513,56.0695,134.3125],[25.952,56.074,137.3396],[25.96,56.0736,146.6631],[25.9614,56.0826,158.13],[25.9694,56.0822,140.4496],[25.9701,56.0866,139.5878],[25.9781,56.0862,135.5357],[25.9788,56.0907,136.3172],[25.9868,56.0903,135.1968],[25.9875,56.0948,135.0673],[25.9956,56.0944,130.1582],[25.9963,56.0988,125.7728],[26.0043,56.0984,137.3207],[26.0036,56.094,131.0342],[26.0196,56.0932,134.3616],[26.0189,56.0887,142.6237],[26.0269,56.0883,139.8363],[26.0262,56.0838,141.1032],[26.0342,56.0834,143.6927],[26.0328,56.0745,135.3213],[26.0408,56.0741,141.1483],[26.0415,56.0785,140.8685],[26.0576,56.0777,138.2653],[26.059,56.0867,145.2398],[26.075,56.0858,125.9534],[26.0757,56.0903,124.6329],[26.0838,56.0899,120.6056],[26.0873,56.1123,105.6807],[26.0954,56.1119,112.0435],[26.0961,56.1163,90.5912],[26.1121,56.1155,91.7169],[26.1107,56.1066,99.808],[26.1347,56.1053,103.3478],[26.1355,56.1098,105.215],[26.1435,56.1094,103.123],[26.1464,56.1273,114.8993],[26.1384,56.1277,100.9809],[26.1391,56.1322,121.7525],[26.1311,56.1326,95.5611],[26.1325,56.1415,102.6786],[26.1405,56.1411,107.6196],[26.1413,56.1456,108.4755],[26.1493,56.1452,109.6978],[26.15,56.1497,109.9874],[26.158,56.1493,113.0237],[26.1588,56.1537,111.1772],[26.1668,56.1533,107.9023],[26.1675,56.1578,110.6124],[26.1756,56.1574,115.5299],[26.1763,56.1618,111.4554],[26.1843,56.1614,105.0546],[26.1858,56.1704,96.7481],[26.1938,56.17,108.4467],[26.1945,56.1744,98.892],[26.2026,56.174,109.1915],[26.2033,56.1785,103.1301],[26.2355,56.1768,99.7594],[26.2347,56.1723,104.6991],[26.2427,56.1719,113.3781],[26.242,56.1675,109.22],[26.25,56.167,106.6627],[26.2478,56.1536,97.8619],[26.2559,56.1532,95.6194],[26.2573,56.1621,95.4325],[26.2654,56.1617,95.3941],[26.2661,56.1662,95.2551],[26.2902,56.1649,88.4217],[26.2894,56.1605,88.7475],[26.3055,56.1596,86.5831],[26.304,56.1507,116.1906],[26.312,56.1502,105.7816],[26.3113,56.1458,103.8559],[26.3193,56.1453,91.8318],[26.3208,56.1543,87.2311],[26.3128,56.1547,96.0395],[26.3143,56.1637,91.371],[26.3063,56.1641,89.2672],[26.3077,56.173,83.3534],[26.2997,56.1734,88.9274],[26.3005,56.1779,82.0],[26.2924,56.1783,98.7521],[26.2932,56.1828,93.1913],[26.2851,56.1832,82.0]]]]}
,"properties": {"GID_2": "LVA.5.4_1","GID_0": "LVA","country": "Latvia","GID_1": "LVA.5_1","province": "Zemgale","NL_NAME_1": "NA","county": "Jekabpils","VARNAME_2": "Jakobstadt","NL_NAME_2": "NA","TYPE_2": "Aprinki|rajoni","ENGTYPE_2": "District","CC_2": "NA","HASC_2": "LV.JK","name": "Jekabpils.county","area_km2": 2967.679,"hist_schema_id": "Elevation0-9000","hist_area_km2": {"75": 277.18,"100": 1846.149,"125": 774.063,"150": 69.561,"175": 0.727}}}