{"type": "Feature","id": "1085","bbox": [25.82074,56.47568,25.92537,56.53578],"geometry": {"type": "Polygon","coordinates": [[[25.88975,56.52243,88.2661],[25.87862,56.53578,95.6315],[25.85413,56.53578,94.4297],[25.82643,56.52717,94.0673],[25.82074,56.48681,83.5581],[25.84522,56.4779,78.5],[25.88307,56.47568,85.1064],[25.87656,56.49531,86.7312],[25.92537,56.51352,108.8],[25.91869,56.5291,90.9689],[25.88975,56.52243,88.2661]]]}
,"properties": {"ISO3166-1-Alpha-3": "LVA","country": "Latvia","fill": "#F0F","name": "Jekabpils","area_km2": 27.21388,"hist_schema_id": "Elevation0-9000","hist_area_km2": {"75": 12.13556,"100": 15.06662,"125": 0.0117}}}