{"type": "Feature","id": "5725","bbox": [25.68049,56.06635,26.34535,56.49531],"geometry": {"type": "Polygon","coordinates": [[[26.08852,56.40643,80.7939],[26.08033,56.41791,92.9685],[26.06406,56.43684,90.2385],[26.05527,56.45136,87.9407],[26.04322,56.45612,85.8598],[25.9257,56.48375,84.5391],[25.87656,56.49531,86.7312],[25.88307,56.47568,85.1064],[25.84522,56.4779,78.5],[25.82074,56.48681,83.5581],[25.80961,56.44451,83.6854],[25.843,56.41334,100.3485],[25.79402,56.35992,99.5576],[25.73392,56.35101,99.4602],[25.73614,56.32875,119.2649],[25.73392,56.29981,116.5499],[25.68049,56.29313,117.0691],[25.69384,56.22857,91.9321],[25.75618,56.2308,115.141],[25.8007,56.23525,117.4918],[25.83855,56.22634,127.8425],[25.87639,56.22189,118.7498],[25.89643,56.20186,133.0988],[25.90533,56.17069,135.9889],[25.94763,56.15733,121.0494],[25.97657,56.14843,115.8159],[25.97657,56.12839,113.5185],[25.98547,56.11058,120.598],[26.01219,56.10836,124.999],[26.02552,56.07942,144.5194],[26.037,56.06857,146.0911],[26.0463,56.06635,138.7491],[26.05891,56.06774,133.7663],[26.07937,56.0788,128.7609],[26.09239,56.0896,117.8536],[26.09756,56.09601,108.8955],[26.10857,56.10149,103.415],[26.1205,56.10071,89.118],[26.12934,56.09838,89.3744],[26.15244,56.10919,117.3621],[26.15306,56.11828,104.0428],[26.15136,56.12102,103.6213],[26.13895,56.1311,114.9069],[26.20582,56.1636,114.4518],[26.21967,56.16603,115.0641],[26.24339,56.16706,106.7767],[26.25719,56.16208,94.8556],[26.2822,56.15895,89.3331],[26.30499,56.15347,103.2142],[26.31305,56.15037,105.7816],[26.31755,56.14593,94.7355],[26.3207,56.14153,88.7568],[26.31863,56.135,89.125],[26.31507,56.13073,91.3581],[26.31631,56.12272,89.538],[26.34535,56.09345,89.6296],[26.34261,56.10789,88.3719],[26.34075,56.13425,100.1933],[26.33656,56.14944,98.0392],[26.3283,56.16267,89.4756],[26.3008,56.18334,110.881],[26.26427,56.21078,97.7757],[26.24944,56.21647,102.1674],[26.2392,56.21745,98.4246],[26.21936,56.22168,89.9023],[26.20815,56.22267,88.6945],[26.19352,56.22608,86.8625],[26.18903,56.23473,92.0043],[26.19109,56.25739,88.9741],[26.19244,56.26261,86.0404],[26.19528,56.26876,90.5748],[26.19771,56.27589,86.0084],[26.19792,56.28411,98.8575],[26.19621,56.28333,96.56],[26.19171,56.2854,93.0681],[26.18691,56.28855,84.1496],[26.18427,56.29093,88.5331],[26.18319,56.29605,88.9444],[26.18427,56.31548,96.5728],[26.18107,56.3208,92.7717],[26.16696,56.33718,81.0],[26.16381,56.34245,81.0],[26.16288,56.36333,82.9054],[26.16076,56.37227,88.8],[26.15699,56.38033,85.5349],[26.14469,56.38925,86.2889],[26.10888,56.40586,89.3071],[26.08852,56.40643,80.7939]]]}
,"properties": {"ISO3166-1-Alpha-3": "LVA","country": "Latvia","fill": "#F00","name": "Jekabpils","area_km2": 916.8554,"hist_schema_id": "Elevation0-9000","hist_area_km2": {"75": 41.6439,"100": 524.5349,"125": 332.8005,"150": 17.8762}}}