{"type":"Feature","properties":{"GID_2":"LVA.4.6_1","GID_0":"LVA","country":"Latvia","GID_1":"LVA.4_1","province":"Vidzeme","NL_NAME_1":"NA","county":"Valmiera","VARNAME_2":"Wolmar","NL_NAME_2":"NA","TYPE_2":"Aprinki|rajoni","ENGTYPE_2":"District","CC_2":"NA","HASC_2":"LV.VM","name":"Valmiera.county"},
"geometry":{"type": "MultiPolygon","coordinates": [[[[24.9489,58.0094,66.1448],[24.9075,57.9951,58.5872],[24.9023,57.9953,59.1125],[24.902,57.9932,58.3569],[24.8471,57.9755,57.0019],[24.841,57.9756,67.4514],[24.8391,57.9798,64.1431],[24.8323,57.98,65.8694],[24.831,57.9711,57.2253],[24.8395,57.9707,70.2386],[24.8389,57.9662,68.0546],[24.8304,57.9666,63.5845],[24.8286,57.9531,63.9185],[24.837,57.9528,64.1996],[24.8358,57.9439,78.4797],[24.8443,57.9435,57.5637],[24.8437,57.939,59.6565],[24.8268,57.9397,73.4791],[24.8256,57.9307,52.5974],[24.834,57.9304,52.8353],[24.8328,57.9215,58.9504],[24.8497,57.9208,52.9899],[24.849,57.9163,55.9579],[24.8659,57.9157,54.3548],[24.8647,57.9067,58.3744],[24.89,57.9057,64.6481],[24.8894,57.9012,60.2841],[24.8809,57.9016,49.5825],[24.8791,57.8881,55.7519],[24.8875,57.8878,69.2342],[24.8857,57.8744,56.4138],[24.8941,57.874,56.0912],[24.8923,57.8606,58.325],[24.9007,57.8603,58.3778],[24.897,57.8334,57.2557],[24.9307,57.8321,63.757],[24.9301,57.8276,64.9204],[24.9385,57.8273,63.2004],[24.9397,57.8362,62.4855],[24.9481,57.8359,80.8867],[24.9469,57.8269,68.9398],[24.9553,57.8266,75.6626],[24.954,57.8176,64.0762],[24.9456,57.818,66.1164],[24.945,57.8135,68.4228],[24.9618,57.8128,66.0597],[24.9631,57.8218,66.6833],[24.9883,57.8208,66.674],[24.9877,57.8163,66.6],[24.9961,57.816,63.7335],[24.9948,57.807,66.9292],[25.0117,57.8063,70.468],[25.011,57.8018,69.578],[25.0194,57.8015,68.2191],[25.0182,57.7925,73.6718],[25.0434,57.7915,61.1656],[25.0428,57.7871,56.6744],[25.0596,57.7864,61.5321],[25.0589,57.7819,56.4561],[25.0757,57.7812,61.6232],[25.0732,57.7633,72.4037],[25.0816,57.763,64.1752],[25.081,57.7585,75.6264],[25.0894,57.7581,66.3196],[25.0887,57.7537,62.5689],[25.0971,57.7533,63.1772],[25.0958,57.7444,61.7026],[25.0874,57.7447,62.992],[25.0855,57.7313,77.1633],[25.0772,57.7316,67.053],[25.0759,57.7227,73.2195],[25.0675,57.723,72.5219],[25.0669,57.7185,72.8856],[25.0585,57.7189,70.396],[25.0566,57.7054,85.2776],[25.065,57.7051,79.358],[25.0637,57.6961,85.7694],[25.0553,57.6965,85.5371],[25.0528,57.6785,84.4931],[25.0696,57.6779,86.4065],[25.0683,57.6689,93.587],[25.0767,57.6686,87.3931],[25.076,57.6641,97.6813],[25.0844,57.6637,88.2753],[25.0838,57.6593,75.3729],[25.0419,57.661,81.4257],[25.0413,57.6565,77.8177],[25.0497,57.6562,90.315],[25.049,57.6517,81.3983],[25.0574,57.6513,79.659],[25.0568,57.6469,93.4577],[25.0651,57.6465,79.7471],[25.0645,57.642,82.8787],[25.0729,57.6417,76.504],[25.0722,57.6372,74.9492],[25.0639,57.6376,81.6624],[25.0626,57.6286,82.7912],[25.0292,57.63,85.118],[25.0298,57.6344,87.5442],[25.0214,57.6348,91.9438],[25.022,57.6393,88.7766],[25.0137,57.6396,90.6003],[25.0143,57.6441,86.76],[24.9724,57.6458,82.1938],[24.9706,57.6323,84.7971],[24.9622,57.6327,90.1964],[24.9616,57.6282,84.9095],[24.9532,57.6285,91.0671],[24.9526,57.624,95.7721],[24.9443,57.6244,93.2397],[24.9436,57.6199,89.7587],[24.9353,57.6202,94.3015],[24.9347,57.6157,91.9372],[24.9263,57.6161,90.519],[24.9269,57.6206,89.0751],[24.9186,57.6209,93.6878],[24.9102,57.6212,106.408],[24.9096,57.6167,92.0338],[24.9012,57.6171,95.0512],[24.8994,57.6036,102.3211],[24.9077,57.6033,85.5202],[24.9065,57.5943,96.4721],[24.9149,57.594,87.1047],[24.9137,57.5851,88.2865],[24.922,57.5847,86.7077],[24.9208,57.5758,86.5718],[24.9292,57.5754,91.5105],[24.9279,57.5665,85.4428],[24.9363,57.5661,87.2758],[24.9369,57.5706,90.1431],[24.962,57.5696,94.2003],[24.9626,57.5741,106.8152],[24.9876,57.5731,85.849],[24.9882,57.5776,82.8005],[25.005,57.5769,82.9054],[25.0037,57.5679,80.7634],[25.0204,57.5673,82.859],[25.0192,57.5583,79.5449],[25.0275,57.558,80.5234],[25.0269,57.5535,79.5019],[25.0185,57.5538,81.661],[25.0179,57.5494,81.1445],[25.0346,57.5487,79.3509],[25.034,57.5442,78.2974],[25.0423,57.5439,78.8068],[25.0411,57.5349,96.204],[25.0578,57.5342,80.1256],[25.0565,57.5253,89.4783],[25.0315,57.5263,82.2345],[25.0309,57.5218,88.8795],[25.0392,57.5215,105.0734],[25.0386,57.517,85.752],[25.0553,57.5163,85.3658],[25.0559,57.5208,97.5829],[25.0642,57.5204,85.5802],[25.0636,57.516,89.1112],[25.097,57.5146,82.8286],[25.0957,57.5056,83.9908],[25.079,57.5063,87.8081],[25.0784,57.5018,81.8013],[25.0867,57.5015,82.4927],[25.0861,57.497,77.3521],[25.0944,57.4967,82.3611],[25.0938,57.4922,80.4804],[25.1021,57.4919,65.2454],[25.1028,57.4963,75.6771],[25.1194,57.4956,71.7667],[25.1201,57.5001,71.1666],[25.1284,57.4998,67.5337],[25.1278,57.4953,75.1179],[25.1361,57.495,67.9766],[25.1355,57.4905,70.777],[25.1438,57.4901,67.2456],[25.1387,57.4543,66.3582],[25.1637,57.4533,66.6772],[25.1631,57.4488,69.1084],[25.1714,57.4484,71.6818],[25.1707,57.444,64.6799],[25.1791,57.4436,68.5133],[25.1784,57.4391,61.1302],[25.1867,57.4388,71.6201],[25.1848,57.4254,60.0],[25.1931,57.425,66.7905],[25.1919,57.416,60.0],[25.2251,57.4146,65.9548],[25.2264,57.4236,68.9686],[25.243,57.4229,68.1975],[25.2424,57.4184,68.0952],[25.259,57.4177,53.0904],[25.2584,57.4132,53.1226],[25.2667,57.4129,65.4122],[25.2654,57.4039,65.7622],[25.2737,57.4036,66.8703],[25.273,57.3991,63.4166],[25.2814,57.3987,79.9484],[25.282,57.4032,73.0926],[25.2903,57.4028,76.7843],[25.2897,57.3984,69.7678],[25.298,57.398,82.2677],[25.2986,57.4025,72.5002],[25.3069,57.4021,72.8411],[25.3083,57.4111,70.5294],[25.3249,57.4104,84.3542],[25.3236,57.4014,75.6339],[25.3485,57.4003,70.9952],[25.3465,57.3869,83.0109],[25.3797,57.3855,40.8769],[25.3804,57.3899,32.7332],[25.3887,57.3896,43.8594],[25.3894,57.3941,27.6743],[25.3811,57.3944,38.6978],[25.3824,57.4034,53.0367],[25.3907,57.403,50.0022],[25.3914,57.4075,34.3577],[25.3927,57.4164,29.0542],[25.3844,57.4168,68.1408],[25.3864,57.4302,61.214],[25.403,57.4295,51.6374],[25.4044,57.4385,33.3294],[25.3877,57.4392,56.3393],[25.3884,57.4437,69.3663],[25.4133,57.4426,81.7868],[25.414,57.447,68.927],[25.4223,57.4467,51.6525],[25.4217,57.4422,63.7323],[25.43,57.4418,60.9725],[25.4307,57.4463,59.1647],[25.439,57.4459,75.1591],[25.4383,57.4415,63.9859],[25.4716,57.44,64.9377],[25.4722,57.4445,70.631],[25.4806,57.4441,79.4052],[25.4812,57.4486,68.1382],[25.4896,57.4482,79.7082],[25.4902,57.4527,66.3027],[25.5152,57.4516,64.5895],[25.5132,57.4381,73.092],[25.5215,57.4378,75.4328],[25.5208,57.4333,68.9918],[25.5457,57.4322,68.1364],[25.5464,57.4367,69.0489],[25.5547,57.4363,66.8777],[25.5575,57.4542,75.0388],[25.5658,57.4538,80.4554],[25.5665,57.4583,68.2865],[25.5831,57.4575,75.513],[25.5838,57.462,71.9099],[25.5922,57.4616,65.1198],[25.5928,57.4661,68.9055],[25.6012,57.4657,68.351],[25.6005,57.4613,66.9444],[25.6088,57.4609,67.7529],[25.6095,57.4654,67.7757],[25.6428,57.4638,78.7674],[25.6435,57.4683,71.0261],[25.6518,57.4679,66.7668],[25.6511,57.4635,65.9508],[25.6594,57.4631,73.2229],[25.6615,57.4765,62.4299],[25.6699,57.4761,68.7746],[25.6713,57.4851,74.3487],[25.6629,57.4855,72.6796],[25.6636,57.4899,60.5699],[25.647,57.4907,53.1227],[25.6477,57.4952,60.8326],[25.6227,57.4963,79.994],[25.6241,57.5053,74.4634],[25.6157,57.5056,80.2057],[25.6178,57.5191,75.4014],[25.6095,57.5194,69.9807],[25.6109,57.5284,71.8587],[25.6192,57.528,74.0952],[25.6206,57.537,62.901],[25.6373,57.5362,87.8298],[25.6387,57.5452,56.8027],[25.6554,57.5444,61.5186],[25.6561,57.5489,51.0337],[25.6644,57.5485,62.0596],[25.6651,57.553,65.4321],[25.6735,57.5526,55.8664],[25.6756,57.566,60.1739],[25.6672,57.5664,63.2765],[25.6693,57.5798,60.2393],[25.661,57.5802,47.4567],[25.6624,57.5891,64.4309],[25.654,57.5895,52.3898],[25.6547,57.594,66.0239],[25.6464,57.5944,54.8032],[25.6457,57.5899,68.9312],[25.6373,57.5903,56.7117],[25.6206,57.591,57.6667],[25.6213,57.5955,62.301],[25.6046,57.5963,63.6526],[25.6053,57.6007,50.9981],[25.597,57.6011,55.781],[25.5977,57.6056,48.0041],[25.5893,57.606,49.7595],[25.590699999999998,57.6149,47.0479],[25.5991,57.6146,46.4222],[25.6005,57.6235,60.2124],[25.5921,57.6239,53.1219],[25.5928,57.6284,53.1494],[25.5677,57.6295,61.8013],[25.5684,57.634,60.529],[25.535,57.6355,65.7646],[25.5356,57.6399,64.8896],[25.5189,57.6407,64.9154],[25.5203,57.6496,64.1861],[25.5119,57.65,79.8347],[25.5126,57.6545,66.3902],[25.521,57.6541,64.5424],[25.5244,57.6765,68.4734],[25.5077,57.6772,87.3192],[25.5084,57.6817,82.5661],[25.5,57.6821,82.9495],[25.5007,57.6865,76.3573],[25.4923,57.6869,87.7792],[25.4944,57.7003,77.9892],[25.486,57.7007,82.1485],[25.4867,57.7052,79.264],[25.4783,57.7056,85.6513],[25.479,57.71,83.6202],[25.4873,57.7097,78.3993],[25.4887,57.7186,83.5823],[25.5139,57.7175,81.7683],[25.5145,57.722,82.6219],[25.5397,57.7209,79.0443],[25.5404,57.7253,86.5157],[25.5488,57.725,87.3946],[25.5515,57.7429,59.0733],[25.5599,57.7425,64.052],[25.5606,57.747,61.5739],[25.5438,57.7477,62.601],[25.5459,57.7611,62.2794],[25.5291,57.7619,53.7543],[25.5298,57.7664,66.7337],[25.5214,57.7667,59.3355],[25.5221,57.7712,76.7612],[25.5137,57.7716,60.0946],[25.5151,57.7805,69.7629],[25.5235,57.7802,59.0729],[25.5242,57.7846,61.3963],[25.541,57.7839,50.0681],[25.5417,57.7884,65.6087],[25.5585,57.7876,72.7081],[25.5599,57.7966,73.5565],[25.5515,57.797,64.6005],[25.5536,57.8104,53.8309],[25.5704,57.8096,55.2238],[25.5725,57.8231,55.8111],[25.5641,57.8234,51.2802],[25.5647,57.8279,53.3927],[25.5395,57.829,53.5171],[25.5402,57.8335,62.9468],[25.5318,57.8339,53.6443],[25.5325,57.8383,55.5716],[25.5241,57.8387,53.8444],[25.5248,57.8432,55.7571],[25.5164,57.8436,53.1052],[25.5171,57.848,64.0177],[25.5087,57.8484,65.8154],[25.5093,57.8529,55.6816],[25.5009,57.8533,49.4467],[25.5016,57.8577,66.3025],[25.4932,57.8581,54.5372],[25.4939,57.8626,59.016],[25.4855,57.863,56.4821],[25.4862,57.8674,59.1343],[25.4778,57.8678,62.3764],[25.4791,57.8768,52.9992],[25.4875,57.8764,54.066],[25.4889,57.8853,63.5603],[25.4973,57.885,49.5638],[25.4967,57.8805,56.0693],[25.5051,57.8801,50.5977],[25.5044,57.8756,59.867],[25.5212,57.8749,56.2602],[25.5219,57.8794,52.8854],[25.5303,57.879,54.0555],[25.5317,57.888,65.9546],[25.5401,57.8876,59.5836],[25.5408,57.8921,63.5026],[25.5661,57.8909,67.0964],[25.5654,57.8865,65.2145],[25.5738,57.8861,62.7868],[25.5752,57.895,64.0393],[25.6005,57.8939,85.4666],[25.5998,57.8894,70.7086],[25.6082,57.889,78.0575],[25.6075,57.8846,74.2935],[25.6159,57.8842,82.57],[25.6152,57.8797,71.366],[25.6236,57.8793,72.7685],[25.6229,57.8749,72.6008],[25.6482,57.8737,73.8741],[25.6475,57.8692,73.7035],[25.6559,57.868899999999996,73.1597],[25.6552,57.8644,78.3312],[25.6804,57.8632,76.8514],[25.6833,57.8811,73.8321],[25.6917,57.8808,73.6736],[25.6931,57.8897,89.0477],[25.6847,57.8901,80.9257],[25.6861,57.899,88.6435],[25.6946,57.8987,88.2547],[25.6954,57.9037,86.8971],[25.679,57.9044,79.1504],[25.6778,57.9124,81.2979],[25.6613,57.9154,82.3548],[25.6547,57.9149,85.6062],[25.6553,57.9185,96.22],[25.6497,57.9187,93.0097],[25.6476,57.9233,94.9815],[25.6386,57.9307,88.3442],[25.6238,57.9342,107.1236],[25.6244,57.9379,100.7365],[25.6075,57.9386,95.8331],[25.6082,57.9431,99.2702],[25.5998,57.9435,98.5671],[25.5992,57.9398,102.4591],[25.5828,57.9436,95.7589],[25.5832,57.946,93.7481],[25.5943,57.9596,92.5222],[25.5893,57.9651,103.2489],[25.5826,57.9677,108.6275],[25.5805,57.972,118.5413],[25.5747,57.974,99.2408],[25.5701,57.9708,109.2092],[25.5703,57.9719,109.2092],[25.5534,57.9726,101.583],[25.553,57.9702,107.424],[25.5514,57.9724,102.0842],[25.5253,57.9719,87.2107],[25.5237,57.9694,85.7247],[25.5189,57.9696,91.7688],[25.5203,57.9786,93.0886],[25.5034,57.9793,94.6662],[25.5032,57.9776,89.7875],[25.4848,57.9756,93.771],[25.4786,57.9803,90.1061],[25.4786,57.9825,83.1129],[25.4585,57.9916,83.353],[25.4544,57.992,81.9506],[25.4559,58.0021,84.4098],[25.4669,58.0052,73.7834],[25.4486,58.0171,81.5786],[25.4083,58.0291,76.6075],[25.3667,58.0305,72.4561],[25.3673,58.0348,74.1791],[25.3606,58.0351,82.9086],[25.3591,58.0368,77.5559],[25.3595,58.0396,75.1047],[25.3565,58.0398,75.0993],[25.3534,58.0436,75.7105],[25.345,58.0469,78.8732],[25.336,58.0573,79.8288],[25.3295,58.0587,77.2849],[25.3261,58.0639,78.7389],[25.32,58.0661,79.6659],[25.3187,58.0695,79.9553],[25.2957,58.0815,79.736],[25.2868,58.0816,86.1262],[25.2812,58.07,78.7573],[25.2661,58.0672,76.2518],[25.2649,58.0601,75.4757],[25.2686,58.0577,75.3734],[25.2678,58.0525,79.2688],[25.2773,58.0521,80.4123],[25.2843,58.0492,78.2522],[25.2841,58.0473,77.9945],[25.2925,58.0467,85.6117],[25.2919,58.0425,81.2858],[25.298,58.0423,79.672],[25.2999,58.0396,77.2552],[25.2963,58.0153,76.0342],[25.3048,58.0149,75.6131],[25.3014,57.9931,65.9031],[25.2922,57.993,74.2177],[25.2828,57.9896,74.6011],[25.277,57.9929,72.6907],[25.2677,57.9945,74.128],[25.2683,57.9985,78.2265],[25.2598,57.9988,74.522],[25.2605,58.0033,75.1162],[25.2459,58.003,76.9963],[25.2306,58.0153,78.4802],[25.2284,58.0181,76.3735],[25.2371,58.0179,81.4063],[25.2378,58.0223,82.272],[25.2293,58.0226,78.6542],[25.2296,58.0247,76.7636],[25.227,58.0245,75.0868],[25.2255,58.0218,75.8704],[25.219,58.032,74.5622],[25.2137,58.0323,72.7424],[25.217,58.0547,80.2172],[25.2162,58.0596,80.4138],[25.2129,58.0621,76.2634],[25.2096,58.0623,72.4512],[25.2099,58.064,71.3494],[25.2037,58.065,74.0673],[25.2166,58.074,69.7235],[25.2122,58.0808,74.5353],[25.1994,58.0856,77.3128],[25.1894,58.0799,75.3414],[25.1912,58.076,75.0133],[25.1539,58.0747,69.2056],[25.1517,58.077,65.9962],[25.1355,58.0796,65.925],[25.1362,58.0805,70.7684],[25.1187,58.0812,69.1004],[25.1183,58.0788,69.5398],[25.1058,58.0778,64.0601],[25.1054,58.0728,65.8124],[25.1004,58.073,67.2764],[25.0995,58.0663,73.0891],[25.077,58.0664,73.1843],[25.0738,58.065,70.9949],[25.0735,58.0635,74.262],[25.0302,58.0263,65.7683],[25.0257,58.0264,64.4802],[25.0251,58.0219,65.1271],[25.0204,58.0178,66.3666],[24.9947,58.011,62.4381],[24.9489,58.0094,66.1448]]]]}}