{"type": "Feature","id": "934","bbox": [21.32824,56.94242,22.30885,57.65762],"geometry": {"type": "Polygon","coordinates": [[[22.21294,57.62093,19.3826],[22.20643,57.62687,21.6189],[22.19453,57.65762,0.0],[22.19451,57.65762,0.0],[21.99928,57.60033,5.3421],[21.9559,57.59296,14.9346],[21.77166,57.58613,0.0],[21.72967,57.5738,13.9818],[21.69923,57.55532,12.0307],[21.62167,57.47324,0.0],[21.63263,57.46665,26.5587],[21.64233,57.45695,10.0],[21.67479,57.40088,9.1137],[21.62148,57.38942,2.3988],[21.62637,57.35456,3.5634],[21.59173,57.36078,3.04],[21.56559,57.34223,5.5527],[21.54199,57.34096,3.6168],[21.52765,57.35825,5.8566],[21.51153,57.37866,0.0],[21.48024,57.33364,24.6195],[21.46656,57.32551,7.4575],[21.44947,57.32001,0.0],[21.4336,57.30646,0.0],[21.4214,57.28872,15.2286],[21.41481,57.2709,14.1392],[21.41261,57.25007,0.0],[21.41481,57.18488,10.2459],[21.41261,57.17621,13.6998],[21.40317,57.16205,0.0],[21.40105,57.15131,0.0],[21.41188,57.12446,0.0],[21.41481,57.11384,0.0],[21.41358,57.07319,0.0],[21.40162,57.0375,12.2829],[21.3825,57.00894,29.2752],[21.36012,56.98969,13.5482],[21.32824,56.97363,7.0318],[21.33175,56.97363,32.9796],[21.3626,56.9667,35.7397],[21.38477,56.95652,28.3966],[21.39583,56.94242,29.283],[21.44668,56.94965,21.2989],[21.45433,56.9603,20.5181],[21.472,56.97135,29.4037],[21.47495,56.98644,24.9764],[21.47355,57.01295,23.7691],[21.48487,57.02851,36.5709],[21.48921,57.05101,30.0458],[21.50301,57.05827,24.715],[21.50616,57.07561,18.6819],[21.53903,57.07057,28.8382],[21.5738,57.08561,26.7177],[21.59303,57.08727,28.045],[21.62626,57.10406,23.2535],[21.64145,57.11421,12.3301],[21.65385,57.11615,17.5707],[21.66408,57.11631,17.886],[21.69235,57.11421,29.1406],[21.71157,57.11685,33.6517],[21.76697,57.10706,35.3002],[21.78919,57.10411,16.94],[21.78981,57.09982,21.0114],[21.7895,57.09527,24.6967],[21.78309,57.0852,36.3089],[21.8219,57.08528,13.5436],[21.83994,57.093,45.4216],[21.84986,57.09843,42.9664],[21.86009,57.09931,17.2111],[21.93657,57.09724,22.4513],[21.95197,57.09843,38.2847],[21.99647,57.10737,26.9788],[22.01528,57.11372,24.8111],[22.07532,57.10199,19.5603],[22.09517,57.10163,29.5333],[22.17273,57.11657,51.5617],[22.19248,57.12458,23.3959],[22.19434,57.12809,33.189],[22.19527,57.13209,24.0654],[22.19511,57.14907,35.674],[22.19558,57.15339,20.0],[22.19635,57.15755,20.3456],[22.19961,57.16612,20.0],[22.20643,57.17785,21.8564],[22.2041,57.19082,31.2662],[22.1903,57.19532,37.9426],[22.18813,57.19873,20.3789],[22.19403,57.21237,20.0],[22.23309,57.24338,36.301],[22.27376,57.26503,38.2071],[22.29707,57.27113,35.1208],[22.30141,57.27645,40.6607],[22.3042,57.28648,42.1182],[22.30885,57.28885,42.8119],[22.2949,57.32146,39.799],[22.28601,57.33428,42.5846],[22.28601,57.35115,49.1367],[22.28213,57.38136,35.3435],[22.27671,57.38725,38.6534],[22.25957,57.39795,34.2986],[22.24493,57.40709,30.0181],[22.18643,57.40159,47.6486],[22.15165,57.40461,34.3139],[22.07796,57.42316,31.3132],[22.13785,57.43753,34.7016],[22.16669,57.45102,26.2328],[22.17744,57.45913,23.786],[22.17728,57.46512,26.7226],[22.17449,57.47189,25.2376],[22.18953,57.47639,23.0943],[22.20379,57.48391,33.2192],[22.2719,57.50724,52.5057],[22.27423,57.51732,45.5704],[22.27206,57.5491,58.0078],[22.26849,57.55545,51.3266],[22.25903,57.56429,45.0886],[22.25035,57.57605,45.3218],[22.24539,57.58832,52.8454],[22.2471,57.59959,49.2966],[22.23563,57.61974,33.2039],[22.22379,57.62315,37.0943],[22.21294,57.62093,19.3826]]]}
,"properties": {"ISO3166-1-Alpha-3": "LVA","country": "Latvia","fill": "#000","name": "Ventspils","area_km2": 2422.303,"hist_schema_id": "Elevation0-9000","hist_area_km2": {"0": 452.055,"25": 1443.48,"50": 498.307,"75": 28.449}}}