{"type": "Feature","id": "4852","bbox": [21.51153,57.34096,21.67479,57.47324],"geometry": {"type": "Polygon","coordinates": [[[21.62637,57.35456,3.5634],[21.62148,57.38942,2.3988],[21.67479,57.40088,9.1137],[21.64233,57.45695,10.0],[21.63263,57.46665,26.5587],[21.62167,57.47324,0.0],[21.58912,57.43879,0.0],[21.51775,57.3876,0.0],[21.51153,57.37866,0.0],[21.52765,57.35825,5.8566],[21.54199,57.34096,3.6168],[21.56559,57.34223,5.5527],[21.59173,57.36078,3.04],[21.62637,57.35456,3.5634]]]}
,"properties": {"ISO3166-1-Alpha-3": "LVA","country": "Latvia","fill": "#F0F","name": "Ventspils","area_km2": 69.45204,"hist_schema_id": "Elevation0-9000","hist_area_km2": {"0": 50.70591,"25": 18.74613}}}