{"type":"Feature","properties":{"GID_2":"LVA.1.5_1","GID_0":"LVA","country":"Latvia","GID_1":"LVA.1_1","province":"Kurzeme","NL_NAME_1":"NA","county":"Ventspils","VARNAME_2":"Windau","NL_NAME_2":"NA","TYPE_2":"Aprinki|rajoni","ENGTYPE_2":"District","CC_2":"NA","HASC_2":"LV.VN","name":"Ventspils.county"},
"geometry":{"type": "MultiPolygon","coordinates": [[[[22.213,57.1906,39.276],[22.2047,57.1908,31.2662],[22.2049,57.1953,31.2199],[22.1801,57.1957,31.8892],[22.1804,57.2002,20.3396],[22.2052,57.1998,43.3005],[22.2055,57.2043,35.4432],[22.1972,57.2044,45.0245],[22.1977,57.2134,20.1653],[22.206,57.2132,42.6525],[22.2066,57.2222,20.0],[22.2149,57.2221,35.8456],[22.2151,57.2266,33.8871],[22.2317,57.2263,44.2948],[22.232,57.2308,34.746],[22.2403,57.2306,30.3638],[22.2406,57.2351,31.2744],[22.2323,57.2352,32.0687],[22.2328,57.2442,38.6818],[22.2411,57.2441,32.5269],[22.2414,57.2486,46.0479],[22.258,57.2483,31.6683],[22.2582,57.2528,39.9213],[22.2665,57.2526,25.837],[22.2671,57.2616,38.4906],[22.2754,57.2614,36.5301],[22.276,57.2704,34.3242],[22.3175,57.2696,40.1278],[22.318,57.2786,45.6997],[22.3097,57.2788,33.0956],[22.3117,57.3102,38.0974],[22.3034,57.3103,37.7332],[22.3043,57.3238,38.5773],[22.2876,57.3241,38.5299],[22.2879,57.3286,38.8728],[22.2796,57.3288,38.5809],[22.2802,57.3377,49.0998],[22.2885,57.3376,50.0321],[22.2893,57.3511,44.1414],[22.2976,57.3509,40.3209],[22.2982,57.3599,36.7048],[22.2899,57.36,51.1914],[22.2907,57.3735,41.3329],[22.2824,57.3737,37.8497],[22.283,57.3826,39.5383],[22.2913,57.3825,45.0522],[22.2916,57.387,43.7771],[22.2666,57.3874,36.198],[22.2669,57.3919,36.6445],[22.2586,57.3921,34.5717],[22.2594,57.4056,39.6086],[22.2511,57.4057,37.7212],[22.2513,57.4102,39.4534],[22.243,57.4104,34.7067],[22.2427,57.4059,36.589],[22.2261,57.4062,42.3445],[22.2258,57.4017,37.2283],[22.2175,57.4018,38.3713],[22.2172,57.3973,39.5294],[22.2005,57.3976,46.208],[22.2008,57.4021,40.7239],[22.1675,57.4027,37.3288],[22.1677,57.4072,29.8737],[22.1261,57.4079,35.5178],[22.1263,57.4124,39.6829],[22.118,57.4126,32.5945],[22.1183,57.417,38.0179],[22.1099,57.4172,32.2687],[22.1102,57.4217,28.5187],[22.1019,57.4218,32.3291],[22.1021,57.4263,26.8031],[22.0855,57.4266,26.1434],[22.0857,57.4311,29.6205],[22.094,57.4309,31.6826],[22.0943,57.4354,32.8723],[22.1277,57.4349,40.8289],[22.1279,57.4394,36.8574],[22.1446,57.4391,33.4799],[22.1449,57.4436,29.3747],[22.153199999999998,57.4434,24.995],[22.1535,57.4479,24.2235],[22.1618,57.4478,30.0798],[22.1621,57.4522,29.2477],[22.1704,57.4521,29.7478],[22.1707,57.4566,21.3944],[22.179,57.4564,26.6432],[22.1793,57.4609,26.2958],[22.1877,57.4608,31.4184],[22.1879,57.4653,33.3678],[22.1963,57.4651,26.5653],[22.1965,57.4696,30.5338],[22.1715,57.4701,26.1583],[22.1723,57.4835,27.7052],[22.1807,57.4834,24.4218],[22.1804,57.4789,26.3478],[22.1971,57.4786,30.5681],[22.1974,57.4831,24.0308],[22.2057,57.4829,20.395],[22.206,57.4874,28.7149],[22.2143,57.4873,27.1354],[22.2149,57.4963,35.8872],[22.2232,57.4961,41.0919],[22.2235,57.5006,42.1473],[22.2319,57.5004,44.0334],[22.2321,57.5049,40.9229],[22.2488,57.5046,44.8901],[22.2491,57.5091,44.9542],[22.2825,57.5085,43.6834],[22.2837,57.5265,64.4987],[22.2753,57.5266,52.0033],[22.2776,57.5625,56.2752],[22.2692,57.5627,46.4187],[22.2698,57.5717,60.1792],[22.2614,57.5718,64.0002],[22.2617,57.5763,63.3712],[22.2533,57.5765,50.4492],[22.2544,57.5944,53.4645],[22.2461,57.5946,48.0819],[22.2463,57.5991,49.2966],[22.2547,57.5989,56.0399],[22.255,57.6034,58.5835],[22.2466,57.6036,48.4088],[22.2469,57.608,41.9803],[22.2636,57.6077,59.5967],[22.2639,57.6122,61.3121],[22.2556,57.6124,61.9395],[22.2561,57.6214,34.4191],[22.2477,57.6215,41.5705],[22.248,57.626,39.7451],[22.2396,57.6262,37.3693],[22.2402,57.6351,39.2646],[22.2318,57.6353,18.1549],[22.2312,57.6263,31.0099],[22.2246,57.6264,22.9719],[22.2226,57.622,32.2653],[22.2142,57.6221,22.0337],[22.2145,57.6266,19.7689],[22.2184,57.6265,19.0018],[22.2218,57.631,22.5446],[22.2148,57.6311,20.8594],[22.215,57.6356,21.3005],[22.2251,57.6354,22.0387],[22.2276,57.6387,21.451],[22.2321,57.6397,20.4581],[22.2324,57.6443,16.4786],[22.224,57.6444,15.9641],[22.2243,57.6489,14.0625],[22.2159,57.6491,21.9078],[22.2167,57.6618,11.5136],[22.1575,57.6474,0.0],[22.1353,57.6382,5.6736],[22.1281,57.6379,1.7825],[22.0619,57.6179,6.1855],[22.0081,57.6054,11.6587],[21.9575,57.5999,6.4682],[21.8464,57.5982,2.8081],[21.8142,57.5913,4.0673],[21.7358,57.5793,1.39],[21.7058,57.5696,1.0758],[21.6897,57.559,0.5638],[21.6858,57.5546,0.0],[21.6836,57.544,10.2256],[21.6764,57.5288,0.0],[21.6647,57.514,0.0],[21.6614,57.5065,0.9163],[21.6508,57.499,0.0],[21.6331,57.4826,0.0],[21.6247,57.4699,12.3769],[21.6081,57.4538,0.0],[21.6031,57.4437,12.1458],[21.5914,57.4285,21.4776],[21.5764,57.4179,1.0999],[21.5519,57.4054,5.6814],[21.5342,57.4087,3.1858],[21.5264,57.4085,0.0],[21.5297,57.4074,1.6235],[21.5292,57.4054,0.0],[21.5308,57.4049,0.0],[21.5314,57.4063,0.0],[21.5381,57.4063,0.0],[21.5492,57.4032,0.0],[21.5425,57.4032,0.0],[21.5481,57.4007,0.6151],[21.5414,57.401,0.0],[21.5458,57.3985,0.691],[21.5397,57.399,0.0],[21.5442,57.3965,1.0125],[21.5414,57.3951,3.2967],[21.5353,57.3974,1.642],[21.5347,57.399,0.0],[21.5275,57.4024,0.0],[21.5258,57.4054,0.0],[21.5236,57.4054,0.0],[21.5247,57.4021,0.0],[21.5325,57.3985,1.642],[21.5308,57.3915,5.1762],[21.5181,57.3799,1.6956],[21.5086,57.369,2.5835],[21.5086,57.3674,3.5113],[21.4975,57.3563,5.7317],[21.4803,57.3468,1.423],[21.4692,57.3329,2.7613],[21.4553,57.3193,2.3147],[21.4275,57.3015,3.3538],[21.4192,57.291,0.0],[21.4142,57.2801,2.8111],[21.4119,57.2696,5.7284],[21.4136,57.249,0.0],[21.4119,57.2432,1.604],[21.4147,57.2235,6.1771],[21.4125,57.2068,9.1591],[21.4092,57.199,0.0],[21.4092,57.1832,0.0],[21.4058,57.1757,0.0],[21.4081,57.1674,2.5392],[21.4064,57.159,0.0],[21.4119,57.1421,23.1704],[21.4131,57.1246,0.0],[21.4169,57.1121,13.7099],[21.4158,57.1043,0.0],[21.4175,57.0796,6.2293],[21.4125,57.0635,1.2848],[21.4119,57.0565,14.7635],[21.4103,57.0549,0.0],[21.4108,57.0529,2.2506],[21.3975,57.0315,4.5808],[21.3831,57.0171,0.0],[21.3719,56.9993,1.6079],[21.3631,56.994,1.6331],[21.3531,56.9846,4.9978],[21.3595,56.9784,12.1081],[21.3594,56.9739,14.4283],[21.3676,56.9738,18.7324],[21.3674,56.9693,24.313],[21.3757,56.9692,30.01],[21.3755,56.9647,30.215699999999998],[21.3837,56.9646,30.2107],[21.3836,56.9601,31.2581],[21.3918,56.96,20.4705],[21.3915,56.951,28.1839],[21.3997,56.9509,30.7805],[21.3995,56.9465,23.8745],[21.4242,56.9462,33.4052],[21.4244,56.9507,25.8809],[21.4573,56.9503,27.5755],[21.4575,56.9548,19.0187],[21.4492,56.9549,28.5067],[21.4496,56.9638,29.0418],[21.4743,56.9636,30.9927],[21.4745,56.968,20.9476],[21.4827,56.9679,24.2401],[21.4831,56.9769,31.8127],[21.4748,56.977,30.6303],[21.4756,56.995,27.0917],[21.4673,56.9951,24.5406],[21.4682,57.0176,33.7304],[21.46,57.0177,34.0829],[21.4603,57.0266,16.5929],[21.4686,57.0265,27.363],[21.4687,57.031,19.4687],[21.4852,57.0308,24.1317],[21.4863,57.0578,23.9902],[21.4781,57.0579,25.7757],[21.4783,57.0624,26.5404],[21.4948,57.0622,27.76],[21.495,57.0667,29.1874],[21.5115,57.0665,25.7455],[21.5122,57.0844,20.3482],[21.5287,57.0842,21.3125],[21.5285,57.0797,25.9932],[21.5368,57.0796,16.2284],[21.5366,57.0751,29.4074],[21.5449,57.075,19.3857],[21.5451,57.0795,23.3395],[21.5533,57.0794,29.1843],[21.5535,57.0839,22.2612],[21.5618,57.0838,15.9885],[21.562,57.0883,16.5037],[21.5702,57.0882,15.9692],[21.5704,57.0927,10.9983],[21.5952,57.0924,9.4127],[21.595,57.0879,17.459],[21.6033,57.0878,12.3094],[21.6037,57.0967,9.8564],[21.6119,57.0966,10.1287],[21.6123,57.1056,27.2329],[21.6288,57.1054,23.2535],[21.6294,57.1189,16.4619],[21.6377,57.1188,29.2687],[21.6379,57.1233,29.8661],[21.6627,57.1229,21.2507],[21.6625,57.1184,16.3844],[21.6708,57.1183,21.4112],[21.6706,57.1138,23.355],[21.7036,57.1134,37.5871],[21.7041,57.1224,33.8468],[21.7123,57.1222,34.9647],[21.7125,57.1267,33.9594],[21.7208,57.1266,35.0517],[21.7206,57.1221,39.8087],[21.7289,57.122,37.344],[21.7287,57.1175,39.9069],[21.7369,57.1174,31.3104],[21.7367,57.1129,42.5164],[21.7615,57.1126,34.3282],[21.7613,57.1081,32.7487],[21.7944,57.1076,2.0],[21.7941,57.1031,10.9479],[21.8024,57.103,17.5382],[21.8022,57.0985,2.5],[21.7857,57.0987,26.5733],[21.7852,57.0897,8.7633],[21.7935,57.0896,12.3258],[21.7933,57.0851,15.6024],[21.8015,57.085,16.3194],[21.802,57.094,20.6001],[21.8102,57.0939,32.7085],[21.81,57.0894,23.7309],[21.8183,57.0893,21.8554],[21.8185,57.0937,45.034],[21.835,57.0935,8.7613],[21.8355,57.1025,28.7455],[21.8437,57.1024,39.7082],[21.8439,57.1068,31.8188],[21.8522,57.1067,33.928],[21.852,57.1022,13.3494],[21.8685,57.102,28.195],[21.8687,57.1065,42.2735],[21.8853,57.1062,26.9301],[21.8848,57.0972,27.1325],[21.8931,57.0971,12.3811],[21.8928,57.0926,8.311],[21.9094,57.0924,17.2038],[21.9091,57.0879,32.8099],[21.9174,57.0877,33.4858],[21.9172,57.0833,32.693],[21.9254,57.0831,36.0371],[21.9252,57.0786,38.7001],[21.9334,57.0785,38.2911],[21.9337,57.083,36.8167],[21.9419,57.0829,34.4548],[21.9422,57.0874,36.9407],[21.9504,57.0872,36.4076],[21.9507,57.0917,32.5173],[21.9589,57.0916,38.7982],[21.9592,57.0961,29.5914],[21.9757,57.0958,38.35],[21.9759,57.1003,25.9954],[22.0007,57.0999,27.1123],[22.001,57.1044,24.24],[22.0092,57.1043,45.0917],[22.01,57.1177,26.2255],[22.0348,57.1173,33.6393],[22.0343,57.1083,31.7218],[22.0673,57.1078,31.8487],[22.0671,57.1033,24.392],[22.1084,57.1026,34.0137],[22.1087,57.1071,34.1383],[22.1252,57.1068,37.6322],[22.1254,57.1113,37.6859],[22.1337,57.1111,41.859],[22.134,57.1156,37.4067],[22.1753,57.1149,35.6518],[22.1756,57.1194,25.9523],[22.1838,57.1192,25.0565],[22.1841,57.1237,21.1808],[22.1924,57.1236,23.461],[22.1934,57.1415,20.0],[22.2017,57.1414,28.831],[22.202,57.1459,31.6224],[22.1937,57.146,27.8522],[22.1942,57.155,20.0],[22.2025,57.1549,26.0498],[22.2033,57.1683,20.0],[22.2116,57.1682,32.3762],[22.213,57.1906,39.276]]]]}}