{"type": "Feature","id": "5723","bbox": [22.92006,57.23847,23.16015,57.39448],"geometry": {"type": "Polygon","coordinates": [[[23.16015,57.31861,0.0],[23.13803,57.34317,0.0],[23.13356,57.35309,0.0],[23.13315,57.36298,0.0],[23.13022,57.37079,0.0],[23.11752,57.37393,0.0],[23.08334,57.37824,0.0],[23.03142,57.39448,0.0],[23.00694,57.36784,25.8022],[22.96807,57.35184,16.4544],[22.92006,57.33355,21.6638],[22.95436,57.29697,22.2817],[23.01837,57.29011,20.6172],[23.05495,57.28325,4.1417],[23.06181,57.2581,0.4279],[23.08038,57.23847,-0.3776],[23.11278,57.26529,-1.0],[23.11464,57.29335,-1.0],[23.12084,57.30518,0.1998],[23.12803,57.31232,19.5826],[23.16015,57.31861,0.0]]]}
,"properties": {"ISO3166-1-Alpha-3": "LVA","country": "Latvia","fill": "#FF0","name": "Mersraga","area_km2": 120.64394,"hist_schema_id": "Elevation0-9000","hist_area_km2": {"0": 61.08889,"25": 59.31474,"50": 0.24032}}}