{"type":"Feature","properties":{"ISO3166-1-Alpha-3":"LVA","country":"Latvia","fill":"#FF0","id":"5760","name":"Garkalnes"},
"geometry":{"type": "Polygon","coordinates": [[[24.5143,57.07953,37.9895],[24.50873,57.10595,11.8489],[24.50178,57.09482,15.3447],[24.45867,57.07257,23.7458],[24.40722,57.06145,24.0345],[24.36271,57.05728,26.8472],[24.32099,57.02807,16.9569],[24.2904,57.03085,0.0],[24.26119,57.04198,28.527],[24.24729,57.06006,18.4226],[24.23199,57.07257,3.1798],[24.16238,57.05282,4.4032],[24.18129,57.04794,11.3847],[24.22444,57.02164,14.6849],[24.24992,57.01264,26.7626],[24.27442,57.00637,18.1555],[24.2879,56.99988,6.5266],[24.30253,56.99099,10.8502],[24.3202,56.96903,3.9334],[24.35201,56.95693,2.2894],[24.37168,56.94442,8.4972],[24.39592,56.96806,26.831],[24.40128,56.99487,27.5046],[24.45134,57.00203,25.6378],[24.53179,57.00203,29.2218],[24.52106,57.05208,21.1761],[24.54609,57.06102,27.0615],[24.56553,57.06,41.7702],[24.55046,57.0837,35.6418],[24.5143,57.07953,37.9895]]]}}