{"type":"Feature","properties":{"ISO3166-1-Alpha-3":"LVA","country":"Latvia","fill":"#00F","id":"5715","name":"Priekules"},
"geometry":{"type": "Polygon","coordinates": [[[21.57173,56.56061,71.7963],[21.52909,56.57127,69.5392],[21.49924,56.55208,45.9293],[21.52909,56.51371,56.6439],[21.48219,56.51158,35.7698],[21.47366,56.5201,36.2247],[21.43315,56.54569,25.8602],[21.39904,56.55848,29.3645],[21.40757,56.5201,45.6627],[21.35427,56.50305,62.4601],[21.38412,56.49026,33.5292],[21.38625,56.46467,39.2009],[21.43742,56.40711,13.9371],[21.4161,56.35381,14.0473],[21.37985,56.32822,12.0891],[21.45234,56.30264,25.8892],[21.48549,56.26579,27.2068],[21.55892,56.29729,28.4195],[21.59603,56.30788,30.563],[21.6845,56.3101,35.5797],[21.73651,56.32373,59.017],[21.72524,56.35594,86.9824],[21.75082,56.36873,88.6624],[21.75082,56.38152,104.9831],[21.7231,56.38152,115.4726],[21.70178,56.39645,90.6322],[21.66554,56.41777,95.4083],[21.68473,56.43269,114.4249],[21.68046,56.46467,98.5042],[21.73376,56.4732,153.2053],[21.73376,56.49878,150.3077],[21.70818,56.50518,120.6627],[21.71244,56.54995,116.6747],[21.66128,56.56061,122.8682],[21.58452,56.54995,86.5746],[21.57173,56.56061,71.7963]]]}}