{"type":"Feature","properties":{"ISO3166-1-Alpha-3":"LVA","country":"Latvia","fill":"#F0F","id":"5721","name":"Dundagas"},
"geometry":{"type": "Polygon","coordinates": [[[22.58717,57.66498,0.0],[22.59083,57.70612,0.0],[22.60027,57.74384,0.0],[22.60499,57.75104,0.0],[22.61012,57.75349,0.0],[22.61036,57.75462,0.0],[22.60027,57.75804,7.1397],[22.58579,57.75971,0.0],[22.5726,57.75682,4.8884],[22.56031,57.75275,7.3094],[22.54908,57.75064,10.8692],[22.52613,57.74966,0.0],[22.48373,57.7425,0.0],[22.19453,57.65762,0.0],[22.20643,57.62687,21.6189],[22.21294,57.62093,19.3826],[22.22379,57.62315,37.0943],[22.23563,57.61974,33.2039],[22.2471,57.59959,49.2966],[22.24539,57.58832,52.8454],[22.25035,57.57605,45.3218],[22.25903,57.56429,45.0886],[22.26849,57.55545,51.3266],[22.27206,57.5491,58.0078],[22.27423,57.51732,45.5704],[22.2719,57.50724,52.5057],[22.20379,57.48391,33.2192],[22.18953,57.47639,23.0943],[22.17449,57.47189,25.2376],[22.17728,57.46512,26.7226],[22.17744,57.45913,23.786],[22.16669,57.45102,26.2328],[22.13785,57.43753,34.7016],[22.07796,57.42316,31.3132],[22.15165,57.40461,34.3139],[22.18643,57.40159,47.6486],[22.24493,57.40709,30.0181],[22.25957,57.39795,34.2986],[22.2822,57.42728,68.1352],[22.32563,57.43414,70.5617],[22.3485,57.41128,66.098],[22.38051,57.41128,65.4958],[22.42394,57.42042,72.0134],[22.47653,57.41357,56.9347],[22.50396,57.46158,84.9192],[22.5474,57.49816,43.4194],[22.62513,57.50273,27.636],[22.61142,57.5416,18.8928],[22.60913,57.57818,23.4378],[22.57026,57.61704,23.6243],[22.56798,57.6742,27.0226],[22.58717,57.66498,0.0]]]}}