{"type":"Feature","properties":{"ISO3166-1-Alpha-3":"LVA","country":"Latvia","fill":"#F0F","id":"5800","name":"Varaklanu"},
"geometry":{"type": "Polygon","coordinates": [[[26.77256,56.68101,100.4747],[26.74392,56.6965,95.5881],[26.71104,56.70745,102.0697],[26.70791,56.72311,102.7809],[26.68286,56.72155,93.2223],[26.64842,56.71685,93.4649],[26.6265,56.70432,119.0014],[26.60771,56.69023,118.6355],[26.5764,56.6918,96.3029],[26.53569,56.67771,111.9386],[26.38851,56.67771,104.4737],[26.37558,56.63592,110.0895],[26.40137,56.63386,108.8199],[26.48451,56.60613,111.0133],[26.52255,56.59985,110.8321],[26.59376,56.59515,110.6031],[26.58337,56.56352,117.1717],[26.58663,56.55143,114.4122],[26.59593,56.54704,111.0946],[26.60854,56.54471,112.0889],[26.62776,56.54373,125.4714],[26.70641,56.54608,107.9761],[26.72228,56.54311,111.0829],[26.74367,56.55885,110.2482],[26.72925,56.5783,104.077],[26.73654,56.5873,102.7463],[26.74972,56.59582,104.7374],[26.78884,56.60706,100.509],[26.7924,56.61029,104.5973],[26.78853,56.61549,106.8721],[26.77969,56.62145,98.5665],[26.77721,56.63262,100.3858],[26.78093,56.64497,97.6246],[26.77814,56.65592,93.8244],[26.77752,56.66373,93.054],[26.77132,56.67747,94.0521],[26.77256,56.68101,100.4747]]]}}