{"type":"Feature","properties":{"ISO3166-1-Alpha-3":"LVA","country":"Latvia","fill":"#F0F","id":"5759","name":"Engures"},
"geometry":{"type": "Polygon","coordinates": [[[23.5786,56.98209,0.0],[23.56967,56.98627,0.0],[23.52084,57.02558,0.0],[23.50856,57.03124,0.0],[23.42286,57.04023,0.0],[23.3401,57.05858,0.0],[23.29265,57.08893,0.0],[23.27491,57.09272,0.0],[23.26092,57.09894,0.0],[23.2505,57.11445,0.0],[23.22242,57.20702,0.0],[23.21355,57.21625,0.0],[23.19874,57.22419,0.0],[23.1902,57.2425,0.0],[23.18238,57.27766,0.0],[23.17457,57.29735,0.0],[23.16456,57.31367,0.0],[23.16017,57.31859,0.0],[23.16015,57.31861,0.0],[23.12803,57.31232,19.5826],[23.12084,57.30518,0.1998],[23.11464,57.29335,-1.0],[23.11278,57.26529,-1.0],[23.12913,57.24299,-0.3477],[23.1327,57.20902,-1.0],[23.12019,57.17147,6.5376],[23.10052,57.15538,21.7013],[23.11304,57.1375,18.4401],[23.15058,57.1232,26.7134],[23.20422,57.10532,28.0292],[23.23104,57.06599,31.9844],[23.21316,57.03917,46.7602],[23.1774,57.01236,79.0322],[23.16846,56.98554,65.7907],[23.19707,56.96766,53.8752],[23.1774,56.95514,64.2969],[23.14164,56.93548,42.3579],[23.1488,56.92118,38.6207],[23.20064,56.93011,62.7477],[23.27752,56.91581,35.9864],[23.37228,56.91045,16.196],[23.442,56.92654,20.9528],[23.47715,56.93647,24.3823],[23.47514,56.94068,18.7217],[23.47343,56.94348,23.9826],[23.48382,56.94965,12.2713],[23.49979,56.96138,11.6182],[23.57585,56.98053,0.0],[23.5786,56.98209,0.0]]]}}