{"type": "Feature","id": "5773","bbox": [24.37168,56.87035,24.81785,57.06102],"geometry": {"type": "Polygon","coordinates": [[[24.72667,56.98951,65.8506],[24.66945,57.01275,60.695],[24.63012,57.06102,47.7029],[24.58006,57.05924,52.7304],[24.56553,57.06,41.7702],[24.54609,57.06102,27.0615],[24.52106,57.05208,21.1761],[24.53179,57.00203,29.2218],[24.45134,57.00203,25.6378],[24.40128,56.99487,27.5046],[24.39592,56.96806,26.831],[24.37168,56.94442,8.4972],[24.40565,56.92654,25.8104],[24.42889,56.92475,20.4542],[24.45735,56.88684,40.762],[24.46929,56.88418,21.4322],[24.47973,56.88048,24.9888],[24.48562,56.87537,36.9803],[24.49182,56.87162,35.0626],[24.49988,56.87035,31.8132],[24.50779,56.87301,18.6373],[24.51135,56.87787,18.4879],[24.50701,56.89648,17.2971],[24.52019,56.90007,20.1143],[24.57435,56.88666,42.328],[24.69327,56.89547,62.8369],[24.71589,56.89715,61.1463],[24.73806,56.90939,67.1638],[24.76028,56.91498,67.5396],[24.80741,56.93389,75.8228],[24.81606,56.96627,69.2617],[24.81785,56.98951,68.192],[24.77494,56.99845,77.6243],[24.72667,56.98951,65.8506]]]}
,"properties": {"ISO3166-1-Alpha-3": "LVA","country": "Latvia","fill": "#00F","name": "Ropazu","area_km2": 332.3764,"hist_schema_id": "Elevation0-9000","hist_area_km2": {"0": 11.5703,"25": 135.4229,"50": 134.8687,"75": 50.4336,"100": 0.0809}}}