{"type": "Feature","bbox": [24.6415,56.1442,25.944,56.8326],"geometry": {"type": "MultiPolygon","coordinates": [[[[24.6547,56.5504,37.0842],[24.6541,56.5459,37.0335],[24.646,56.5463,43.8705],[24.6449,56.5373,37.5896],[24.653,56.537,38.2969],[24.6508,56.5191,43.4915],[24.6426,56.5194,41.4514],[24.6415,56.5104,38.4994],[24.6497,56.5101,43.5376],[24.6491,56.5056,40.4635],[24.6572,56.5053,44.8889],[24.6561,56.4963,42.0016],[24.6642,56.496,44.9802],[24.662,56.4781,47.7864],[24.6944,56.4768,60.0375],[24.6939,56.4724,50.3982],[24.7101,56.4717,50.6352],[24.7095,56.4672,48.5201],[24.7257,56.4666,49.9407],[24.7252,56.4621,48.8531],[24.7333,56.4618,53.5928],[24.7327,56.4573,66.4411],[24.7408,56.457,56.4866],[24.7397,56.448,44.2724],[24.7154,56.449,52.3488],[24.7143,56.44,54.6056],[24.7062,56.4404,49.3076],[24.7056,56.4359,59.6916],[24.6975,56.4362,50.9618],[24.6969,56.4317,48.1552],[24.6888,56.432,56.1778],[24.686,56.4096,48.8757],[24.7022,56.409,47.1075],[24.7017,56.4045,44.7841],[24.7098,56.4042,36.6956],[24.7092,56.3997,48.4312],[24.7173,56.3994,48.8468],[24.7167,56.3949,48.4129],[24.7248,56.3946,49.6976],[24.7254,56.3991,48.3289],[24.7497,56.3981,46.5568],[24.7502,56.4026,34.086],[24.7988,56.4007,61.1033],[24.7994,56.4051,59.2711],[24.8075,56.4048,51.6901],[24.8086,56.4138,42.7314],[24.8248,56.4131,42.5187],[24.8242,56.4087,49.9172],[24.8647,56.407,70.507],[24.8653,56.4115,54.696],[24.8734,56.4112,58.8407],[24.8757,56.4291,59.0452],[24.8676,56.4294,60.0713],[24.8693,56.4429,60.5527],[24.8775,56.4425,61.8771],[24.878,56.447,69.3871],[24.9023,56.446,57.9241],[24.9018,56.4416,61.6184],[24.9099,56.4412,55.8709],[24.9063,56.4143,54.4935],[24.9144,56.414,63.6908],[24.9127,56.4006,59.072],[24.9208,56.4002,54.5139],[24.9202,56.3958,57.98],[24.9283,56.3954,56.5992],[24.9271,56.3865,56.7002],[24.9352,56.3861,56.212],[24.9346,56.3817,57.215],[24.9427,56.3813,59.0418],[24.9421,56.3768,56.0227],[24.9502,56.3765,59.9929],[24.949,56.3676,66.5513],[24.9571,56.3672,59.7316],[24.9565,56.3627,62.2731],[24.9646,56.3624,60.1921],[24.9622,56.3445,63.2171],[24.9703,56.3442,62.6574],[24.9662,56.3128,71.8098],[24.9743,56.3125,66.0662],[24.9737,56.308,73.0155],[24.9898,56.3073,68.4866],[24.9892,56.3028,68.9117],[25.0054,56.3022,65.8877],[25.0048,56.2977,67.4681],[25.0128,56.2973,67.1949],[25.0122,56.2929,69.1655],[25.0203,56.2925,71.2012],[25.0197,56.288,73.0788],[25.0278,56.2877,71.5257],[25.0272,56.2832,70.5417],[25.0352,56.2829,71.7709],[25.034,56.2739,68.5673],[25.0502,56.2732,71.4528],[25.0496,56.2688,69.8522],[25.0576,56.2684,70.5828],[25.057,56.2639,79.9522],[25.0651,56.2636,78.3401],[25.0645,56.2591,78.4938],[25.0726,56.2588,82.2419],[25.0684,56.2274,74.4983],[25.0764,56.2271,75.7539],[25.0746,56.2136,79.7429],[25.0827,56.2133,77.4604],[25.0809,56.1999,79.0885],[25.0889,56.1995,74.0084],[25.0883,56.195,81.5793],[25.0963,56.1947,88.7484],[25.0951,56.1857,78.7552],[25.1273,56.1844,90.3698],[25.1267,56.1799,90.7234],[25.1589,56.1785,75.6658],[25.1583,56.174,74.4627],[25.1905,56.1726,80.5175],[25.1911,56.1771,82.6264],[25.2072,56.1764,79.7726],[25.2078,56.1809,79.6684],[25.2239,56.1802,77.8962],[25.2245,56.1847,76.7563],[25.2406,56.184,88.1655],[25.2399,56.1795,90.9332],[25.256,56.1788,90.3875],[25.2548,56.1698,85.0832],[25.2789,56.1688,84.0758],[25.2783,56.1643,80.5558],[25.2863,56.1639,82.7027],[25.2857,56.1594,87.0293],[25.2937,56.1591,89.5406],[25.2931,56.1546,94.1574],[25.3011,56.1543,86.829],[25.3005,56.1498,82.6537],[25.3166,56.1491,83.3328],[25.316,56.1446,83.1749],[25.324,56.1442,84.5526],[25.3246,56.1487,85.1773],[25.3327,56.1483,100.0187],[25.3333,56.1528,87.1985],[25.3413,56.1525,88.5378],[25.342,56.1569,89.4203],[25.358,56.1562,92.3513],[25.3593,56.1652,87.5494],[25.3754,56.1645,94.8216],[25.376,56.1689,84.97],[25.4082,56.1675,96.7956],[25.4101,56.1809,85.1951],[25.402,56.1813,87.7307],[25.4027,56.1858,91.2326],[25.3946,56.1861,89.2835],[25.3953,56.1906,88.3866],[25.3872,56.191,94.7212],[25.3911,56.2178,83.2499],[25.383,56.2182,112.9243],[25.3837,56.2227,93.6098],[25.3917,56.2223,85.2504],[25.393,56.2313,98.814],[25.401,56.2309,93.0295],[25.4017,56.2354,104.4067],[25.3936,56.2358,97.9239],[25.3955,56.2492,96.0245],[25.3875,56.2496,98.7371],[25.3881,56.254,111.6969],[25.3801,56.2544,87.5526],[25.3813,56.2633,89.5599],[25.3491,56.2648,90.2351],[25.3497,56.2693,81.0643],[25.3417,56.2696,94.0573],[25.3429,56.2786,99.1698],[25.3349,56.2789,83.5327],[25.3361,56.2879,83.6006],[25.32,56.2886,82.4919],[25.3206,56.2931,102.1904],[25.3126,56.2934,80.4792],[25.3132,56.2979,104.7116],[25.3051,56.2983,87.938],[25.3064,56.3072,83.5179],[25.3145,56.3069,82.0308],[25.3164,56.3203,80.5134],[25.3325,56.3196,83.9362],[25.3332,56.3241,80.8927],[25.3574,56.323,83.2951],[25.358,56.3275,88.3422],[25.3661,56.3271,92.4218],[25.368,56.3406,89.285],[25.3518,56.3413,84.9613],[25.3512,56.3368,80.5257],[25.3189,56.3382,85.6868],[25.3183,56.3338,90.7095],[25.294,56.3348,77.5643],[25.2959,56.3483,91.455],[25.304,56.3479,88.2513],[25.3053,56.3569,84.9972],[25.2972,56.3572,94.0787],[25.3003,56.3796,93.1013],[25.2923,56.38,91.2063],[25.2935,56.3889,101.9618],[25.3016,56.3886,90.3904],[25.3035,56.402,82.4717],[25.2954,56.4024,85.5278],[25.2967,56.4113,92.4054],[25.2886,56.4117,86.8258],[25.2905,56.4251,82.8901],[25.2986,56.4248,84.5393],[25.2992,56.4292,90.7503],[25.3397,56.4274,98.0542],[25.339,56.423,86.5002],[25.3633,56.4219,92.9721],[25.3627,56.4174,83.0399],[25.387,56.4163,83.3231],[25.3863,56.4118,82.4846],[25.3944,56.4115,88.0822],[25.3951,56.416,95.1402],[25.4112,56.4152,83.3703],[25.4119,56.4197,102.6766],[25.4685,56.4171,103.3928],[25.4692,56.4216,93.3304],[25.4773,56.4213,101.2672],[25.4779,56.4257,95.6346],[25.486,56.4254,93.1692],[25.4867,56.4298,96.0794],[25.4948,56.4295,93.0883],[25.4961,56.4384,94.0948],[25.5042,56.4381,95.3932],[25.5048,56.4425,100.5487],[25.5129,56.4422,101.6899],[25.5142,56.4511,101.616],[25.5223,56.4507,100.3657],[25.523,56.4552,101.3934],[25.5473,56.4541,102.3307],[25.5466,56.4496,103.2029],[25.5628,56.4489,92.2458],[25.5635,56.4534,93.1979],[25.5716,56.453,91.5],[25.5723,56.4575,92.9938],[25.5804,56.4571,91.5],[25.581,56.4616,92.4897],[25.5891,56.4612,93.0639],[25.5898,56.4657,95.6492],[25.5979,56.4653,109.638],[25.6006,56.4832,120.1198],[25.5925,56.4836,104.2975],[25.5931,56.488,113.4244],[25.585,56.4884,99.438],[25.5857,56.4929,99.0981],[25.5776,56.4933,104.1281],[25.5783,56.4978,104.7307],[25.5701,56.4981,101.1931],[25.5715,56.5071,98.1265],[25.5553,56.5078,91.3972],[25.5579,56.5257,102.5616],[25.566,56.5254,99.3781],[25.5687,56.5433,110.2415],[25.5931,56.5421,91.0678],[25.5937,56.5466,87.7011],[25.6018,56.5462,93.6869],[25.6032,56.5552,89.5639],[25.6113,56.5548,90.0356],[25.614,56.5727,95.1642],[25.5896,56.5739,69.5],[25.5889,56.5694,71.7836],[25.5565,56.5709,69.5],[25.5571,56.5754,69.5],[25.5815,56.5742,69.5],[25.5822,56.5787,89.5756],[25.5984,56.578,69.5],[25.5991,56.5824,82.045],[25.6153,56.5817,82.3197],[25.616,56.5862,72.021],[25.6404,56.585,71.9347],[25.6417,56.594,71.2717],[25.6499,56.5936,69.5],[25.6506,56.5981,76.5068],[25.6668,56.5973,69.5],[25.6675,56.6018,81.572],[25.7,56.6003,94.8068],[25.7014,56.6092,69.5],[25.7095,56.6088,71.2292],[25.7102,56.6133,73.917],[25.7265,56.6125,69.5],[25.7271,56.617,69.5],[25.7759,56.6147,80.4773],[25.7752,56.6102,70.0],[25.7915,56.6094,77.3146],[25.7922,56.6139,80.0699],[25.8247,56.6123,78.3912],[25.8254,56.6168,83.6472],[25.8417,56.616,79.5505],[25.8424,56.6205,81.1284],[25.8505,56.6201,79.9268],[25.8512,56.6246,84.1856],[25.8756,56.6234,79.6032],[25.8763,56.6279,85.0947],[25.8845,56.6275,82.1506],[25.8852,56.632,83.9363],[25.9014,56.6312,82.3112],[25.9021,56.6356,85.5293],[25.9184,56.6348,78.5],[25.9191,56.6393,84.6146],[25.9273,56.6389,83.8785],[25.928,56.6434,91.3228],[25.9361,56.643,85.3853],[25.9368,56.6475,101.555],[25.9287,56.6479,99.7145],[25.9301,56.6568,87.7051],[25.9138,56.6576,99.2946],[25.916,56.671,93.797],[25.9241,56.6706,98.5719],[25.9248,56.6751,94.5817],[25.933,56.6747,102.0946],[25.9344,56.6837,110.8714],[25.9425,56.6833,97.7927],[25.944,56.6922,90.9811],[25.9358,56.6926,94.4554],[25.9365,56.6971,99.4455],[25.9202,56.6979,94.1411],[25.9209,56.7024,94.8325],[25.8965,56.7035,97.2595],[25.8958,56.6991,92.7577],[25.8795,56.6999,93.1144],[25.8802,56.7043,101.2718],[25.8476,56.7059,106.3453],[25.8483,56.7104,100.7768],[25.832,56.7112,105.5942],[25.8327,56.7157,115.3348],[25.8245,56.716,111.8266],[25.8288,56.7429,148.1159],[25.8206,56.7433,140.1657],[25.8213,56.7478,148.0916],[25.8131,56.7481,144.4513],[25.8145,56.7571,156.5659],[25.8227,56.7567,154.2611],[25.8234,56.7612,158.0281],[25.8316,56.7608,151.3169],[25.833,56.7697,168.3029],[25.8493,56.769,170.122],[25.8514,56.7824,188.041],[25.8433,56.7828,187.2581],[25.8447,56.7917,188.0455],[25.8365,56.7921,193.7999],[25.8379,56.8011,184.5135],[25.8297,56.8015,191.6548],[25.8304,56.8059,192.0919],[25.8141,56.8067,210.8142],[25.8148,56.8112,212.0817],[25.8066,56.8116,208.0644],[25.8073,56.8161,219.3926],[25.791,56.8168,203.0082],[25.7917,56.8213,186.2319],[25.7753,56.8221,182.5185],[25.776,56.8266,189.5791],[25.7678,56.827,178.4471],[25.7685,56.8314,205.6106],[25.744,56.8326,199.7874],[25.7433,56.8281,185.5352],[25.7351,56.8285,169.8687],[25.7344,56.824,172.9832],[25.7508,56.8233,188.1161],[25.7487,56.8098,188.4911],[25.7405,56.8102,174.8582],[25.7398,56.8057,167.839],[25.7317,56.8061,167.3404],[25.7289,56.7882,153.4777],[25.7452,56.7875,172.4223],[25.7445,56.783,151.4678],[25.7364,56.7834,164.8869],[25.7357,56.7789,168.8304],[25.7112,56.78,160.2471],[25.7105,56.7756,160.7322],[25.6778,56.7771,149.8433],[25.6785,56.7816,155.0905],[25.6703,56.782,148.3359],[25.671,56.7864,152.5193],[25.6792,56.7861,157.0453],[25.6806,56.795,172.429],[25.6479,56.7965,150.6958],[25.6486,56.801,157.4727],[25.6404,56.8014,151.6169],[25.6411,56.8059,162.2326],[25.6247,56.8066,148.5175],[25.6254,56.8111,149.5043],[25.609,56.8118,144.9656],[25.6097,56.8163,149.8039],[25.5607,56.8186,158.5915],[25.56,56.8141,145.4191],[25.5518,56.8145,147.3241],[25.5511,56.81,148.9427],[25.543,56.8104,147.5375],[25.5436,56.8149,157.5115],[25.5355,56.8152,161.4436],[25.5361,56.8197,145.6947],[25.5116,56.8208,155.3829],[25.5109,56.8163,152.1478],[25.5027,56.8167,130.8946],[25.5007,56.8033,121.2544],[25.4926,56.8036,115.0644],[25.4919,56.7992,117.7237],[25.4837,56.7995,116.6901],[25.4824,56.7906,125.0665],[25.4742,56.791,127.78],[25.4736,56.7865,111.6449],[25.4654,56.7868,112.5873],[25.4647,56.7824,110.274],[25.4484,56.7831,99.8156],[25.4477,56.7786,99.7797],[25.4232,56.7797,107.1051],[25.4226,56.7752,107.7123],[25.4144,56.7756,114.452],[25.4138,56.7711,96.7718],[25.3974,56.7719,103.8027],[25.3961,56.7629,92.8703],[25.3798,56.7636,102.5291],[25.3804,56.7681,93.1296],[25.3396,56.7699,89.8475],[25.3389,56.7654,96.6894],[25.3634,56.7644,105.6332],[25.3621,56.7554,93.8504],[25.354,56.7558,91.4143],[25.3546,56.7602,88.5474],[25.322,56.7617,90.2654],[25.3226,56.7662,95.3116],[25.3063,56.7669,107.3477],[25.3056,56.7624,91.4843],[25.2975,56.7628,105.5343],[25.2968,56.7583,87.5233],[25.2886,56.7586,95.7772],[25.288,56.7542,98.9424],[25.2798,56.7545,99.0159],[25.2786,56.7456,90.2756],[25.2622,56.7463,106.0305],[25.2616,56.7418,103.2148],[25.2534,56.7421,93.4785],[25.2522,56.7332,101.528],[25.2603,56.7328,90.9616],[25.2597,56.7283,81.0],[25.276,56.7276,81.0],[25.2754,56.7232,81.0],[25.2835,56.7228,81.0],[25.2823,56.7138,81.1315],[25.2904,56.7135,81.7509],[25.2885,56.7001,91.0693],[25.2396,56.7022,90.9607],[25.2402,56.7067,92.6032],[25.2239,56.7074,89.9968],[25.2245,56.7118,93.135],[25.2164,56.7122,90.1411],[25.217,56.7167,92.0075],[25.2089,56.717,93.4526],[25.207,56.7036,104.9535],[25.1907,56.7043,87.0699],[25.1913,56.7088,93.31],[25.1505,56.7105,90.9762],[25.1524,56.7239,102.6311],[25.136,56.7246,99.1414],[25.1373,56.7336,84.3331],[25.1291,56.7339,87.7456],[25.1285,56.7295,88.2602],[25.1203,56.7298,92.1222],[25.1216,56.7388,84.2008],[25.1052,56.7395,90.2822],[25.1059,56.743899999999996,86.1654],[25.0977,56.7443,86.9589],[25.0971,56.7398,88.4061],[25.0889,56.7401,91.7705],[25.0883,56.7357,95.8962],[25.072,56.7363,86.9011],[25.0726,56.7408,93.0555],[25.0644,56.7412,88.0347],[25.0638,56.7367,89.1267],[25.0393,56.7377,80.2137],[25.0369,56.7198,85.9377],[25.045,56.7194,102.7683],[25.0444,56.715,94.1629],[25.0607,56.7143,97.0317],[25.0595,56.7053,94.4715],[25.0514,56.7057,83.3707],[25.0508,56.7012,97.966],[25.0426,56.7015,80.3727],[25.042,56.6971,78.1456],[25.0175,56.6981,75.4356],[25.0157,56.6846,86.1012],[25.0239,56.6843,84.5494],[25.0233,56.6798,101.2034],[25.0151,56.6801,82.3809],[25.0145,56.6757,72.4972],[25.0227,56.6753,79.5373],[25.0221,56.6709,77.774],[25.0139,56.6712,72.3763],[25.0097,56.6398,68.1409],[25.026,56.6392,78.9181],[25.0242,56.6257,60.5621],[25.0323,56.6254,75.2856],[25.0317,56.6209,69.0149],[25.0236,56.6212,62.217],[25.0224,56.6123,51.9792],[25.0386,56.6116,67.9942],[25.0392,56.6161,70.6889],[25.0474,56.6157,53.1942],[25.0462,56.6068,44.8486],[25.0543,56.6064,67.3253],[25.0537,56.602,68.5594],[25.0456,56.6023,66.4988],[25.0443,56.5933,87.6477],[25.0118,56.5947,67.9478],[25.0112,56.5902,72.1965],[24.9949,56.5909,75.3342],[24.9943,56.5864,68.6853],[24.9699,56.5874,72.1488],[24.9694,56.5829,64.5465],[24.9368,56.5843,87.4232],[24.9362,56.5798,75.6521],[24.9118,56.5808,64.4373],[24.9112,56.5763,82.7223],[24.8787,56.5776,86.5122],[24.8781,56.5731,78.793],[24.8375,56.5748,73.3267],[24.8369,56.5703,75.1846],[24.8125,56.5713,56.4731],[24.8119,56.5668,77.1212],[24.7957,56.5674,57.2977],[24.7951,56.563,62.6744],[24.7788,56.5636,74.0573],[24.7783,56.5591,58.5038],[24.7701,56.5594,65.7716],[24.7696,56.555,57.881],[24.7614,56.5553,60.2625],[24.7609,56.5508,58.9126],[24.7528,56.5511,57.1979],[24.7522,56.5466,54.2641],[24.7034,56.5485,49.4186],[24.704,56.553,40.5312],[24.6959,56.5533,51.3348],[24.6877,56.5537,46.3094],[24.6872,56.5492,42.5611],[24.679,56.5495,51.741],[24.6785,56.545,42.3867],[24.6622,56.5456,40.662],[24.6628,56.5501,38.9424],[24.6547,56.5504,37.0842]]]]}
,"properties": {"GID_2": "LVA.5.1_1","GID_0": "LVA","country": "Latvia","GID_1": "LVA.5_1","province": "Zemgale","NL_NAME_1": "NA","county": "Aizkraukle","VARNAME_2": "Aizkraukles|Stuchka(Russian-obs","NL_NAME_2": "NA","TYPE_2": "Aprinki|rajoni","ENGTYPE_2": "District","CC_2": "NA","HASC_2": "LV.AI","name": "Aizkraukle.county","area_km2": 2582.663,"hist_schema_id": "Elevation0-9000","hist_area_km2": {"25": 10.531,"50": 229.14,"75": 1104.049,"100": 968.65,"125": 150.7,"150": 81.474,"175": 26.07,"200": 11.841,"225": 0.209}}}