{"type": "Feature","id": "5730","bbox": [25.1386,56.58564,25.29337,56.70822],"geometry": {"type": "Polygon","coordinates": [[[25.27839,56.69685,93.6544],[25.21772,56.70822,89.4453],[25.21555,56.70522,88.4928],[25.20046,56.69781,87.4728],[25.1763,56.70333,93.3224],[25.16847,56.68048,92.0225],[25.18182,56.66045,88.0423],[25.1796,56.64041,81.0572],[25.1386,56.61915,66.6518],[25.1631,56.6129,41.1651],[25.18899,56.601,75.1571],[25.21534,56.58889,35.2883],[25.23536,56.58564,32.0],[25.29337,56.59111,68.0],[25.29313,56.63151,103.0958],[25.29313,56.67603,90.2413],[25.27839,56.69685,93.6544]]]}
,"properties": {"ISO3166-1-Alpha-3": "LVA","country": "Latvia","fill": "#F0F","name": "Aizkraukles","area_km2": 90.12393,"hist_schema_id": "Elevation0-9000","hist_area_km2": {"25": 0.60706,"50": 0.66519,"75": 25.58062,"100": 62.30416,"125": 0.9669}}}