{"type": "Feature","bbox": [26.279,57.2292,27.713,57.6395],"geometry": {"type": "MultiPolygon","coordinates": [[[[26.9375,57.303,120.2801],[26.9383,57.3074,125.4957],[26.9301,57.3079,134.5602],[26.9292,57.3034,124.4963],[26.9375,57.303,120.2801]]],
[[[26.3768,57.5774,70.1726],[26.3672,57.5774,68.4931],[26.3656,57.5685,60.3609],[26.3573,57.5689,57.2606],[26.3565,57.5645,61.8185],[26.3481,57.5649,65.7941],[26.3466,57.556,59.6936],[26.3382,57.5564,66.6236],[26.3374,57.5519,71.0712],[26.3458,57.5515,70.9255],[26.345,57.547,66.9295],[26.3533,57.5466,69.3774],[26.3525,57.5421,63.8982],[26.3442,57.5425,65.2455],[26.3434,57.5381,62.9727],[26.3601,57.5372,61.4728],[26.3577,57.5238,75.9335],[26.3827,57.5225,57.9962],[26.3819,57.518,85.0934],[26.3736,57.5185,80.8685],[26.372,57.5095,85.5781],[26.3554,57.5104,83.7074],[26.3546,57.5059,89.0983],[26.3296,57.5072,79.9224],[26.3288,57.5027,73.6504],[26.3122,57.5036,89.0397],[26.3106,57.4946,76.0113],[26.3189,57.4942,77.7885],[26.315,57.4719,85.1959],[26.3316,57.471,93.5415],[26.3309,57.4665,89.9574],[26.3225,57.467,83.4304],[26.3202,57.4536,85.9634],[26.3119,57.454,82.0968],[26.3127,57.4584,80.4137],[26.296,57.4593,80.0443],[26.2922,57.4369,90.9983],[26.3005,57.4365,84.28],[26.3012,57.441,90.1692],[26.3096,57.4406,87.8769],[26.3088,57.4361,85.0309],[26.3171,57.4357,85.8783],[26.3163,57.4312,96.038],[26.3246,57.4308,98.6433],[26.3238,57.4263,97.3514],[26.3155,57.4267,84.1201],[26.3124,57.4088,104.8934],[26.3041,57.4093,96.0052],[26.3033,57.4048,97.92],[26.3116,57.4044,103.6868],[26.3108,57.3999,101.5171],[26.3025,57.4003,97.2382],[26.3002,57.3869,109.9416],[26.3085,57.3865,109.7373],[26.3077,57.382,101.368],[26.316,57.3816,107.567],[26.3153,57.3771,101.7029],[26.2987,57.378,106.1348],[26.2979,57.3735,117.0603],[26.2896,57.3739,118.2715],[26.288,57.365,108.1166],[26.2797,57.3654,106.4882],[26.279,57.3609,115.4548],[26.2873,57.3605,111.4876],[26.2834,57.3382,119.2344],[26.2917,57.3377,115.3936],[26.2909,57.3333,126.5785],[26.3158,57.332,123.7924],[26.315,57.3275,123.5203],[26.3481,57.3258,116.2944],[26.3473,57.3213,117.7341],[26.3722,57.3201,120.1189],[26.373,57.3245,124.1334],[26.3895,57.3237,123.044],[26.3903,57.3281,116.0214],[26.4069,57.3273,114.2043],[26.4077,57.3317,115.1639],[26.4242,57.3309,98.2862],[26.425,57.3353,96.3288],[26.4416,57.3345,105.1503],[26.4432,57.3434,98.8445],[26.4349,57.3439,88.1054],[26.4373,57.3573,95.3268],[26.429,57.3577,85.2538],[26.4298,57.3622,92.3146],[26.4215,57.3626,80.7495],[26.4199,57.3537,92.1102],[26.4116,57.3541,91.1715],[26.4108,57.3496,96.5496],[26.4025,57.3501,99.495],[26.4033,57.3545,91.8927],[26.395,57.355,101.1426],[26.3974,57.3684,93.374],[26.4057,57.3679,92.5174],[26.4065,57.3724,93.0767],[26.4148,57.372,85.3641],[26.414,57.3675,88.9881],[26.4389,57.3662,103.5936],[26.4405,57.3751,86.589],[26.4653,57.3738,105.1743],[26.4661,57.3783,100.4165],[26.4993,57.3766,105.2406],[26.5001,57.381,107.8412],[26.4918,57.3815,99.903],[26.4926,57.3859,107.3463],[26.4843,57.3864,96.5327],[26.4851,57.3908,107.5415],[26.4768,57.3913,94.6038],[26.4776,57.3957,99.1481],[26.4693,57.3962,90.5451],[26.4709,57.4051,92.5636],[26.4792,57.4047,86.2343],[26.48,57.4092,88.0339],[26.4883,57.4087,104.3273],[26.4875,57.4043,89.1777],[26.5041,57.4034,99.9582],[26.5049,57.4078,98.2706],[26.5215,57.407,86.6327],[26.5223,57.4114,89.1381],[26.5306,57.411,98.6491],[26.529,57.4021,94.6577],[26.5373,57.4016,95.0654],[26.5365,57.3972,92.0706],[26.5697,57.3954,126.9529],[26.5705,57.3999,111.6991],[26.5954,57.3985,123.6547],[26.5946,57.3941,124.4671],[26.6029,57.3936,129.8342],[26.6021,57.3891,118.259],[26.6104,57.3887,115.8272],[26.6087,57.3798,112.1799],[26.617,57.3793,108.7804],[26.6146,57.3659,109.8973],[26.6312,57.365,111.3502],[26.6303,57.3605,115.0652],[26.6552,57.3592,116.1108],[26.6544,57.3547,110.3946],[26.6461,57.3552,113.1954],[26.6436,57.3418,106.7396],[26.6933,57.3391,117.9488],[26.6901,57.3212,116.4614],[26.6983,57.3208,116.6223],[26.6975,57.3163,112.4816],[26.7141,57.3154,108.813],[26.7132,57.3109,110.7941],[26.7381,57.3096,120.3757],[26.7389,57.314,126.5608],[26.7637,57.3127,119.2159],[26.7654,57.3216,133.7326],[26.7571,57.3221,114.9139],[26.7579,57.3265,115.1666],[26.7662,57.3261,121.4053],[26.7671,57.3305,125.3267],[26.7919,57.3292,132.5247],[26.7911,57.3247,135.4986],[26.7993,57.3242,134.7979],[26.7985,57.3198,131.0987],[26.8068,57.3193,129.3856],[26.8059,57.3149,130.2547],[26.8142,57.3144,130.7953],[26.8151,57.3189,134.756],[26.8564,57.3166,144.8216],[26.8573,57.321,136.3731],[26.8656,57.3206,131.3175],[26.8647,57.3161,137.793],[26.873,57.3156,129.6488],[26.8704,57.3022,147.3563],[26.887,57.3013,129.0695],[26.8878,57.3058,126.8436],[26.9209,57.3039,125.2357],[26.9235,57.3173,143.0123],[26.94,57.3164,141.6151],[26.9392,57.3119,128.9409],[26.9475,57.3114,127.7245],[26.9466,57.307,120.1105],[26.9631,57.306,118.4497],[26.964,57.3105,128.3003],[26.9971,57.3086,123.3109],[26.9962,57.3042,131.1653],[27.0128,57.3032,126.4232],[27.0119,57.2988,133.0327],[27.0202,57.2983,124.0599],[27.0193,57.2938,125.2339],[27.0359,57.2929,123.5059],[27.035,57.2884,124.2308],[27.0433,57.2879,132.847],[27.0424,57.2835,113.633],[27.0589,57.2825,112.9757],[27.0581,57.278,112.5586],[27.0911,57.2761,125.6895],[27.0894,57.2672,116.8336],[27.0729,57.2682,122.7957],[27.072,57.2637,118.6503],[27.0637,57.2642,119.5189],[27.062,57.2552,121.4898],[27.0785,57.2543,117.9289],[27.0776,57.2498,118.9451],[27.1024,57.2484,117.66],[27.1015,57.2439,116.8378],[27.1428,57.2415,129.5151],[27.1419,57.2371,128.3112],[27.1667,57.2356,129.5734],[27.1658,57.2312,132.2753],[27.1988,57.2292,115.025],[27.1997,57.2337,118.7918],[27.2162,57.2327,121.289],[27.218,57.2416,121.2367],[27.2345,57.2407,126.2576],[27.2336,57.2362,123.8512],[27.2419,57.2357,124.6354],[27.2436,57.2446,123.6563],[27.2519,57.2442,130.2399],[27.2528,57.2486,126.6506],[27.261,57.2481,130.2289],[27.2628,57.2571,141.7807],[27.2876,57.2556,132.693],[27.2867,57.2511,133.753],[27.295,57.2506,125.3597],[27.2959,57.2551,133.9423],[27.3041,57.2546,133.4515],[27.3068,57.268,151.3677],[27.3151,57.2675,133.1517],[27.316,57.272,145.3484],[27.3242,57.2715,134.4753],[27.3251,57.2759,132.4429],[27.3334,57.2755,144.4871],[27.3352,57.2844,137.0199],[27.36,57.2829,145.9028],[27.3609,57.2874,137.7128],[27.3774,57.2864,141.3167],[27.3765,57.2819,147.7672],[27.3848,57.2814,143.6024],[27.3838,57.2769,150.2846],[27.3921,57.2764,145.479],[27.3912,57.272,140.3386],[27.3995,57.2715,151.9005],[27.3986,57.267,147.928],[27.4068,57.2665,146.5589],[27.4059,57.2621,147.1276],[27.4224,57.2611,144.7282],[27.4215,57.2566,148.4281],[27.4298,57.2561,136.3396],[27.4307,57.2606,138.4086],[27.4389,57.2601,141.1635],[27.4408,57.269,137.7313],[27.4738,57.267,142.8707],[27.4784,57.2893,147.1232],[27.5032,57.2878,147.2951],[27.5022,57.2833,125.6967],[27.5105,57.2828,142.0611],[27.5068,57.265,141.6414],[27.5398,57.2629,110.1798],[27.5408,57.2674,122.5958],[27.5573,57.2664,118.6843],[27.5582,57.2708,122.1947],[27.5665,57.2703,110.495],[27.5655,57.2659,121.8504],[27.5738,57.2654,114.1795],[27.5775,57.2832,121.683],[27.6023,57.2817,117.6756],[27.6051,57.2951,124.0905],[27.5968,57.2956,123.4068],[27.5996,57.309,122.3561],[27.6244,57.3074,119.958],[27.6253,57.3119,111.5401],[27.6501,57.3103,125.4176],[27.6511,57.3148,108.7513],[27.6594,57.3143,120.62],[27.6603,57.3187,121.8237],[27.6686,57.3182,126.3156],[27.6704,57.3271,107.6024],[27.6952,57.3256,124.9566],[27.6962,57.3301,117.467],[27.7045,57.3295,115.3802],[27.713,57.3697,109.1433],[27.6964,57.3707,107.7372],[27.6974,57.3752,112.8288],[27.6808,57.3762,116.9257],[27.6818,57.3807,126.5255],[27.6735,57.3812,112.6775],[27.6744,57.3856,121.413],[27.6662,57.3862,117.8693],[27.6681,57.3951,116.6944],[27.6598,57.3956,126.4368],[27.6607,57.4001,134.938],[27.6524,57.4006,130.0223],[27.6534,57.405,130.1749],[27.6451,57.4056,121.1313],[27.646,57.41,127.1086],[27.6295,57.411,124.2182],[27.6304,57.4155,138.5442],[27.5889,57.4181,137.6431],[27.5899,57.4225,133.722],[27.5734,57.4241,148.4473],[27.5742,57.428,150.7354],[27.5494,57.4295,132.9384],[27.5503,57.434,133.5361],[27.5338,57.4356,133.0053],[27.5346,57.4395,132.929],[27.518,57.4405,136.3951],[27.519,57.445,143.7109],[27.5107,57.4455,132.3532],[27.5153,57.4678,133.5815],[27.5236,57.4673,137.4422],[27.5245,57.4717,137.7959],[27.5412,57.4707,140.2282],[27.5421,57.4752,131.8681],[27.5504,57.4747,128.6683],[27.5523,57.4836,133.99],[27.5606,57.4831,134.4261],[27.5671,57.5143,131.7412],[27.5588,57.5148,133.3664],[27.5597,57.5193,136.9519],[27.5431,57.5203,136.5575],[27.5468,57.5381,137.8519],[27.4969,57.5412,150.9497],[27.496,57.5367,143.5154],[27.4794,57.5377,151.6394],[27.4784,57.5333,148.2897],[27.4618,57.5343,155.6235],[27.4609,57.5298,160.4613],[27.4276,57.5318,169.343],[27.4269,57.5284,164.8675],[27.4184,57.5278,168.8666],[27.3853,57.5309,167.2212],[27.386,57.5343,170.0997],[27.3694,57.5353,178.6706],[27.3703,57.5398,167.3853],[27.3453,57.5412,176.314],[27.3462,57.5457,159.6715],[27.313,57.5477,185.6858],[27.3139,57.5521,179.0813],[27.2972,57.5531,176.5844],[27.2963,57.5487,178.8443],[27.2833,57.5494,189.6991],[27.2861,57.5435,180.172],[27.2922,57.5435,178.9651],[27.2951,57.5453,174.4035],[27.2972,57.5397,172.327],[27.2808,57.5374,173.2262],[27.2753,57.5439,177.3661],[27.2662,57.5443,176.817],[27.2652,57.5488,175.5099],[27.258,57.5508,176.3511],[27.2487,57.5487,178.6807],[27.2255,57.5547,179.7729],[27.1942,57.5506,179.8588],[27.1614,57.5605,197.4586],[27.1221,57.5619,183.6785],[27.1224,57.5633,180.4063],[27.1057,57.5643,185.1981],[27.1059,57.5655,172.7066],[27.1008,57.5663,175.032],[27.0991,57.569,187.1337],[27.0899,57.5697,182.5723],[27.0904,57.5724,175.1789],[27.0874,57.5768,171.5],[27.0759,57.5769,177.4023],[27.0758,57.579,182.9146],[27.0734,57.5789,180.1473],[27.0745,57.5811,183.1766],[27.0647,57.5849,187.2419],[27.0582,57.5896,191.7459],[27.0518,57.59,200.3501],[27.0525,57.5939,203.9982],[27.0517,57.5926,192.6868],[27.0443,57.5949,201.4521],[27.0452,57.5994,213.1882],[27.0397,57.5997,217.0751],[27.0349,57.6025,213.073],[27.0377,57.6043,225.4725],[27.021,57.6053,196.2591],[27.0219,57.6097,197.6189],[27.0136,57.6102,195.3807],[27.0144,57.6147,186.0648],[27.0061,57.6151,176.0015],[27.007,57.6196,179.4322],[26.9819,57.621,154.3784],[26.9813,57.618,150.9724],[26.9863,57.6204,159.2083],[26.9924,57.6183,164.5467],[26.9988,57.619,177.8789],[26.9922,57.6135,193.6543],[26.9959,57.6132,189.84],[26.987,57.6091,163.4542],[26.9845,57.6119,167.5753],[26.9779,57.6118,166.5112],[26.9683,57.6151,148.4676],[26.9673,57.6173,146.1401],[26.9644,57.6175,146.1401],[26.9652,57.6219,171.5058],[26.9402,57.6234,148.3348],[26.9411,57.6278,158.4092],[26.9327,57.6283,153.3043],[26.9336,57.6328,152.0378],[26.9169,57.6337,145.1417],[26.9177,57.6381,144.6249],[26.8927,57.6395,155.2803],[26.8918,57.6351,152.5651],[26.8835,57.6355,150.8755],[26.8826,57.6311,143.3748],[26.8743,57.6315,147.664],[26.8726,57.6226,144.1735],[26.8642,57.6231,144.6421],[26.8625,57.6141,146.0296],[26.8542,57.6146,142.2617],[26.8577,57.6098,140.8016],[26.8643,57.6084,140.7693],[26.861,57.6044,145.7301],[26.8611,57.6023,147.2309],[26.8576,57.6009,147.6041],[26.8594,57.5965,150.33],[26.8636,57.5943,167.1351],[26.8617,57.592,127.5517],[26.8465,57.5893,130.4348],[26.8339,57.5827,135.7979],[26.8173,57.5814,129.9795],[26.8105,57.5841,128.6895],[26.81,57.59,149.6729],[26.7907,57.591,117.7962],[26.7899,57.5866,126.3905],[26.7852,57.5868,133.7986],[26.7986,57.5799,147.8883],[26.7946,57.5778,152.2496],[26.7956,57.5755,148.237],[26.7928,57.5733,135.6626],[26.782,57.5786,132.7537],[26.7825,57.5807,102.4199],[26.7785,57.5806,102.4199],[26.7811,57.5762,142.2455],[26.7868,57.5753,137.2133],[26.7821,57.5726,133.1724],[26.775,57.5613,113.6371],[26.7774,57.5608,115.5129],[26.7766,57.56,114.6282],[26.7701,57.5604,113.7742],[26.7629,57.5632,114.3893],[26.7536,57.5624,121.8771],[26.7689,57.5704,127.9087],[26.7734,57.5744,138.0748],[26.7678,57.5774,133.1457],[26.749,57.5777,117.3682],[26.7527,57.5802,85.5312],[26.7378,57.5877,76.6641],[26.729,57.5803,98.085],[26.7378,57.5759,111.0738],[26.7308,57.5693,110.7956],[26.7238,57.5724,99.7903],[26.7124,57.5668,118.7934],[26.7083,57.5664,118.3428],[26.7005,57.5709,106.4006],[26.6971,57.5708,102.0409],[26.6973,57.5674,113.3368],[26.6923,57.5661,99.3727],[26.6759,57.5667,81.5062],[26.6697,57.563,74.1142],[26.6725,57.5613,75.4745],[26.6673,57.5616,81.2176],[26.6665,57.5572,80.9359],[26.6582,57.5576,89.9983],[26.6573,57.5539,77.8897],[26.6471,57.554,85.4756],[26.6428,57.5466,78.4679],[26.6345,57.5435,78.147],[26.6146,57.5293,85.2385],[26.6152,57.5238,92.1472],[26.6099,57.5241,106.0022],[26.6091,57.5196,100.8236],[26.6008,57.5201,91.0071],[26.6016,57.5245,113.8307],[26.5614,57.5267,86.3755],[26.5611,57.5226,90.9191],[26.5662,57.5195,85.3689],[26.5574,57.5139,87.5538],[26.5249,57.5162,95.8442],[26.4999,57.5245,92.243],[26.491,57.5455,95.6423],[26.4695,57.5756,62.3399],[26.4016,57.5722,83.5806],[26.3768,57.5774,70.1726]]]]}
,"properties": {"GID_2": "LVA.4.1_1","GID_0": "LVA","country": "Latvia","GID_1": "LVA.4_1","province": "Vidzeme","NL_NAME_1": "NA","county": "Aluksne","VARNAME_2": "NA","NL_NAME_2": "NA","TYPE_2": "Aprinki|rajoni","ENGTYPE_2": "District","CC_2": "NA","HASC_2": "LV.AL","name": "Aluksne.county","area_km2": 2218.402,"hist_schema_id": "Elevation0-9000","hist_area_km2": {"50": 10.221,"75": 94.213,"100": 400.012,"125": 550.808,"150": 535.663,"175": 438.569,"200": 168.086,"225": 18.762,"250": 1.911,"275": 0.159}}}