{"type": "Feature","id": "1076","bbox": [26.59422,57.22638,27.69441,57.62718],"geometry": {"type": "Polygon","coordinates": [[[26.91162,57.61344,147.1466],[26.89611,57.61499,145.0429],[26.88495,57.62209,144.2619],[26.87265,57.62718,150.2589],[26.85415,57.62256,143.7573],[26.83855,57.60987,125.8901],[26.82832,57.59504,130.291],[26.81633,57.58119,129.9795],[26.79576,57.57132,133.3125],[26.806,57.55384,116.9736],[26.80828,57.51967,120.5821],[26.80828,57.50372,117.7113],[26.75816,57.50372,113.5563],[26.7217,57.49005,107.0586],[26.71487,57.46498,99.772],[26.70348,57.42397,104.3646],[26.68753,57.41714,120.5501],[26.64424,57.41714,103.6133],[26.61462,57.41942,110.7327],[26.59422,57.3913,127.7261],[26.61815,57.36249,110.2003],[26.63319,57.3503,106.2798],[26.67758,57.33433,117.4847],[26.68145,57.32368,111.0014],[26.68223,57.32002,113.4387],[26.71478,57.30648,107.4829],[26.7477,57.31896,112.9651],[26.76072,57.32167,118.0789],[26.79023,57.31841,133.7175],[26.83617,57.31531,131.465],[26.84005,57.3163,132.087],[26.84547,57.31593,140.9852],[26.84935,57.31526,141.8355],[26.86501,57.29953,137.9572],[26.90552,57.30374,127.9012],[26.98851,57.30441,125.4183],[27.02081,57.28674,118.7806],[27.05993,57.27276,126.958],[27.06691,57.2687,122.9261],[27.06009,57.26322,123.7793],[27.04856,57.25643,120.152],[27.04655,57.25335,128.5941],[27.04593,57.2503,119.5661],[27.05616,57.2487,120.66],[27.15656,57.22638,135.3628],[27.18437,57.22811,119.3379],[27.20111,57.2348,118.2305],[27.22049,57.23439,122.0834],[27.22891,57.23899,124.623],[27.23418,57.24281,134.2003],[27.241,57.24643,139.5038],[27.24814,57.24896,127.1845],[27.27589,57.24669,129.942],[27.32601,57.27743,132.5576],[27.3549,57.28477,139.056],[27.40627,57.26307,149.5656],[27.46073,57.27418,138.8289],[27.48709,57.27387,136.7814],[27.50171,57.26477,134.7198],[27.51892,57.25935,126.4606],[27.52683,57.25986,111.9453],[27.55556,57.25891,115.0849],[27.57122,57.27697,114.1156],[27.58734,57.28255,122.9845],[27.60021,57.29779,126.9616],[27.65235,57.31369,108.9787],[27.66227,57.31841,120.7732],[27.67235,57.32022,114.0691],[27.68186,57.32676,126.8905],[27.68852,57.33257,118.0182],[27.69441,57.35638,111.9879],[27.64082,57.389,125.6116],[27.53628,57.4157,133.1805],[27.51132,57.4304,146.9385],[27.51484,57.44789,131.6975],[27.52564,57.46838,131.2316],[27.5228,57.49202,141.2203],[27.52817,57.52848,137.2049],[27.35293,57.5276,170.5224],[27.31997,57.51613,171.8188],[27.16566,57.5467,177.8347],[27.08535,57.54943,193.4138],[27.06153,57.55566,183.9031],[27.04133,57.56845,201.6447],[27.00464,57.59891,186.4725],[26.98107,57.60899,164.4001],[26.94655,57.61535,153.0849],[26.92919,57.61555,149.7269],[26.91162,57.61344,147.1466]]]}
,"properties": {"ISO3166-1-Alpha-3": "LVA","country": "Latvia","fill": "#F0F","name": "Aluksne","area_km2": 1657.008,"hist_schema_id": "Elevation0-9000","hist_area_km2": {"100": 77.422,"125": 485.806,"150": 517.434,"175": 401.149,"200": 155.694,"225": 17.433,"250": 1.911,"275": 0.159}}}