{"type":"Feature","properties":{"ISO3166-1-Alpha-3":"LVA","country":"Latvia","fill":"#00F","id":"5744","name":"Karsavas"},
"geometry":{"type": "Polygon","coordinates": [[[27.86546,56.74269,114.9078],[27.87611,56.75943,104.4712],[27.90008,56.78305,122.0714],[27.91889,56.80589,114.8671],[27.91352,56.82015,103.167],[27.89151,56.82971,108.1943],[27.85223,56.85431,96.576],[27.83084,56.86428,116.2892],[27.7864,56.87126,101.3927],[27.74407,56.8648,102.7993],[27.66118,56.83927,100.2092],[27.64438,56.84177,100.7572],[27.63716,56.83661,104.4453],[27.61499,56.84501,99.4876],[27.60083,56.85245,109.504],[27.58129,56.85762,110.4604],[27.57184,56.86382,137.0749],[27.56765,56.86733,118.8312],[27.5616,56.87074,116.9199],[27.54962,56.86694,112.1309],[27.52993,56.86289,126.4242],[27.51814,56.85798,120.4],[27.4467,56.85266,117.2024],[27.42781,56.85126,116.6019],[27.41216,56.84532,117.1258],[27.39572,56.83596,109.4247],[27.39092,56.83191,111.6204],[27.39495,56.82803,104.2612],[27.38342,56.82136,101.4083],[27.3766,56.82061,105.0249],[27.37133,56.82201,101.275],[27.3687,56.82446,109.8851],[27.3625,56.82459,104.2333],[27.35521,56.82165,108.3722],[27.34808,56.81514,101.446],[27.34839,56.8072,108.9752],[27.34482,56.8016,106.7165],[27.34792,56.78431,98.6162],[27.33986,56.78268,98.2628],[27.40372,56.78478,108.0143],[27.4555,56.77183,105.0862],[27.47103,56.74077,106.8195],[27.48631,56.69339,118.7842],[27.48027,56.68083,123.304],[27.47034,56.67422,131.7771],[27.47205,56.66326,143.9479],[27.47639,56.65845,145.4987],[27.48802,56.65331,139.6904],[27.50182,56.65577,146.3985],[27.51241,56.65484,143.4958],[27.52481,56.65179,145.7],[27.54155,56.64507,145.4762],[27.55163,56.63675,154.7822],[27.58021,56.61944,154.1736],[27.5927,56.65534,135.4674],[27.64448,56.6864,116.857],[27.76097,56.69158,113.5884],[27.80239,56.66569,114.5731],[27.82051,56.68899,110.5371],[27.82051,56.72782,109.7728],[27.84381,56.74336,120.4673],[27.86546,56.74269,114.9078]]]}}