{"type":"Feature","properties":{"ISO3166-1-Alpha-3":"LVA","country":"Latvia","fill":"#00F","id":"5774","name":"Salacgrivas"},
"geometry":{"type": "Polygon","coordinates": [[[24.58245,57.94601,55.4629],[24.55388,57.94742,42.3976],[24.53383,57.94507,51.4693],[24.48133,57.91931,30.6966],[24.44164,57.90809,23.028],[24.42913,57.90034,12.1166],[24.4127,57.87657,11.6324],[24.40154,57.86647,18.9172],[24.37818,57.85944,5.3645],[24.34966,57.85864,4.7531],[24.30616,57.86819,0.0],[24.29615,57.85737,0.0],[24.28883,57.84528,0.0],[24.28598,57.83259,0.0],[24.28883,57.80891,0.0],[24.29957,57.76191,0.0],[24.29957,57.74384,0.0],[24.31373,57.72504,0.0],[24.35768,57.68549,0.8698],[24.36305,57.67227,0.0],[24.37477,57.61347,0.0],[24.36297,57.57661,0.6759],[24.35857,57.55036,0.0],[24.36451,57.5384,0.0],[24.37517,57.52855,11.7239],[24.37989,57.50654,2.9519],[24.3816,57.46943,4.1121],[24.39489,57.40001,0.0],[24.44754,57.40773,30.8478],[24.48648,57.41607,49.4076],[24.50178,57.4272,45.1247],[24.51152,57.44806,51.7991],[24.5588,57.45223,39.9387],[24.57827,57.46475,57.6879],[24.56575,57.47448,51.2038],[24.54906,57.48978,50.7408],[24.52959,57.52176,50.6832],[24.55324,57.54123,37.938],[24.49066,57.54401,42.3447],[24.49761,57.55514,35.4233],[24.47814,57.56766,29.9087],[24.46006,57.56487,33.6649],[24.43364,57.56766,33.7864],[24.43503,57.58852,29.8131],[24.4239,57.58991,35.6695],[24.42668,57.6205,31.1681],[24.41834,57.67057,25.3036],[24.51569,57.67891,54.3501],[24.54072,57.66639,47.3988],[24.56436,57.67335,51.1634],[24.5588,57.68864,39.9442],[24.56297,57.71785,46.4118],[24.60886,57.71507,44.9396],[24.59913,57.75262,40.9726],[24.64919,57.7707,58.2599],[24.59774,57.87082,42.6926],[24.5741,57.88195,38.1029],[24.59078,57.89447,42.4934],[24.588,57.92089,46.6268],[24.58245,57.94601,55.4629]]]}}