{"type":"Feature","properties":{"ISO3166-1-Alpha-3":"LVA","country":"Latvia","fill":"#00F","id":"5794","name":"Priekulu"},
"geometry":{"type": "Polygon","coordinates": [[[25.65795,57.46461,59.9617],[25.6024,57.46864,82.3882],[25.56111,57.45102,66.3801],[25.54762,57.44156,69.9327],[25.52679,57.4382,73.9254],[25.51935,57.44125,79.423],[25.50943,57.44701,77.5438],[25.50044,57.45014,83.6208],[25.4745,57.44254,68.8377],[25.42096,57.44745,50.8929],[25.39879,57.44125,42.9192],[25.40468,57.435,30.0445],[25.40251,57.43355,26.7613],[25.39181,57.42805,43.4599],[25.39864,57.41112,48.2866],[25.39709,57.40453,35.2918],[25.3929,57.3982,35.9405],[25.39321,57.39068,70.4361],[25.38685,57.38606,35.8721],[25.37709,57.36974,51.9612],[25.35673,57.35721,59.6315],[25.31916,57.35565,61.6311],[25.28628,57.36034,45.5528],[25.24557,57.34782,83.3557],[25.23148,57.33059,28.7302],[25.25496,57.3259,78.2544],[25.27375,57.31807,82.2309],[25.31133,57.31337,121.0322],[25.32385,57.30868,130.401],[25.31133,57.29615,127.4307],[25.33168,57.29145,143.3573],[25.363,57.29615,100.1159],[25.39431,57.30241,94.1017],[25.42719,57.28989,115.4917],[25.46633,57.27736,174.5515],[25.48982,57.26327,175.0687],[25.50077,57.24918,192.4257],[25.50077,57.2163,217.2593],[25.52269,57.20847,229.2335],[25.54618,57.21317,233.2092],[25.56027,57.22256,229.6035],[25.57593,57.23665,241.2666],[25.59941,57.24761,235.7383],[25.60098,57.26484,193.1383],[25.59785,57.28519,191.5515],[25.57906,57.29615,179.3257],[25.55557,57.30554,156.3345],[25.54775,57.3212,142.6808],[25.53365,57.33842,94.7891],[25.5133,57.34625,101.5698],[25.51173,57.36034,73.7978],[25.54618,57.37756,78.2074],[25.57593,57.3807,69.2808],[25.60254,57.37756,86.1404],[25.60568,57.39635,75.4577],[25.62603,57.40575,75.6567],[25.64951,57.44019,71.1207],[25.65795,57.46461,59.9617]]]}}