{"type": "Feature","bbox": [25.8116,55.6637,28.2405,57.3652],"geometry": {"type": "MultiPolygon","coordinates": [[[[27.4729,55.7894,97.5],[27.5272,55.7838,106.9964],[27.592,55.7818,121.0205],[27.5926,55.7888,126.799],[27.5972,55.7913,117.6696],[27.5968,55.7938,128.7851],[27.6289,55.8421,154.2681],[27.6307,55.8479,156.099],[27.6304,55.8912,161.5],[27.6322,55.897,162.4507],[27.6625,55.9152,161.4196],[27.6642,55.9308,161.7133],[27.6891,55.9438,168.7356],[27.7531,55.9698,166.9567],[27.7581,55.9724,158.3022],[27.7583,55.975,145.6819],[27.763,55.975,170.002],[27.7633,55.9776,156.3664],[27.7683,55.9802,140.0794],[27.768,55.9776,139.8162],[27.7727,55.9776,138.1149],[27.773,55.9802,142.233],[27.7821,55.9777,144.7503],[27.7774,55.9777,142.4303],[27.7772,55.9751,144.2043],[27.7819,55.9751,142.9733],[27.8007,55.9752,145.7483],[27.801,55.9778,150.4515],[27.8059,55.9804,155.0659],[27.8153,55.9804,165.4281],[27.8109,55.983,171.2342],[27.8112,55.9855,152.1015],[27.8159,55.9856,157.8308],[27.8115,55.9881,144.271],[27.8209,55.9882,144.3306],[27.8217,55.9959,138.4593],[27.8264,55.9959,139.7406],[27.822,55.9985,144.7956],[27.8226,56.0037,157.4877],[27.8181,56.0062,153.0402],[27.8275,56.0063,158.5191],[27.8278,56.0088,165.4798],[27.8328,56.0114,174.9981],[27.8375,56.0115,161.9158],[27.8378,56.014,152.3686],[27.8425,56.0141,159.9992],[27.8428,56.0166,154.1287],[27.8478,56.0192,150.7153],[27.848,56.0218,152.5954],[27.834,56.0252,152.2081],[27.8292,56.0247,149.6373],[27.8245,56.0281,152.3755],[27.8392,56.0317,153.9463],[27.8537,56.0333,156.0734],[27.8685,56.0387,154.3932],[27.8781,56.0395,148.4133],[27.8783,56.0417,156.2733],[27.8831,56.0421,147.3538],[27.8784,56.0438,146.5578],[27.8832,56.0442,144.0969],[27.8834,56.0463,144.1449],[27.888,56.0446,137.7282],[27.8882,56.0468,139.2699],[27.9073,56.0479,142.1503],[27.9117,56.0453,138.5035],[27.9164,56.0453,167.4897],[27.9214,56.0479,166.2683],[27.9219,56.0531,155.8661],[27.9314,56.0531,167.6108],[27.9316,56.0557,167.8608],[27.9363,56.0557,166.9898],[27.9366,56.0583,170.8332],[27.9516,56.0661,162.0084],[27.9526,56.0814,181.2424],[27.9671,56.0889,169.9429],[27.9673,56.094,184.5195],[27.9768,56.094,161.0755],[27.9816,56.0968,160.6796],[27.9817,56.0995,163.8007],[27.9864,56.0995,162.3601],[27.9867,56.1104,170.842],[28.0008,56.1104,151.3421],[28.0056,56.1131,149.0052],[28.0056,56.1158,169.3169],[28.0245,56.1159,147.2643],[28.0245,56.1132,143.4477],[28.0389,56.1145,139.1712],[28.0391,56.1102,137.7014],[28.0579,56.1104,137.8034],[28.0579,56.1204,142.2541],[28.0767,56.1284,137.3554],[28.0815,56.1286,142.9356],[28.0814,56.1309,139.6157],[28.0955,56.1312,133.9243],[28.0955,56.1287,138.4862],[28.1049,56.1288,137.7944],[28.1047,56.1414,141.9733],[28.1141,56.1416,143.1086],[28.1141,56.1442,146.7606],[28.1187,56.1468,144.0127],[28.1186,56.1489,145.2673],[28.1234,56.1494,135.2426],[28.1232,56.1515,135.2614],[28.1325,56.157,134.8634],[28.1373,56.1547,134.5411],[28.1372,56.157,136.9986],[28.1419,56.1573,132.8454],[28.1418,56.1597,133.8764],[28.1465,56.1599,151.9983],[28.1465,56.1625,144.9375],[28.1512,56.1625,146.5645],[28.1512,56.1611,128.3945],[28.1522,56.1653,138.9997],[28.1562,56.165,140.6759],[28.1572,56.1694,145.8806],[28.1732,56.1683,151.1082],[28.18,56.1996,140.3493],[28.188,56.199,126.4797],[28.1899,56.2079,134.5516],[28.1979,56.2074,128.0787],[28.1997,56.2156,138.9381],[28.1919,56.2168,151.2229],[28.1928,56.2213,159.136],[28.1848,56.2218,164.5352],[28.1858,56.2263,163.3665],[28.1938,56.2257,159.6797],[28.1977,56.2436,156.0516],[28.2057,56.243,172.1545],[28.2076,56.2519,165.1028],[28.2157,56.2514,160.8313],[28.2176,56.2603,162.5036],[28.2256,56.2598,166.0703],[28.2276,56.2687,159.877],[28.2356,56.2681,167.7648],[28.2405,56.2904,159.5209],[28.2325,56.291,141.1396],[28.2335,56.2954,147.0661],[28.2254,56.296,144.5198],[28.2274,56.3049,135.6041],[28.2193,56.3054,133.573],[28.2213,56.3143,135.1119],[28.2132,56.3149,131.3162],[28.2152,56.3238,134.0642],[28.2072,56.3244,132.8613],[28.2091,56.3333,134.8153],[28.2011,56.3338,132.1452],[28.203,56.3427,153.7714],[28.195,56.3433,136.4695],[28.1969,56.3522,134.9417],[28.1889,56.3528,133.7434],[28.1898,56.3572,127.6491],[28.1818,56.3578,126.2063],[28.1837,56.3667,126.5591],[28.1757,56.3672,128.1514],[28.1767,56.3717,130.2949],[28.1686,56.3722,131.2364],[28.1696,56.3767,126.1642],[28.1615,56.3772,129.299],[28.1625,56.3817,134.7897],[28.1705,56.3811,127.4028],[28.1725,56.3901,125.6079],[28.1805,56.3895,119.2408],[28.1825,56.3984,134.6154],[28.1905,56.3979,136.5501],[28.1935,56.4112,119.1752],[28.1854,56.4118,126.3344],[28.1893,56.4296,122.4423],[28.1813,56.4302,117.3756],[28.1842,56.4436,119.2566],[28.1761,56.4441,113.217],[28.1781,56.453,118.9502],[28.17,56.4536,116.501],[28.171,56.458,120.3934],[28.1629,56.4586,121.1261],[28.1639,56.463,113.7356],[28.1558,56.4636,125.5536],[28.1568,56.468,113.726],[28.1487,56.4686,136.3313],[28.1497,56.473,120.4176],[28.1416,56.4736,122.1507],[28.1426,56.478,116.2308],[28.1345,56.4786,121.1334],[28.1355,56.483,126.9312],[28.1274,56.4836,113.2399],[28.1293,56.4925,126.0191],[28.1212,56.4931,119.2776],[28.1261,56.5153,104.8856],[28.1099,56.5164,105.1063],[28.1109,56.5209,110.7855],[28.1028,56.5214,117.3423],[28.1048,56.5304,125.4666],[28.0967,56.5309,106.5163],[28.0976,56.5354,105.5561],[28.1057,56.5348,112.4261],[28.1067,56.5393,111.1987],[28.1148,56.5387,119.9049],[28.1158,56.5432,111.6467],[28.1238,56.5426,110.1681],[28.1248,56.5471,104.4768],[28.141,56.546,121.6757],[28.1439,56.5594,107.0417],[28.1358,56.5599,107.0686],[28.1387,56.5733,117.8113],[28.1307,56.5738,117.7231],[28.1316,56.5783,114.1607],[28.1154,56.5794,111.4641],[28.1164,56.5838,109.5731],[28.0516,56.5882,112.7037],[28.0526,56.5926,111.1392],[28.0364,56.5937,111.5155],[28.0393,56.6071,108.1168],[28.0312,56.6076,108.2433],[28.0331,56.6166,113.6836],[28.025,56.6171,109.3806],[28.0269,56.626,109.3015],[28.0188,56.6266,108.9245],[28.0207,56.6355,109.326],[28.0126,56.636,108.2944],[28.0174,56.6583,119.4045],[28.0093,56.6588,115.8371],[28.0122,56.6722,111.1194],[28.0041,56.6728,120.8673],[28.005,56.6772,120.3624],[27.9969,56.6778,117.2465],[27.9979,56.6822,117.67529999999999],[27.9816,56.6833,108.7764],[27.9874,56.71,115.3509],[27.963,56.7116,115.1412],[27.964,56.7161,115.0828],[27.9558,56.7166,109.3139],[27.9568,56.7211,122.9342],[27.9487,56.7216,104.973],[27.9496,56.7261,106.0606],[27.9334,56.7272,102.6049],[27.9343,56.7316,108.9401],[27.9262,56.7322,109.6695],[27.9271,56.7366,115.7872],[27.919,56.7371,127.5027],[27.92,56.7416,121.2744],[27.9118,56.7421,102.9737],[27.9128,56.7466,102.7483],[27.9046,56.7471,100.5961],[27.9056,56.7516,106.009],[27.9137,56.7511,101.6767],[27.9166,56.7644,109.9452],[27.9247,56.7639,102.0792],[27.9257,56.7684,110.8305],[27.9338,56.7678,104.2133],[27.9348,56.7723,99.3355],[27.9429,56.7717,110.3202],[27.9439,56.7762,99.9485],[27.952,56.7757,108.7063],[27.9539,56.7846,104.4698],[27.9458,56.7851,99.1817],[27.9506,56.8074,106.1512],[27.975,56.8058,120.1912],[27.9779,56.8192,104.3809],[27.9698,56.8197,105.5777],[27.9707,56.8241,100.8949],[27.9626,56.8247,104.2904],[27.9636,56.8292,100.9484],[27.9473,56.8303,117.039],[27.9463,56.8258,109.5641],[27.9055,56.8285,112.8649],[27.9065,56.8329,123.2606],[27.8983,56.8334,99.5227],[27.8993,56.8379,108.5117],[27.8911,56.8384,102.8598],[27.8921,56.8429,109.8867],[27.8839,56.8434,98.9522],[27.8858,56.8523,100.7941],[27.8777,56.8529,98.9324],[27.8786,56.8573,99.2805],[27.8705,56.8579,97.1062],[27.8714,56.8623,106.9628],[27.8632,56.8629,104.7465],[27.8642,56.8673,95.2024],[27.856,56.8678,96.5919],[27.857,56.8723,95.7377],[27.8488,56.8728,107.0606],[27.8498,56.8773,100.738],[27.8416,56.8778,94.653],[27.840699999999998,56.8734,99.2306],[27.7998,56.876,106.0319],[27.7979,56.8671,96.0621],[27.7898,56.8676,95.6902],[27.7888,56.8631,92.3587],[27.7643,56.8647,98.3559],[27.7634,56.8602,92.1938],[27.7552,56.8608,98.6106],[27.7543,56.8563,92.6408],[27.7135,56.8589,101.7996],[27.7126,56.8544,101.7226],[27.7044,56.855,101.9199],[27.7025,56.846,95.6748],[27.6944,56.8466,99.4977],[27.6925,56.8376,94.0529],[27.668,56.8392,97.9155],[27.6754,56.8749,101.2718],[27.6673,56.8754,98.0475],[27.6756,56.9155,91.1277],[27.6838,56.915,89.7228],[27.6848,56.9195,90.0273],[27.6929,56.919,92.6441],[27.6939,56.9234,93.5269],[27.7102,56.9224,92.6372],[27.7112,56.9268,92.6251],[27.7193,56.9263,92.1293],[27.7212,56.9352,90.041],[27.7294,56.9347,90.5388],[27.736,56.966,89.9556],[27.7278,56.9665,92.5444],[27.7287,56.9709,90.4525],[27.7369,56.9704,89.45],[27.7416,56.9927,92.849],[27.7334,56.9932,91.4159],[27.7343,56.9977,96.8481],[27.7261,56.9982,99.324],[27.7271,57.0027,104.0591],[27.7189,57.0032,101.9828],[27.7255,57.0344,91.7311],[27.7337,57.0339,105.9166],[27.7355,57.0428,93.9907],[27.7438,57.0423,96.4681],[27.7532,57.0869,87.9451],[27.7203,57.089,88.8237],[27.7222,57.0979,90.0988],[27.7304,57.0974,88.6811],[27.7323,57.1063,93.2144],[27.7405,57.1058,99.5634],[27.7415,57.1102,96.7862],[27.7497,57.1097,88.965],[27.7525,57.1231,102.4606],[27.7608,57.1226,84.0232],[27.7627,57.1315,83.7686],[27.7709,57.131,84.2357],[27.7718,57.1354,83.8067],[27.7801,57.1349,84.6814],[27.781,57.1394,86.1027],[27.7892,57.1389,90.2854],[27.7902,57.1433,92.026],[27.7984,57.1428,97.152],[27.7994,57.1472,98.0793],[27.8076,57.1467,82.5955],[27.8085,57.1512,85.5991],[27.8168,57.1507,81.8748],[27.8196,57.164,82.9311],[27.8279,57.1635,78.9271],[27.8346,57.1947,81.8623],[27.8428,57.1942,85.8418],[27.8486,57.2209,81.0525],[27.8568,57.2204,82.0174],[27.8684,57.2739,84.7812],[27.8601,57.2745,93.9475],[27.863,57.2878,84.5831],[27.8548,57.2884,86.325],[27.8577,57.3017,82.9316],[27.8525,57.3021,82.9885],[27.8501,57.3058,89.4986],[27.8513,57.3112,85.7942],[27.8431,57.3117,92.7456],[27.844,57.3162,82.3878],[27.8275,57.3172,93.2067],[27.8285,57.3217,95.0362],[27.8037,57.3233,94.0455],[27.8046,57.3277,98.8843],[27.7881,57.3288,94.4044],[27.789,57.3332,96.8558],[27.7808,57.3338,89.4526],[27.7827,57.3427,91.2405],[27.7744,57.3432,87.1264],[27.7754,57.3477,88.9307],[27.7671,57.3482,100.666],[27.7681,57.3526,108.9965],[27.7515,57.3537,109.6305],[27.7525,57.3582,111.5708],[27.7359,57.3592,114.8587],[27.7369,57.3637,116.6814],[27.7121,57.3652,133.9011],[27.7045,57.3295,115.3802],[27.6962,57.3301,117.467],[27.6952,57.3256,124.9566],[27.6704,57.3271,107.6024],[27.6686,57.3182,126.3156],[27.6603,57.3187,121.8237],[27.6594,57.3143,120.62],[27.6511,57.3148,108.7513],[27.6501,57.3103,125.4176],[27.6253,57.3119,111.5401],[27.6244,57.3074,119.958],[27.5996,57.309,122.3561],[27.5968,57.2956,123.4068],[27.6051,57.2951,124.0905],[27.6023,57.2817,117.6756],[27.5775,57.2832,121.683],[27.5738,57.2654,114.1795],[27.5655,57.2659,121.8504],[27.5665,57.2703,110.495],[27.5582,57.2708,122.1947],[27.5573,57.2664,118.6843],[27.5408,57.2674,122.5958],[27.5398,57.2629,110.1798],[27.5068,57.265,141.6414],[27.5105,57.2828,142.0611],[27.5022,57.2833,125.6967],[27.5032,57.2878,147.2951],[27.4784,57.2893,147.1232],[27.4738,57.267,142.8707],[27.4408,57.269,137.7313],[27.4389,57.2601,141.1635],[27.4307,57.2606,138.4086],[27.4298,57.2561,136.3396],[27.4215,57.2566,148.4281],[27.4224,57.2611,144.7282],[27.4059,57.2621,147.1276],[27.4068,57.2665,146.5589],[27.3986,57.267,147.928],[27.3995,57.2715,151.9005],[27.3912,57.272,140.3386],[27.3921,57.2764,145.479],[27.3838,57.2769,150.2846],[27.3848,57.2814,143.6024],[27.3765,57.2819,147.7672],[27.3774,57.2864,141.3167],[27.3609,57.2874,137.7128],[27.36,57.2829,145.9028],[27.3352,57.2844,137.0199],[27.3334,57.2755,144.4871],[27.3251,57.2759,132.4429],[27.3242,57.2715,134.4753],[27.316,57.272,145.3484],[27.3151,57.2675,133.1517],[27.3068,57.268,151.3677],[27.3041,57.2546,133.4515],[27.2959,57.2551,133.9423],[27.295,57.2506,125.3597],[27.2867,57.2511,133.753],[27.2876,57.2556,132.693],[27.2628,57.2571,141.7807],[27.261,57.2481,130.2289],[27.2528,57.2486,126.6506],[27.2519,57.2442,130.2399],[27.2436,57.2446,123.6563],[27.2419,57.2357,124.6354],[27.2336,57.2362,123.8512],[27.2345,57.2407,126.2576],[27.218,57.2416,121.2367],[27.2162,57.2327,121.289],[27.1997,57.2337,118.7918],[27.1988,57.2292,115.025],[27.1658,57.2312,132.2753],[27.1667,57.2356,129.5734],[27.1502,57.2366,135.4843],[27.1476,57.2232,127.654],[27.1393,57.2237,139.6372],[27.1384,57.2192,129.5459],[27.1302,57.2197,129.9108],[27.1276,57.2063,129.5583],[27.1193,57.2068,119.9195],[27.1185,57.2023,138.9991],[27.1102,57.2028,130.3169],[27.1093,57.1983,126.8904],[27.1011,57.1988,120.5158],[27.1002,57.1943,117.5908],[27.092,57.1948,118.7195],[27.0885,57.1769,125.0329],[27.0803,57.1774,123.6839],[27.0794,57.173,117.8262],[27.0547,57.1744,105.8359],[27.0529,57.1655,108.2706],[27.0447,57.1659,117.8328],[27.043,57.157,101.4733],[27.0347,57.1575,106.1703],[27.0313,57.1396,110.9928],[27.0231,57.1401,107.4032],[27.0214,57.1311,109.8712],[27.0131,57.1316,114.4958],[27.0123,57.1272,111.8208],[27.004,57.1276,111.5724],[27.0023,57.1187,111.685],[26.9941,57.1192,108.5179],[26.9932,57.1147,115.126],[26.985,57.1152,117.5534],[26.9833,57.1062,112.9057],[26.9751,57.1067,114.3886],[26.9742,57.1022,111.238],[26.966,57.1027,105.614],[26.9609,57.0759,107.1328],[26.9527,57.0764,108.0135],[26.951,57.0674,105.4361],[26.9428,57.0679,109.9155],[26.9419,57.0634,109.4108],[26.9337,57.0639,102.7608],[26.932,57.055,109.7884],[26.9238,57.0555,102.8708],[26.923,57.051,110.2006],[26.9147,57.0514,103.7797],[26.9139,57.047,113.7581],[26.8893,57.0484,98.7545],[26.8884,57.0439,97.5842],[26.8802,57.0444,100.2892],[26.8785,57.0354,96.8522],[26.8703,57.0359,98.4348],[26.8695,57.0314,97.6914],[26.8613,57.0319,111.0435],[26.8596,57.023,95.6989],[26.8514,57.0234,101.0205],[26.8497,57.0145,104.4289],[26.8579,57.014,100.2358],[26.8538,56.9917,99.1004],[26.8702,56.9908,104.4131],[26.8693,56.9863,104.3852],[26.8775,56.9858,106.9877],[26.8767,56.9814,99.6124],[26.8849,56.9809,97.4822],[26.8857,56.9854,102.3185],[26.9021,56.9844,96.4852],[26.903,56.9889,96.2881],[26.9112,56.9884,97.9622],[26.9103,56.984,103.4077],[26.9349,56.9826,110.203],[26.9316,56.9647,96.8603],[26.9234,56.9652,102.2254],[26.9217,56.9562,98.2293],[26.9135,56.9567,101.0376],[26.911,56.9433,93.4601],[26.9192,56.9428,93.0196],[26.9183,56.9384,93.133],[26.9429,56.937,96.196],[26.9421,56.9325,106.5279],[26.9666,56.9311,95.288],[26.9658,56.9266,96.3666],[26.974,56.9262,94.8498],[26.9714,56.9128,92.7594],[26.9796,56.9123,94.2222],[26.9771,56.8989,96.1465],[26.9853,56.8984,95.8031],[26.9827,56.885,95.8655],[26.9909,56.8846,95.6809],[26.9901,56.8801,100.8913],[26.9982,56.8796,97.4348],[26.9957,56.8662,96.3553],[26.9875,56.8667,92.1062],[26.9858,56.8578,92.3376],[26.9777,56.8582,91.9394],[26.9768,56.8538,92.3896],[26.9686,56.8542,92.5758],[26.9678,56.8498,92.7544],[26.9596,56.8502,92.1135],[26.9588,56.8458,92.0146],[26.9506,56.8462,92.5376],[26.9489,56.8373,92.1105],[26.9326,56.8382,93.1069],[26.9318,56.8338,93.1201],[26.9236,56.8342,93.0957],[26.9219,56.8253,96.0143],[26.9138,56.8258,92.8915],[26.9112,56.8124,91.788],[26.9031,56.8128,91.1522],[26.9022,56.8084,91.0359],[26.8941,56.8088,90.5],[26.8924,56.7999,90.5],[26.8843,56.8004,90.7871],[26.8826,56.7914,90.5],[26.8744,56.7919,91.3704],[26.8728,56.783,90.8294],[26.8646,56.7834,90.9471],[26.863,56.7745,90.5],[26.8548,56.7749,90.5],[26.8532,56.766,90.5],[26.845,56.7665,90.5],[26.8434,56.7575,90.5],[26.8352,56.758,90.5],[26.8344,56.7535,91.2823],[26.8262,56.754,91.6149],[26.8254,56.7495,90.5],[26.8173,56.75,90.5],[26.8164,56.7455,90.5],[26.8083,56.746,90.5],[26.8075,56.7415,90.5],[26.7993,56.742,90.5],[26.7985,56.7375,90.5],[26.7903,56.7379,90.6771],[26.7895,56.7335,90.7106],[26.7814,56.7339,90.8393],[26.7806,56.7295,90.7152],[26.7724,56.7299,91.8084],[26.7716,56.7255,91.9422],[26.7797,56.725,90.5],[26.7789,56.7205,90.5],[26.7708,56.721,92.0672],[26.7692,56.712,92.054],[26.7773,56.7116,91.3992],[26.7781,56.7161,91.8617],[26.8025,56.7147,90.7046],[26.8009,56.7058,95.0401],[26.7928,56.7062,92.8114],[26.7903,56.6928,95.5755],[26.7822,56.6933,95.8534],[26.7805,56.6843,107.0576],[26.7724,56.6848,94.1043],[26.7716,56.6803,96.4764],[26.7635,56.6808,100.2856],[26.7618,56.6718,97.4915],[26.7781,56.6709,99.5325],[26.7765,56.662,93.6306],[26.7846,56.6615,97.9665],[26.783,56.6526,96.129],[26.7911,56.6521,99.0422],[26.7903,56.6477,95.2956],[26.7822,56.6481,97.8437],[26.7813,56.6437,100.9325],[26.7732,56.6441,98.0097],[26.7716,56.6352,106.6767],[26.7797,56.6347,99.9504],[26.7773,56.6213,97.53],[26.7935,56.6204,100.742],[26.7927,56.6159,102.8408],[26.8008,56.6155,100.0633],[26.8,56.611,100.3287],[26.7838,56.6119,99.2948],[26.7829,56.6075,99.2881],[26.7748,56.6079,105.1773],[26.774,56.6034,101.996],[26.7659,56.6039,99.6687],[26.7651,56.5994,102.2213],[26.7407,56.6008,108.6791],[26.7375,56.5829,104.8893],[26.7294,56.5834,106.5427],[26.7278,56.5744,118.9274],[26.744,56.5735,104.7576],[26.7432,56.5691,109.8111],[26.7594,56.5681,114.6907],[26.7586,56.5637,109.5804],[26.7505,56.5641,126.5933],[26.7465,56.5418,111.7276],[26.7383,56.5422,112.2346],[26.7375,56.5378,109.8677],[26.7294,56.5382,123.6423],[26.731,56.5472,109.6299],[26.6905,56.5494,107.2096],[26.6824,56.5499,108.9656],[26.6816,56.5454,108.525],[26.6329,56.5481,110.4411],[26.6306,56.5347,112.6506],[26.6225,56.5351,114.4074],[26.6209,56.5262,120.4258],[26.6128,56.5266,112.5959],[26.6088,56.5043,116.2953],[26.6169,56.5038,109.023],[26.6177,56.5083,107.4015],[26.6258,56.5079,121.7328],[26.6234,56.4944,105.4019],[26.5668,56.4976,112.207],[26.566,56.4931,111.5553],[26.5579,56.4935,110.9822],[26.5594,56.5025,110.796],[26.5189,56.5047,111.6257],[26.5197,56.5091,109.9622],[26.4873,56.5109,110.4566],[26.4865,56.5064,120.4977],[26.4784,56.5068,129.1464],[26.4777,56.5024,117.9502],[26.4696,56.5028,119.0473],[26.468,56.4939,110.5886],[26.4599,56.4943,107.8546],[26.4584,56.4854,105.8242],[26.4503,56.4858,110.7975],[26.4495,56.4813,105.4418],[26.4333,56.4822,112.8191],[26.4325,56.4777,114.9981],[26.4244,56.4782,114.7746],[26.4237,56.4737,115.5724],[26.4156,56.4741,115.9229],[26.4148,56.4696,110.6289],[26.4067,56.4701,119.3353],[26.406,56.4656,119.1952],[26.3979,56.466,122.127],[26.3971,56.4616,107.0521],[26.3728,56.4628,110.5681],[26.3759,56.4807,98.0908],[26.3678,56.4812,98.1095],[26.3685,56.4856,100.451],[26.3604,56.4861,102.6097],[26.3612,56.4905,104.5606],[26.3531,56.491,99.4365],[26.3539,56.4954,99.4077],[26.3458,56.4959,107.4073],[26.3465,56.5003,104.1882],[26.3303,56.5012,100.1191],[26.3311,56.5057,98.0977],[26.323,56.5061,104.9313],[26.3252,56.5195,113.4122],[26.3171,56.5199,96.5625],[26.3179,56.5244,102.9387],[26.3017,56.5252,92.9798],[26.3024,56.5297,93.7405],[26.2781,56.531,95.8111],[26.2751,56.5131,94.2831],[26.267,56.5135,91.829],[26.2662,56.509,92.0722],[26.25,56.5099,91.6793],[26.2493,56.5054,91.4909],[26.2412,56.5058,93.994],[26.239,56.4924,90.6184],[26.2227,56.4933,90.928],[26.2213,56.4843,89.3564],[26.2132,56.4847,88.8891],[26.2124,56.4803,89.9858],[26.2043,56.4807,88.0157],[26.2021,56.4673,106.9118],[26.194,56.4677,100.1632],[26.1925,56.4587,86.4684],[26.1844,56.4591,86.5685],[26.183,56.4502,89.3588],[26.1749,56.4506,87.8516],[26.1734,56.4417,92.1678],[26.1653,56.4421,88.6465],[26.1638,56.4331,97.5114],[26.1396,56.4344,89.325],[26.1388,56.4299,92.9759],[26.1307,56.4303,99.7713],[26.13,56.4258,103.8675],[26.1138,56.4267,94.5242],[26.1131,56.4222,99.1499],[26.105,56.4226,99.0408],[26.1043,56.4181,98.7415],[26.0962,56.4185,91.5779],[26.0948,56.4096,89.9264],[26.1109,56.4088,96.8007],[26.1087,56.3954,100.2981],[26.1249,56.3945,80.0],[26.1242,56.3901,94.3013],[26.1322,56.3896,91.5303],[26.1315,56.3852,90.6389],[26.1477,56.3843,80.7563],[26.1447,56.3665,96.0723],[26.1528,56.366,87.3095],[26.1499,56.3481,91.1447],[26.158,56.3477,90.4252],[26.1558,56.3343,91.6387],[26.1638,56.3339,87.3911],[26.1609,56.316,102.6271],[26.169,56.3156,87.8801],[26.166,56.2977,96.3934],[26.1741,56.2973,90.7321],[26.1726,56.2883,95.8896],[26.1807,56.2879,87.5956],[26.1792,56.279,92.3598],[26.1953,56.2781,92.7072],[26.1946,56.2737,91.6658],[26.1865,56.2741,92.0105],[26.1851,56.2651,91.4731],[26.177,56.2656,96.1183],[26.1763,56.2611,100.1743],[26.1682,56.2615,96.2868],[26.1646,56.2391,99.787],[26.1726,56.2387,86.8792],[26.1719,56.2342,96.573],[26.1799,56.2338,82.9393],[26.1792,56.2294,93.7282],[26.1873,56.2289,82.0],[26.1865,56.2245,94.1656],[26.2187,56.2228,90.8302],[26.218,56.2183,82.0],[26.2341,56.2175,86.2683],[26.2333,56.213,88.7564],[26.2494,56.2122,91.0596],[26.2487,56.2077,89.6601],[26.2647,56.2069,87.4587],[26.2625,56.1934,92.2598],[26.2706,56.193,89.5586],[26.2698,56.1886,97.2846],[26.2778,56.1881,83.2152],[26.2771,56.1837,94.5348],[26.2932,56.1828,93.1913],[26.2924,56.1783,98.7521],[26.3005,56.1779,82.0],[26.2997,56.1734,88.9274],[26.3077,56.173,83.3534],[26.3063,56.1641,89.2672],[26.3143,56.1637,91.371],[26.3128,56.1547,96.0395],[26.3208,56.1543,87.2311],[26.3193,56.1453,91.8318],[26.3113,56.1458,103.8559],[26.312,56.1502,105.7816],[26.304,56.1507,116.1906],[26.3055,56.1596,86.5831],[26.2894,56.1605,88.7475],[26.2902,56.1649,88.4217],[26.2661,56.1662,95.2551],[26.2654,56.1617,95.3941],[26.2573,56.1621,95.4325],[26.2559,56.1532,95.6194],[26.2478,56.1536,97.8619],[26.25,56.167,106.6627],[26.242,56.1675,109.22],[26.2427,56.1719,113.3781],[26.2347,56.1723,104.6991],[26.2355,56.1768,99.7594],[26.2033,56.1785,103.1301],[26.2026,56.174,109.1915],[26.1945,56.1744,98.892],[26.1938,56.17,108.4467],[26.1858,56.1704,96.7481],[26.1843,56.1614,105.0546],[26.1763,56.1618,111.4554],[26.1756,56.1574,115.5299],[26.1675,56.1578,110.6124],[26.1668,56.1533,107.9023],[26.1588,56.1537,111.1772],[26.158,56.1493,113.0237],[26.15,56.1497,109.9874],[26.1493,56.1452,109.6978],[26.1413,56.1456,108.4755],[26.1405,56.1411,107.6196],[26.1325,56.1415,102.6786],[26.1311,56.1326,95.5611],[26.1391,56.1322,121.7525],[26.1384,56.1277,100.9809],[26.1464,56.1273,114.8993],[26.1435,56.1094,103.123],[26.1355,56.1098,105.215],[26.1347,56.1053,103.3478],[26.1107,56.1066,99.808],[26.1121,56.1155,91.7169],[26.0961,56.1163,90.5912],[26.0954,56.1119,112.0435],[26.0873,56.1123,105.6807],[26.0838,56.0899,120.6056],[26.0757,56.0903,124.6329],[26.075,56.0858,125.9534],[26.059,56.0867,145.2398],[26.0576,56.0777,138.2653],[26.0415,56.0785,140.8685],[26.0408,56.0741,141.1483],[26.0328,56.0745,135.3213],[26.0342,56.0834,143.6927],[26.0262,56.0838,141.1032],[26.0269,56.0883,139.8363],[26.0189,56.0887,142.6237],[26.0196,56.0932,134.3616],[26.0036,56.094,131.0342],[26.0043,56.0984,137.3207],[25.9963,56.0988,125.7728],[25.9956,56.0944,130.1582],[25.9875,56.0948,135.0673],[25.9868,56.0903,135.1968],[25.9788,56.0907,136.3172],[25.9781,56.0862,135.5357],[25.9701,56.0866,139.5878],[25.9694,56.0822,140.4496],[25.9614,56.0826,158.13],[25.96,56.0736,146.6631],[25.952,56.074,137.3396],[25.9513,56.0695,134.3125],[25.9272,56.0707,139.3134],[25.9293,56.0842,146.5917],[25.9213,56.0846,133.6107],[25.922,56.089,138.2891],[25.914,56.0894,133.4282],[25.9147,56.0939,135.2058],[25.9067,56.0943,137.7099],[25.9074,56.0988,139.5281],[25.8993,56.0992,123.5639],[25.9007,56.1081,139.9449],[25.8767,56.1093,121.0523],[25.8774,56.1138,117.0932],[25.8693,56.1142,131.1278],[25.87,56.1187,116.1056],[25.854,56.1194,127.2409],[25.8547,56.1239,126.3922],[25.8405,56.1246,112.3924],[25.8388,56.1262,118.432],[25.8393,56.1292,121.8434],[25.8313,56.1296,120.5279],[25.8306,56.1251,102.582],[25.836,56.1248,129.779],[25.8382,56.1222,116.774],[25.8372,56.1157,103.9175],[25.8453,56.1154,95.0],[25.8446,56.1109,123.0311],[25.8526,56.1105,116.1487],[25.8512,56.1015,124.3741],[25.8592,56.1011,125.4131],[25.8585,56.0967,131.7167],[25.8746,56.0959,142.0957],[25.8739,56.0914,133.1563],[25.8659,56.0918,123.4042],[25.8652,56.0873,135.7817],[25.8491,56.0881,136.0485],[25.8485,56.0836,133.6718],[25.8404,56.084,133.069],[25.837,56.0616,129.1917],[25.821,56.0624,139.1084],[25.8203,56.058,128.5228],[25.8123,56.0583,126.3802],[25.8116,56.0539,129.2021],[25.8196,56.0535,134.3707],[25.8189,56.049,125.4954],[25.8269,56.0486,136.22],[25.8262,56.0441,133.7876],[25.8342,56.0437,129.1608],[25.8336,56.0393,130.9009],[25.8416,56.0389,130.0963],[25.8409,56.0344,127.48],[25.8489,56.034,128.0003],[25.8475,56.0251,129.335],[25.8555,56.0247,124.023],[25.8541,56.0157,127.6712],[25.8621,56.0153,136.5257],[25.8601,56.0019,133.4771],[25.9321,55.9983,131.6124],[25.9314,55.993899999999996,133.543],[25.9554,55.9927,131.5806],[25.9547,55.9882,126.9857],[25.9707,55.9874,137.0657],[25.97,55.9829,131.5907],[25.9859,55.9821,138.2869],[25.9852,55.9776,143.4903],[26.0012,55.9768,148.7632],[26.0005,55.9724,134.1217],[26.0165,55.9715,146.7595],[26.0158,55.9671,150.731],[26.0238,55.9667,142.1243],[26.0231,55.9622,126.8169],[26.0311,55.9618,129.128],[26.0304,55.9573,136.5998],[26.0384,55.9569,145.2993],[26.0377,55.9524,144.3676],[26.0456,55.952,141.1935],[26.0449,55.9476,136.0061],[26.0529,55.9471,135.3677],[26.0515,55.9382,137.5251],[26.0595,55.9378,140.7826],[26.0588,55.9333,142.5554],[26.0668,55.9329,141.7593],[26.066,55.9284,140.7283],[26.074,55.928,140.5034],[26.0733,55.9235,156.7212],[26.0813,55.9231,170.7465],[26.0799,55.9142,179.1842],[26.0879,55.9138,177.4214],[26.0871,55.9093,179.9948],[26.0951,55.9089,180.185],[26.0944,55.9044,177.6992],[26.1024,55.904,173.122],[26.1017,55.8995,168.8674],[26.1096,55.8991,165.1696],[26.1089,55.8947,158.3341],[26.1169,55.8942,149.1563],[26.1162,55.8898,155.5108],[26.1321,55.889,136.4155],[26.1314,55.8845,143.4223],[26.1394,55.8841,154.9875],[26.1387,55.8796,143.0198],[26.1546,55.8788,141.1671],[26.1539,55.8743,143.9561],[26.1619,55.8739,143.0827],[26.1611,55.8694,148.5755],[26.1771,55.8686,141.7536],[26.1764,55.8641,141.2858],[26.1923,55.8633,153.9751],[26.1916,55.8588,151.9476],[26.2075,55.858,156.5197],[26.2068,55.8535,153.5322],[26.2147,55.8531,158.4196],[26.214,55.8486,150.2152],[26.222,55.8482,155.0176],[26.2205,55.8392,151.9142],[26.2285,55.8388,165.6987],[26.2278,55.8343,154.8981],[26.2357,55.8339,153.3851],[26.2335,55.8205,156.6861],[26.2415,55.8201,160.0838],[26.2393,55.8067,180.5889],[26.2473,55.8063,168.0384],[26.2451,55.7928,163.3643],[26.253,55.7924,147.1632],[26.2516,55.7835,149.4046],[26.2595,55.783,135.5698],[26.2588,55.7786,139.6522],[26.2667,55.7782,140.4655],[26.2653,55.7692,141.1565],[26.2732,55.7688,139.9409],[26.2725,55.7643,158.793],[26.2804,55.7639,151.3741],[26.2797,55.7594,138.3112],[26.2877,55.759,125.848],[26.2869,55.7545,132.6491],[26.2949,55.7541,122.5],[26.2941,55.7496,122.5],[26.31,55.7488,141.6644],[26.3093,55.7443,129.921],[26.349,55.7422,157.2874],[26.3483,55.7377,142.8221],[26.3562,55.7373,145.4508],[26.3555,55.7328,142.8372],[26.3634,55.7324,142.1246],[26.3619,55.7234,144.3049],[26.3699,55.723,154.3884],[26.3691,55.7185,153.5472],[26.3771,55.7181,156.7053],[26.3748,55.7047,165.4202],[26.4621,55.7,136.3419],[26.4613,55.6955,140.3183],[26.4772,55.6946,131.5571],[26.4764,55.6901,135.981],[26.4844,55.6897,134.828],[26.4836,55.6852,142.2231],[26.5074,55.6839,138.6783],[26.5066,55.6795,142.6347],[26.5225,55.6786,141.4228],[26.5217,55.6741,141.603],[26.5376,55.6732,149.6361],[26.5368,55.6688,151.9641],[26.5606,55.6674,162.2448],[26.5614,55.6719,153.4151],[26.6168,55.6688,152.6842],[26.6171,55.6703,152.6842],[26.6384,55.6637,151.5847],[26.6398,55.6743,153.8636],[26.6437,55.675,153.3536],[26.6447,55.6796,160.5135],[26.65,55.6873,153.3521],[26.6595,55.6929,167.0739],[26.6595,55.6955,168.2947],[26.655,55.6953,168.4336],[26.6644,55.6982,157.6524],[26.6924,55.6957,147.3801],[26.7253,55.696,145.0],[26.7495,55.6757,155.6207],[26.778,55.6736,167.6826],[26.7876,55.6713,163.6523],[26.792,55.6789,162.6009],[26.8057,55.6893,174.2112],[26.8056,55.6919,163.9498],[26.8245,55.6922,167.5085],[26.8336,55.6975,161.1295],[26.8524,55.7004,169.0729],[26.8711,55.7059,160.4149],[26.8818,55.7194,181.5522],[26.8834,55.7278,178.4341],[26.9104,55.745,169.9997],[26.9058,55.745,168.4702],[26.9063,55.7477,171.7573],[26.9111,55.7478,165.6697],[26.9066,55.7504,157.5952],[26.9221,55.7638,176.777],[26.9331,55.7799,161.2792],[26.9379,55.7799,155.9956],[26.9382,55.7826,160.1611],[26.9477,55.7828,162.2355],[26.9522,55.7802,168.5054],[26.9617,55.7804,174.5529],[26.9619,55.7831,176.8076],[26.9669,55.7858,183.4376],[26.9672,55.7884,182.297],[26.9822,55.7966,163.6984],[26.9827,55.8019,175.8152],[26.9877,55.8047,168.7597],[26.9972,55.8048,163.0333],[27.0025,55.8102,166.5301],[27.012,55.8104,157.054],[27.022,55.8159,160.3289],[27.0268,55.816,159.3566],[27.027,55.8186,159.9908],[27.032,55.8213,147.0388],[27.0365,55.8188,150.5953],[27.0413,55.8189,144.7082],[27.041,55.8162,147.3607],[27.0458,55.8163,140.9478],[27.0455,55.8137,146.709],[27.0505,55.8164,138.16],[27.0508,55.8191,134.9287],[27.0555,55.8192,133.5],[27.0558,55.8218,135.0718],[27.0843,55.8224,139.12],[27.0981,55.8175,143.2474],[27.1078,55.8203,135.9104],[27.1181,55.8284,138.3919],[27.1188,55.8363,148.109],[27.1336,55.8418,138.8841],[27.1431,55.842,145.8872],[27.1481,55.8447,135.4835],[27.1526,55.8422,135.2403],[27.1621,55.8422,137.5774],[27.1671,55.845,139.6915],[27.1715,55.8422,150.0287],[27.1763,55.8423,149.0636],[27.176,55.8395,144.0593],[27.1849,55.8341,153.4844],[27.1844,55.8287,155.4344],[27.1894,55.8314,151.7627],[27.1891,55.8287,157.0938],[27.1986,55.8287,162.5434],[27.203,55.826,169.3929],[27.2125,55.8261,171.1275],[27.2122,55.8234,166.4865],[27.2169,55.8234,177.4852],[27.2164,55.8179,162.3309],[27.2374,55.8038,166.0646],[27.2455,55.8004,154.3494],[27.2492,55.7973,140.1039],[27.2487,55.7954,155.8561],[27.2529,55.7941,155.8333],[27.2524,55.7922,148.8466],[27.2618,55.7936,132.3152],[27.2839,55.791,162.757],[27.2887,55.7919,160.7632],[27.3124,55.7904,163.3019],[27.3132,55.7949,151.0797],[27.3291,55.7939,154.9106],[27.33,55.7984,138.1284],[27.3458,55.7974,158.731],[27.3467,55.8018,144.4514],[27.3546,55.8014,164.7421],[27.3555,55.8058,151.6784],[27.3634,55.8053,127.6321],[27.3643,55.8098,114.7305],[27.3723,55.8093,98.9108],[27.3731,55.8138,107.7822],[27.3923,55.806399999999996,109.7134],[27.4013,55.8062,108.8368],[27.4036,55.8053,109.6419],[27.403199999999998,55.8028,96.5],[27.4119,55.8023,112.9304],[27.4178,55.8001,100.7941],[27.4182,55.7974,101.6271],[27.4579,55.7949,113.3613],[27.457,55.7904,117.5156],[27.4729,55.7894,97.5]],
[[26.3154,56.1216,88.5648],[26.3149,56.1185,89.7882],[26.3068,56.118899999999996,107.6655],[26.3083,56.1279,110.8461],[26.3003,56.1283,97.3205],[26.301,56.1328,99.2044],[26.3091,56.1324,108.3409],[26.3106,56.1413,97.8571],[26.3186,56.1409,89.2751],[26.3154,56.1216,88.5648]],
[[26.3206,56.1047,92.9706],[26.3126,56.1051,107.2757],[26.3141,56.114,105.3918],[26.3221,56.1136,88.9748],[26.3206,56.1047,92.9706]]]]}
,"properties": {"GID_1": "LVA.2_1","GID_0": "LVA","country": "Latvia","province": "Latgale","VARNAME_1": "NA","NL_NAME_1": "NA","TYPE_1": "Province","ENGTYPE_1": "Province","CC_1": "NA","HASC_1": "L","ISO_1": "NA","name": "Latgale.province","area_km2": 14645.13,"hist_schema_id": "Elevation0-9000","hist_area_km2": {"75": 95.06,"100": 4022.8,"125": 3474.53,"150": 3657.74,"175": 2780.31,"200": 528.33,"225": 74.7,"250": 11.12,"275": 0.53}}}