{"type": "Feature","id": "1091","bbox": [22.18813,57.00838,23.08038,57.50273],"geometry": {"type": "Polygon","coordinates": [[[22.70515,57.43643,38.4647],[22.67772,57.457,34.5069],[22.69372,57.48215,22.8205],[22.62513,57.50273,27.636],[22.5474,57.49816,43.4194],[22.50396,57.46158,84.9192],[22.47653,57.41357,56.9347],[22.42394,57.42042,72.0134],[22.38051,57.41128,65.4958],[22.3485,57.41128,66.098],[22.32563,57.43414,70.5617],[22.2822,57.42728,68.1352],[22.25957,57.39795,34.2986],[22.27671,57.38725,38.6534],[22.28213,57.38136,35.3435],[22.28601,57.35115,49.1367],[22.28601,57.33428,42.5846],[22.2949,57.32146,39.799],[22.30885,57.28885,42.8119],[22.3042,57.28648,42.1182],[22.30141,57.27645,40.6607],[22.29707,57.27113,35.1208],[22.27376,57.26503,38.2071],[22.23309,57.24338,36.301],[22.19403,57.21237,20.0],[22.18813,57.19873,20.3789],[22.1903,57.19532,37.9426],[22.2041,57.19082,31.2662],[22.20643,57.17785,21.8564],[22.23469,57.17054,43.456],[22.24183,57.16669,42.8637],[22.24989,57.15527,45.0365],[22.26276,57.14501,45.689],[22.298,57.12876,64.9172],[22.32761,57.12042,73.6194],[22.3489,57.11011,68.1714],[22.35417,57.10266,69.6127],[22.36301,57.07874,25.5427],[22.35929,57.05647,63.7952],[22.3596,57.05145,61.5513],[22.3627,57.04241,68.9556],[22.37262,57.03577,74.0504],[22.38239,57.01967,69.1375],[22.41267,57.01476,74.807],[22.48,57.01776,82.9951],[22.50822,57.01383,98.5715],[22.55958,57.00838,93.6664],[22.59142,57.02239,51.2054],[22.63581,57.01585,38.0652],[22.64945,57.04166,85.8958],[22.64154,57.09473,95.7761],[22.6696,57.0977,91.9506],[22.76086,57.11233,73.2401],[22.79327,57.12602,82.9903],[22.802,57.13135,103.468],[22.80804,57.13662,94.5122],[22.8313,57.14008,76.9429],[22.91124,57.13718,55.8678],[22.93093,57.14457,32.2313],[22.94147,57.15245,32.4537],[22.94674,57.16034,26.9918],[22.94891,57.16788,36.3057],[22.96726,57.18354,26.2171],[22.97749,57.18705,25.1756],[23.03987,57.2102,27.6922],[23.08038,57.23847,-0.3776],[23.06181,57.2581,0.4279],[23.05495,57.28325,4.1417],[23.01837,57.29011,20.6172],[22.95436,57.29697,22.2817],[22.92006,57.33355,21.6638],[22.96807,57.35184,16.4544],[23.00694,57.36784,25.8022],[23.03142,57.39448,0.0],[22.99459,57.41189,0.0],[22.94978,57.40213,10.7479],[22.93378,57.37699,23.4943],[22.89491,57.3747,24.9814],[22.8469,57.38842,26.4755],[22.82404,57.40899,32.5426],[22.74173,57.45929,15.4857],[22.70515,57.43643,38.4647]]]}
,"properties": {"ISO3166-1-Alpha-3": "LVA","country": "Latvia","fill": "#F00","name": "Talsi","area_km2": 1738.198,"hist_schema_id": "Elevation0-9000","hist_area_km2": {"0": 36.929,"25": 321.67,"50": 780.205,"75": 350.895,"100": 151.496,"125": 62.849,"150": 31.558,"175": 2.595}}}