{"type":"Feature","properties":{"GID_2":"LVA.1.4_1","GID_0":"LVA","country":"Latvia","GID_1":"LVA.1_1","province":"Kurzeme","NL_NAME_1":"NA","county":"Talsi","VARNAME_2":"Talsen","NL_NAME_2":"NA","TYPE_2":"Aprinki|rajoni","ENGTYPE_2":"District","CC_2":"NA","HASC_2":"LV.TA","name":"Talsi.county"},
"geometry":{"type": "MultiPolygon","coordinates": [[[[22.5086,57.0276,86.2348],[22.5251,57.0273,84.0507],[22.5248,57.0228,84.6307],[22.533,57.0226,85.879],[22.5327,57.0181,92.4574],[22.541,57.018,86.3018],[22.5407,57.0135,86.4157],[22.5736,57.0128,86.0876],[22.5739,57.0173,92.0862],[22.5822,57.0171,102.9461],[22.5825,57.0216,88.0935],[22.5743,57.0218,84.489],[22.5744,57.0234,80.9917],[22.5698,57.0263,82.6369],[22.5581,57.0266,82.9696],[22.5584,57.0311,80.9936],[22.5749,57.0307,75.6393],[22.5765,57.0262,81.1021],[22.5828,57.0261,80.4449],[22.5831,57.0306,49.624],[22.5914,57.0304,29.8426],[22.5917,57.0349,44.1324],[22.5999,57.0347,85.8807],[22.5996,57.0302,41.8216],[22.6079,57.03,64.5736],[22.6075,57.0255,56.3324],[22.6323,57.025,97.3847],[22.632,57.0205,82.8296],[22.6484,57.0202,35.8825],[22.6497,57.0381,83.0878],[22.658,57.0379,77.3605],[22.6586,57.0469,88.7967],[22.6504,57.0471,86.6687],[22.6517,57.0651,76.0441],[22.6434,57.0652,88.8076],[22.6437,57.0697,89.3477],[22.6355,57.0699,87.5812],[22.6377,57.1013,91.1229],[22.646,57.1012,91.2547],[22.6463,57.1056,97.9323],[22.6546,57.1055,94.8765],[22.6543,57.101,91.6334],[22.6625,57.1008,93.7437],[22.6628,57.1053,93.3192],[22.6711,57.1051,95.1403],[22.6714,57.1096,93.8509],[22.7127,57.1087,89.9083],[22.7131,57.1132,83.5285],[22.7296,57.1128,83.5435],[22.7299,57.1173,83.8803],[22.7382,57.1171,81.3222],[22.7379,57.1126,77.7113],[22.7461,57.1124,73.7208],[22.7465,57.1169,82.7813],[22.7713,57.1164,84.9858],[22.7723,57.1298,88.8348],[22.7888,57.1295,103.9187],[22.7891,57.1339,107.4787],[22.7974,57.1338,104.3716],[22.7978,57.1382,113.5452],[22.806,57.1381,96.5309],[22.8067,57.147,119.9534],[22.815,57.1468,124.8837],[22.8146,57.1424,121.317],[22.8229,57.1422,108.4919],[22.8232,57.1467,112.121],[22.8315,57.1465,103.7113],[22.8319,57.151,95.6111],[22.8484,57.1506,61.7279],[22.8481,57.1461,68.5085],[22.8563,57.1459,75.0535],[22.8646,57.1457,61.0693],[22.8649,57.1502,59.4443],[22.8732,57.15,62.7983],[22.8729,57.1455,68.1115],[22.8977,57.1449,47.681399999999996],[22.8973,57.1404,56.2312],[22.9304,57.1396,31.2132],[22.9322,57.1621,43.0362],[22.9405,57.1619,26.8021],[22.9408,57.1664,31.1004],[22.9491,57.1662,39.5974],[22.9495,57.1707,34.4426],[22.9577,57.1705,44.1284],[22.9581,57.175,42.267],[22.9664,57.1748,31.0667],[22.9671,57.1837,26.2171],[22.9754,57.1835,23.339],[22.9761,57.1925,32.6874],[22.9844,57.1923,23.0111],[22.9847,57.1968,34.7679],[22.993,57.1966,33.1172],[22.9934,57.2011,33.9394],[23.0017,57.2009,26.6751],[23.002,57.2054,27.1083],[23.0269,57.2048,13.1513],[23.0273,57.2092,22.5847],[23.0355,57.209,20.0271],[23.0359,57.2135,10.8058],[23.0525,57.2131,5.9916],[23.0532,57.2221,13.9044],[23.0615,57.2219,20.3813],[23.0623,57.2309,11.75],[23.0706,57.2307,4.4218],[23.0709,57.2351,0.3281],[23.0875,57.2347,0.2413],[23.0887,57.2482,-1.0],[23.0804,57.2484,-1.0],[23.0807,57.2529,-0.1072],[23.089,57.2527,0.2719],[23.0894,57.2572,-1.0],[23.1143,57.2565,-0.8051],[23.1151,57.2655,-0.3068],[23.1068,57.2657,-0.6235],[23.1091,57.2926,-0.0949],[23.1008,57.2929,8.5074],[23.1027,57.3153,3.175],[23.111,57.3151,9.5909],[23.1114,57.3196,23.2496],[23.1363,57.3189,15.8579],[23.1367,57.3234,2.0562],[23.1397,57.3233,2.0562],[23.1364,57.3262,0.0563],[23.1347,57.3249,2.8419],[23.1319,57.3285,11.1768],[23.1319,57.3307,2.8154],[23.1386,57.3335,0.374],[23.1303,57.3349,1.3525],[23.1353,57.3363,0.0],[23.1314,57.3393,-0.0072],[23.1286,57.3393,0.1059],[23.1286,57.3418,-0.0382],[23.1308,57.3418,0.012],[23.1292,57.3496,0.0389],[23.1269,57.3485,0.0257],[23.1269,57.3504,0.0389],[23.1303,57.3551,0.0],[23.1331,57.3563,0.2131],[23.1325,57.3601,0.1195],[23.1231,57.3665,0.6719],[23.0892,57.3668,9.6113],[23.0686,57.3729,2.215],[23.0281,57.3807,2.3798],[23.0086,57.3946,2.2188],[22.9881,57.3996,7.2774],[22.9431,57.4149,4.2098],[22.9158,57.4304,7.8915],[22.9103,57.4368,5.5942],[22.9103,57.4412,0.2115],[22.9075,57.4449,4.167],[22.9008,57.4482,4.2777],[22.8997,57.451,0.0],[22.8969,57.4512,5.2991],[22.8881,57.4571,0.7998],[22.8708,57.4751,1.8787],[22.8542,57.4837,20.7065],[22.8475,57.489,2.1019],[22.8475,57.4915,0.0],[22.8253,57.4982,5.7361],[22.8142,57.5043,2.0125],[22.8103,57.5082,0.0],[22.8019,57.5099,7.0108],[22.7719,57.5218,7.9465],[22.7464,57.5288,3.4504],[22.6964,57.5488,0.0],[22.6647,57.5654,10.7005],[22.6275,57.591,3.2624],[22.6092,57.6079,12.9909],[22.5931,57.6287,15.7575],[22.5892,57.6374,0.0],[22.5869,57.639,0.0],[22.5875,57.6413,0.0],[22.5792,57.6582,0.0],[22.5747,57.6768,0.0],[22.5753,57.7038,0.0],[22.5792,57.7182,0.0],[22.5853,57.731,1.2829],[22.5908,57.7368,0.0],[22.5958,57.7457,3.5308],[22.6069,57.7571,0.0],[22.6058,57.759,0.0],[22.5808,57.7576,0.0],[22.5569,57.754,0.0],[22.5042,57.7424,0.0],[22.4553,57.7299,3.6799],[22.3175,57.6893,10.5713],[22.2167,57.6618,11.5136],[22.2159,57.6491,21.9078],[22.2243,57.6489,14.0625],[22.224,57.6444,15.9641],[22.2324,57.6443,16.4786],[22.2321,57.6397,20.4581],[22.2276,57.6387,21.451],[22.2251,57.6354,22.0387],[22.215,57.6356,21.3005],[22.2148,57.6311,20.8594],[22.2218,57.631,22.5446],[22.2184,57.6265,19.0018],[22.2145,57.6266,19.7689],[22.2142,57.6221,22.0337],[22.2226,57.622,32.2653],[22.2246,57.6264,22.9719],[22.2312,57.6263,31.0099],[22.2318,57.6353,18.1549],[22.2402,57.6351,39.2646],[22.2396,57.6262,37.3693],[22.248,57.626,39.7451],[22.2477,57.6215,41.5705],[22.2561,57.6214,34.4191],[22.2556,57.6124,61.9395],[22.2639,57.6122,61.3121],[22.2636,57.6077,59.5967],[22.2469,57.608,41.9803],[22.2466,57.6036,48.4088],[22.255,57.6034,58.5835],[22.2547,57.5989,56.0399],[22.2463,57.5991,49.2966],[22.2461,57.5946,48.0819],[22.2544,57.5944,53.4645],[22.2533,57.5765,50.4492],[22.2617,57.5763,63.3712],[22.2614,57.5718,64.0002],[22.2698,57.5717,60.1792],[22.2692,57.5627,46.4187],[22.2776,57.5625,56.2752],[22.2753,57.5266,52.0033],[22.2837,57.5265,64.4987],[22.2825,57.5085,43.6834],[22.2491,57.5091,44.9542],[22.2488,57.5046,44.8901],[22.2321,57.5049,40.9229],[22.2319,57.5004,44.0334],[22.2235,57.5006,42.1473],[22.2232,57.4961,41.0919],[22.2149,57.4963,35.8872],[22.2143,57.4873,27.1354],[22.206,57.4874,28.7149],[22.2057,57.4829,20.395],[22.1974,57.4831,24.0308],[22.1971,57.4786,30.5681],[22.1804,57.4789,26.3478],[22.1807,57.4834,24.4218],[22.1723,57.4835,27.7052],[22.1715,57.4701,26.1583],[22.1965,57.4696,30.5338],[22.1963,57.4651,26.5653],[22.1879,57.4653,33.3678],[22.1877,57.4608,31.4184],[22.1793,57.4609,26.2958],[22.179,57.4564,26.6432],[22.1707,57.4566,21.3944],[22.1704,57.4521,29.7478],[22.1621,57.4522,29.2477],[22.1618,57.4478,30.0798],[22.1535,57.4479,24.2235],[22.153199999999998,57.4434,24.995],[22.1449,57.4436,29.3747],[22.1446,57.4391,33.4799],[22.1279,57.4394,36.8574],[22.1277,57.4349,40.8289],[22.0943,57.4354,32.8723],[22.094,57.4309,31.6826],[22.0857,57.4311,29.6205],[22.0855,57.4266,26.1434],[22.1021,57.4263,26.8031],[22.1019,57.4218,32.3291],[22.1102,57.4217,28.5187],[22.1099,57.4172,32.2687],[22.1183,57.417,38.0179],[22.118,57.4126,32.5945],[22.1263,57.4124,39.6829],[22.1261,57.4079,35.5178],[22.1677,57.4072,29.8737],[22.1675,57.4027,37.3288],[22.2008,57.4021,40.7239],[22.2005,57.3976,46.208],[22.2172,57.3973,39.5294],[22.2175,57.4018,38.3713],[22.2258,57.4017,37.2283],[22.2261,57.4062,42.3445],[22.2427,57.4059,36.589],[22.243,57.4104,34.7067],[22.2513,57.4102,39.4534],[22.2511,57.4057,37.7212],[22.2594,57.4056,39.6086],[22.2586,57.3921,34.5717],[22.2669,57.3919,36.6445],[22.2666,57.3874,36.198],[22.2916,57.387,43.7771],[22.2913,57.3825,45.0522],[22.283,57.3826,39.5383],[22.2824,57.3737,37.8497],[22.2907,57.3735,41.3329],[22.2899,57.36,51.1914],[22.2982,57.3599,36.7048],[22.2976,57.3509,40.3209],[22.2893,57.3511,44.1414],[22.2885,57.3376,50.0321],[22.2802,57.3377,49.0998],[22.2796,57.3288,38.5809],[22.2879,57.3286,38.8728],[22.2876,57.3241,38.5299],[22.3043,57.3238,38.5773],[22.3034,57.3103,37.7332],[22.3117,57.3102,38.0974],[22.3097,57.2788,33.0956],[22.318,57.2786,45.6997],[22.3175,57.2696,40.1278],[22.276,57.2704,34.3242],[22.2754,57.2614,36.5301],[22.2671,57.2616,38.4906],[22.2665,57.2526,25.837],[22.2582,57.2528,39.9213],[22.258,57.2483,31.6683],[22.2414,57.2486,46.0479],[22.2411,57.2441,32.5269],[22.2328,57.2442,38.6818],[22.2323,57.2352,32.0687],[22.2406,57.2351,31.2744],[22.2403,57.2306,30.3638],[22.232,57.2308,34.746],[22.2317,57.2263,44.2948],[22.2151,57.2266,33.8871],[22.2149,57.2221,35.8456],[22.2066,57.2222,20.0],[22.206,57.2132,42.6525],[22.1977,57.2134,20.1653],[22.1972,57.2044,45.0245],[22.2055,57.2043,35.4432],[22.2052,57.1998,43.3005],[22.1804,57.2002,20.3396],[22.1801,57.1957,31.8892],[22.2049,57.1953,31.2199],[22.2047,57.1908,31.2662],[22.213,57.1906,39.276],[22.2132,57.1951,43.2548],[22.2215,57.195,37.0555],[22.2212,57.1905,37.369],[22.2295,57.1903,42.7766],[22.2292,57.1859,38.4036],[22.2375,57.1857,46.371],[22.237,57.1767,33.5809],[22.2535,57.1764,35.0335],[22.253,57.1674,52.1031],[22.2447,57.1676,47.7139],[22.2442,57.1586,44.9631],[22.2524,57.1585,39.6026],[22.2519,57.1495,50.6137],[22.2602,57.1493,50.2822],[22.2599,57.1448,46.7646],[22.2764,57.1445,49.7804],[22.2759,57.1356,62.6335],[22.3007,57.1351,64.121],[22.3004,57.1306,62.196],[22.3087,57.1304,66.3497],[22.3084,57.126,56.4556],[22.3415,57.1253,51.5393],[22.3412,57.1208,67.6521],[22.3577,57.1205,72.8259],[22.3574,57.116,64.1171],[22.3657,57.1159,74.3228],[22.3654,57.1114,68.096],[22.3571,57.1115,73.1141],[22.3565,57.1026,78.7672],[22.3648,57.1024,75.2852],[22.3639,57.0889,60.3998],[22.3722,57.0888,71.3668],[22.3708,57.0663,68.4666],[22.3625,57.0665,65.0226],[22.3608,57.0395,65.7031],[22.3855,57.0391,72.8871],[22.3849,57.0301,69.4263],[22.4179,57.0294,75.8729],[22.4176,57.0249,76.5089],[22.4259,57.0248,79.5256],[22.4262,57.0293,76.5217],[22.4427,57.0289,91.8311],[22.4424,57.0245,75.0804],[22.4588,57.0241,77.3691],[22.4585,57.0196,79.6113],[22.4833,57.0191,80.9339],[22.4836,57.0236,79.525],[22.4918,57.0235,80.0023],[22.4921,57.028,76.4963],[22.5086,57.0276,86.2348]]]]}}