{"type":"Feature","properties":{"ISO3166-1-Alpha-3":"LVA","country":"Latvia","fill":"#F0F","id":"5750","name":"Livanu"},
"geometry":{"type": "Polygon","coordinates": [[[26.36256,56.45084,102.4926],[26.3531,56.47454,95.6211],[26.32328,56.49818,105.6595],[26.3208,56.50689,100.5944],[26.31569,56.51195,100.1503],[26.30917,56.51562,103.8765],[26.29042,56.51789,95.5],[26.25719,56.512,92.6068],[26.23285,56.49883,89.9715],[26.19947,56.47304,93.1731],[26.19125,56.45787,86.476],[26.15337,56.42927,92.2933],[26.08852,56.40643,80.7939],[26.10888,56.40586,89.3071],[26.14469,56.38925,86.2889],[26.15699,56.38033,85.5349],[26.16076,56.37227,88.8],[26.16288,56.36333,82.9054],[26.16381,56.34245,81.0],[26.16696,56.33718,81.0],[26.18107,56.3208,92.7717],[26.18427,56.31548,96.5728],[26.18319,56.29605,88.9444],[26.18427,56.29093,88.5331],[26.18691,56.28855,84.1496],[26.19171,56.2854,93.0681],[26.19621,56.28333,96.56],[26.19792,56.28411,98.8575],[26.19771,56.27589,86.0084],[26.19528,56.26876,90.5748],[26.19244,56.26261,86.0404],[26.19109,56.25739,88.9741],[26.18903,56.23473,92.0043],[26.19352,56.22608,86.8625],[26.20815,56.22267,88.6945],[26.21936,56.22168,89.9023],[26.2392,56.21745,98.4246],[26.24944,56.21647,102.1674],[26.26427,56.21078,97.7757],[26.3008,56.18334,110.881],[26.33543,56.18975,107.7326],[26.31172,56.22649,103.7033],[26.29311,56.28439,111.0218],[26.35308,56.27405,100.4944],[26.35514,56.31127,94.9848],[26.37996,56.31334,97.7498],[26.4027,56.28232,99.524],[26.44199,56.26578,99.3198],[26.51023,56.26785,106.5662],[26.56192,56.26785,109.2458],[26.60121,56.28232,110.8497],[26.59087,56.31954,110.0555],[26.57019,56.32161,106.3727],[26.51436,56.33402,103.379],[26.4606,56.35883,107.5927],[26.47921,56.39191,106.3317],[26.54124,56.37537,110.0877],[26.5764,56.43327,107.8766],[26.55985,56.43947,104.6421],[26.53711,56.44568,105.3004],[26.53711,56.46636,105.5681],[26.54053,56.48968,108.7601],[26.52906,56.49361,107.1946],[26.49898,56.49593,111.733],[26.47521,56.49407,117.4927],[26.458,56.4889,109.018],[26.4456,56.48265,118.8355],[26.43583,56.47593,115.3339],[26.41237,56.46531,111.7957],[26.36256,56.45084,102.4926]]]}}