{"type": "Feature","id": "5719","bbox": [21.04615,56.63523,21.4934,56.97363],"geometry": {"type": "Polygon","coordinates": [[[21.33175,56.97363,32.9796],[21.32824,56.97363,7.0318],[21.32822,56.97362,7.0318],[21.30014,56.95954,0.0],[21.28777,56.95551,0.0],[21.2776,56.94912,0.0],[21.24098,56.91828,0.0],[21.22291,56.9077,9.4961],[21.15675,56.88557,0.0],[21.14723,56.87641,21.5954],[21.0652,56.84634,0.0],[21.05274,56.82892,0.0],[21.05421,56.81196,5.8894],[21.06121,56.79413,12.3219],[21.0652,56.77432,20.7358],[21.05836,56.68867,4.3364],[21.04615,56.6562,4.6352],[21.05792,56.64376,2.7445],[21.12188,56.63523,13.5312],[21.15386,56.68214,23.8438],[21.21142,56.64589,42.142],[21.25833,56.65655,35.4964],[21.28818,56.68214,32.6657],[21.27325,56.70772,28.6919],[21.26046,56.7397,28.4825],[21.29244,56.75676,35.6616],[21.31589,56.7397,22.3042],[21.32442,56.75889,35.6004],[21.32016,56.80792,29.5375],[21.34574,56.82072,33.4684],[21.4097,56.83138,28.4813],[21.43955,56.8399,26.996],[21.43645,56.86759,35.9437],[21.46797,56.87891,37.6719],[21.47371,56.88759,20.3547],[21.4934,56.90381,26.9926],[21.4473,56.91208,18.4727],[21.40606,56.92345,31.9458],[21.39723,56.92939,36.5233],[21.39149,56.93448,28.2158],[21.39583,56.94242,29.283],[21.38477,56.95652,28.3966],[21.3626,56.9667,35.7397],[21.33175,56.97363,32.9796]]]}
,"properties": {"ISO3166-1-Alpha-3": "LVA","country": "Latvia","fill": "#00F","name": "Pavilostas","area_km2": 516.5706,"hist_schema_id": "Elevation0-9000","hist_area_km2": {"0": 73.2091,"25": 421.9764,"50": 21.3618,"75": 0.0232}}}