{"type":"Feature","properties":{"ISO3166-1-Alpha-3":"LVA","country":"Latvia","fill":"#FF0","id":"5799","name":"Raunas"},
"geometry":{"type": "MultiPolygon","coordinates": [[[[26.01297,57.28782,179.242],[25.99173,57.29002,194.3776],[25.9107,57.28674,194.5494],[25.90419,57.28844,202.322],[25.89132,57.28831,210.228],[25.88031,57.2863,222.0332],[25.76987,57.27871,223.197],[25.76068,57.25544,237.4173],[25.75285,57.24448,224.3035],[25.74502,57.21317,191.8239],[25.77164,57.19908,187.1159],[25.79825,57.20847,188.776],[25.81861,57.20691,187.6109],[25.84992,57.19595,175.9506],[25.86871,57.18499,180.6438],[25.89376,57.18499,174.2732],[25.94543,57.19125,182.8175],[25.98927,57.20691,188.9184],[26.01343,57.22106,197.0638],[26.00413,57.24384,178.4797],[26.00847,57.24674,174.6026],[26.01436,57.24987,171.0501],[26.04914,57.24999,183.4617],[26.0586,57.25129,166.1878],[26.0586,57.26529,177.6264],[26.04371,57.27997,183.6038],[26.02785,57.28165,184.4538],[26.01297,57.28782,179.242]]],
[[[25.70492,57.38378,161.5838],[25.71397,57.40099,145.2217],[25.6671,57.45251,62.0928],[25.65795,57.46461,59.9617],[25.64951,57.44019,71.1207],[25.62603,57.40575,75.6567],[25.60568,57.39635,75.4577],[25.60254,57.37756,86.1404],[25.57593,57.3807,69.2808],[25.54618,57.37756,78.2074],[25.51173,57.36034,73.7978],[25.5133,57.34625,101.5698],[25.53365,57.33842,94.7891],[25.54775,57.3212,142.6808],[25.55557,57.30554,156.3345],[25.57906,57.29615,179.3257],[25.59785,57.28519,191.5515],[25.60098,57.26484,193.1383],[25.63855,57.26484,220.4894],[25.66987,57.27423,198.9267],[25.70901,57.2664,214.3179],[25.74513,57.27511,239.9604],[25.73691,57.28467,223.2198],[25.73303,57.29661,206.8979],[25.73877,57.31307,217.3755],[25.7366,57.3194,212.9329],[25.74017,57.32642,216.8172],[25.75334,57.32968,221.0782],[25.75164,57.33769,225.1152],[25.72218,57.36131,201.5565],[25.70492,57.38378,161.5838]]]]}}