{"type": "Feature","id": "5741","bbox": [26.86005,56.86121,27.33232,57.1145],"geometry": {"type": "Polygon","coordinates": [[[27.04979,57.11183,102.1791],[27.0081,57.1145,120.4677],[26.99518,57.10515,113.519],[26.97906,57.09559,102.8118],[26.95317,57.06484,115.9289],[26.92955,57.0498,107.3176],[26.90196,57.03926,103.3492],[26.86051,57.01802,98.5601],[26.86842,57.0059,98.7575],[26.87121,57.00264,98.0789],[26.86005,56.98301,97.2314],[26.86981,56.97626,97.5138],[26.87818,56.97836,99.0221],[26.90258,56.97797,97.788],[26.91188,56.97384,101.6984],[26.91715,56.96934,106.0914],[26.91482,56.95787,96.3258],[26.9111,56.94771,93.4608],[26.91141,56.93932,93.5904],[26.92397,56.93172,92.639],[26.95394,56.92071,92.3242],[26.96247,56.91327,93.9331],[26.97115,56.89092,91.5047],[26.9851,56.87823,96.1748],[27.03612,56.88399,95.9443],[27.08397,56.87488,103.6153],[27.16599,56.86121,103.3015],[27.20017,56.86121,120.1046],[27.22523,56.89538,128.1849],[27.26624,56.91589,116.9993],[27.2913,56.92728,128.8084],[27.33232,56.93639,122.0426],[27.31409,56.97968,124.5582],[27.28675,56.97285,128.8648],[27.26168,56.97285,121.0579],[27.25485,56.99335,124.714],[27.28903,57.00019,128.7299],[27.31409,57.02525,126.6302],[27.32548,57.06171,118.8356],[27.30497,57.06626,121.6451],[27.2708,57.06398,119.8204],[27.19789,57.07766,112.707],[27.14776,57.08905,104.4204],[27.11815,57.08449,100.737],[27.09764,57.09133,113.9583],[27.09764,57.11411,114.0993],[27.04979,57.11183,102.1791]]]}
,"properties": {"ISO3166-1-Alpha-3": "LVA","country": "Latvia","fill": "#F00","name": "Rugaju","area_km2": 535.4198,"hist_schema_id": "Elevation0-9000","hist_area_km2": {"75": 0.0577,"100": 379.9011,"125": 153.069,"150": 2.392}}}