{"type":"Feature","properties":{"GID_2":"LVA.2.2_1","GID_0":"LVA","country":"Latvia","GID_1":"LVA.2_1","province":"Latgale","NL_NAME_1":"NA","county":"Daugavpils","VARNAME_2":"Dünaburg|Dvinsk","NL_NAME_2":"NA","TYPE_2":"Aprinki|rajoni","ENGTYPE_2":"District","CC_2":"NA","HASC_2":"LV.DG","name":"Daugavpils.county"},
"geometry":{"type": "MultiPolygon","coordinates": [[[[27.0075,55.8103,164.4188],[26.9962,55.8225,172.411],[26.9987,55.832,157.3339],[26.9907,55.8324,160.6684],[26.994,55.8503,142.3147],[26.986,55.8508,149.0831],[26.9876,55.8597,149.1164],[26.9956,55.8592,135.1356],[26.9981,55.8726,112.0767],[26.9662,55.8745,148.887],[26.9654,55.8701,95.0808],[26.9574,55.8705,133.095],[26.9583,55.875,147.0883],[26.9423,55.8759,117.1796],[26.9448,55.8893,141.5737],[26.9368,55.8898,127.7838],[26.9409,55.9121,134.259],[26.9488,55.9117,131.8476],[26.9496,55.9161,139.9412],[26.9576,55.9157,148.0313],[26.9592,55.9246,152.036],[26.9672,55.9241,152.2539],[26.9689,55.9331,154.5121],[26.9529,55.934,137.6595],[26.9537,55.9385,142.2769],[26.9457,55.9389,151.1252],[26.9474,55.9479,151.9011],[26.9554,55.9474,152.426],[26.9562,55.9519,158.7117],[26.9721,55.9509,162.0185],[26.9738,55.9599,173.859],[26.9658,55.9603,163.0314],[26.9666,55.9648,175.5732],[26.9506,55.9658,161.0339],[26.9531,55.9792,165.9616],[26.9451,55.9796,167.9885],[26.9484,55.9975,155.535],[26.9643,55.9966,152.9301],[26.9652,56.001,156.6733],[26.9412,56.0024,156.8488],[26.9428,56.0114,166.1818],[26.9588,56.0104,158.0495],[26.9596,56.0149,161.0146],[26.9756,56.014,167.7718],[26.9772,56.0229,158.7921],[26.9692,56.0234,149.6185],[26.9709,56.0323,145.1494],[26.9629,56.0328,163.0864],[26.9637,56.0372,146.7324],[26.9557,56.0377,148.207],[26.9574,56.0466,131.2796],[26.9653,56.0462,150.3321],[26.967,56.0551,167.5473],[26.975,56.0546,179.727],[26.9775,56.068,152.6239],[26.9374,56.0704,156.8082],[26.9391,56.0793,166.2049],[26.9311,56.0798,158.5305],[26.9319,56.0843,153.6903],[26.9239,56.0847,149.1431],[26.9255,56.0937,143.1351],[26.9175,56.0941,146.8324],[26.9191,56.1031,152.7545],[26.9111,56.1035,147.8747],[26.9119,56.108,164.5778],[26.9039,56.1084,158.7506],[26.9047,56.1129,159.3276],[26.8887,56.1138,160.0303],[26.8895,56.1183,159.687],[26.8975,56.1178,174.1187],[26.9008,56.1357,170.8492],[26.8607,56.138,163.3891],[26.8591,56.1291,157.2714],[26.8511,56.1296,153.2596],[26.8519,56.134,153.2063],[26.8439,56.1345,152.1356],[26.8447,56.139,150.0444],[26.8367,56.1394,147.5712],[26.8375,56.1439,153.5969],[26.8214,56.1448,144.5395],[26.8198,56.1359,149.1662],[26.8118,56.1363,145.0457],[26.811,56.1319,141.8482],[26.803,56.1323,138.8451],[26.8022,56.1278,141.9339],[26.7941,56.1283,142.1549],[26.7933,56.1238,148.8336],[26.7853,56.1243,150.6352],[26.7845,56.1198,145.4403],[26.7765,56.1203,146.9998],[26.7757,56.1158,143.4878],[26.7196,56.119,104.315],[26.7188,56.1145,106.6238],[26.7108,56.115,113.857],[26.7116,56.1194,103.268],[26.7036,56.1199,102.6425],[26.7052,56.1288,99.2563],[26.6971,56.1293,98.3824],[26.6995,56.1427,99.8684],[26.6434,56.1458,103.3296],[26.6418,56.1369,106.4987],[26.6338,56.1373,109.5825],[26.633,56.1328,103.6581],[26.625,56.1333,104.1435],[26.6257,56.1378,107.1692],[26.6177,56.1382,103.2534],[26.6185,56.1427,105.6852],[26.5864,56.1445,102.9043],[26.588,56.1534,102.3567],[26.5799,56.1538,107.2465],[26.5823,56.1672,102.487],[26.5742,56.1677,103.7106],[26.575,56.1722,101.6056],[26.567,56.1726,103.2319],[26.5678,56.1771,101.6227],[26.5597,56.1775,105.3914],[26.559,56.173,103.4986],[26.5509,56.1735,103.6496],[26.5471,56.1511,110.8312],[26.5551,56.1507,117.2581],[26.5535,56.1417,126.596],[26.5616,56.1413,112.696],[26.5608,56.1368,114.0776],[26.5287,56.1386,100.4371],[26.5279,56.1341,97.0925],[26.5199,56.1346,93.5],[26.5207,56.139,93.5],[26.5127,56.1395,102.1629],[26.5134,56.1439,107.7645],[26.5054,56.1444,105.0633],[26.5085,56.1623,114.8234],[26.5005,56.1627,106.232],[26.5028,56.1761,101.189],[26.4947,56.1765,101.3047],[26.4955,56.181,104.3394],[26.4875,56.1815,104.2869],[26.4882,56.1859,105.6937],[26.4802,56.1864,105.3927],[26.481,56.1908,105.5736],[26.4649,56.1917,100.8011],[26.4664,56.2006,103.7369],[26.4584,56.2011,102.5989],[26.4576,56.1966,100.6627],[26.4496,56.197,99.9186],[26.4488,56.1926,100.1165],[26.4408,56.193,103.3692],[26.44,56.1885,111.9257],[26.432,56.189,101.9504],[26.4312,56.1845,101.9453],[26.4152,56.1854,101.716],[26.4159,56.1898,102.2152],[26.4079,56.1903,108.9362],[26.4087,56.1947,101.6359],[26.4006,56.1952,112.3797],[26.4021,56.2041,106.9481],[26.3861,56.205,101.9668],[26.3868,56.2094,97.4379],[26.3788,56.2099,101.4321],[26.3795,56.2143,97.1096],[26.3635,56.2152,98.8183],[26.3627,56.2107,99.8454],[26.3547,56.2111,100.6724],[26.3539,56.2067,102.2482],[26.3459,56.2071,99.0],[26.3451,56.2026,103.7691],[26.3371,56.2031,114.6842],[26.3363,56.1986,121.2027],[26.3203,56.1994,123.133],[26.3195,56.195,113.2949],[26.3034,56.1958,101.7205],[26.3027,56.1913,110.8957],[26.2866,56.1922,90.3839],[26.2859,56.1877,89.6072],[26.2778,56.1881,83.2152],[26.2771,56.1837,94.5348],[26.2932,56.1828,93.1913],[26.2924,56.1783,98.7521],[26.3005,56.1779,82.0],[26.2997,56.1734,88.9274],[26.3077,56.173,83.3534],[26.3063,56.1641,89.2672],[26.3143,56.1637,91.371],[26.3128,56.1547,96.0395],[26.3208,56.1543,87.2311],[26.3193,56.1453,91.8318],[26.3113,56.1458,103.8559],[26.312,56.1502,105.7816],[26.304,56.1507,116.1906],[26.3055,56.1596,86.5831],[26.2894,56.1605,88.7475],[26.2902,56.1649,88.4217],[26.2661,56.1662,95.2551],[26.2654,56.1617,95.3941],[26.2573,56.1621,95.4325],[26.2559,56.1532,95.6194],[26.2478,56.1536,97.8619],[26.25,56.167,106.6627],[26.242,56.1675,109.22],[26.2427,56.1719,113.3781],[26.2347,56.1723,104.6991],[26.2355,56.1768,99.7594],[26.2033,56.1785,103.1301],[26.2026,56.174,109.1915],[26.1945,56.1744,98.892],[26.1938,56.17,108.4467],[26.1858,56.1704,96.7481],[26.1843,56.1614,105.0546],[26.1763,56.1618,111.4554],[26.1756,56.1574,115.5299],[26.1675,56.1578,110.6124],[26.1668,56.1533,107.9023],[26.1588,56.1537,111.1772],[26.158,56.1493,113.0237],[26.15,56.1497,109.9874],[26.1493,56.1452,109.6978],[26.1413,56.1456,108.4755],[26.1405,56.1411,107.6196],[26.1325,56.1415,102.6786],[26.1311,56.1326,95.5611],[26.1391,56.1322,121.7525],[26.1384,56.1277,100.9809],[26.1464,56.1273,114.8993],[26.1435,56.1094,103.123],[26.1355,56.1098,105.215],[26.1347,56.1053,103.3478],[26.1107,56.1066,99.808],[26.1121,56.1155,91.7169],[26.0961,56.1163,90.5912],[26.0954,56.1119,112.0435],[26.0873,56.1123,105.6807],[26.0838,56.0899,120.6056],[26.0757,56.0903,124.6329],[26.075,56.0858,125.9534],[26.059,56.0867,145.2398],[26.0576,56.0777,138.2653],[26.0415,56.0785,140.8685],[26.0408,56.0741,141.1483],[26.0328,56.0745,135.3213],[26.0342,56.0834,143.6927],[26.0262,56.0838,141.1032],[26.0269,56.0883,139.8363],[26.0189,56.0887,142.6237],[26.0196,56.0932,134.3616],[26.0036,56.094,131.0342],[26.0043,56.0984,137.3207],[25.9963,56.0988,125.7728],[25.9956,56.0944,130.1582],[25.9875,56.0948,135.0673],[25.9868,56.0903,135.1968],[25.9788,56.0907,136.3172],[25.9781,56.0862,135.5357],[25.9701,56.0866,139.5878],[25.9694,56.0822,140.4496],[25.9614,56.0826,158.13],[25.96,56.0736,146.6631],[25.952,56.074,137.3396],[25.9513,56.0695,134.3125],[25.9272,56.0707,139.3134],[25.9293,56.0842,146.5917],[25.9213,56.0846,133.6107],[25.922,56.089,138.2891],[25.914,56.0894,133.4282],[25.9147,56.0939,135.2058],[25.9067,56.0943,137.7099],[25.9074,56.0988,139.5281],[25.8993,56.0992,123.5639],[25.9007,56.1081,139.9449],[25.8767,56.1093,121.0523],[25.8774,56.1138,117.0932],[25.8693,56.1142,131.1278],[25.87,56.1187,116.1056],[25.854,56.1194,127.2409],[25.8547,56.1239,126.3922],[25.8405,56.1246,112.3924],[25.8388,56.1262,118.432],[25.8393,56.1292,121.8434],[25.8313,56.1296,120.5279],[25.8306,56.1251,102.582],[25.836,56.1248,129.779],[25.8382,56.1222,116.774],[25.8372,56.1157,103.9175],[25.8453,56.1154,95.0],[25.8446,56.1109,123.0311],[25.8526,56.1105,116.1487],[25.8512,56.1015,124.3741],[25.8592,56.1011,125.4131],[25.8585,56.0967,131.7167],[25.8746,56.0959,142.0957],[25.8739,56.0914,133.1563],[25.8659,56.0918,123.4042],[25.8652,56.0873,135.7817],[25.8491,56.0881,136.0485],[25.8485,56.0836,133.6718],[25.8404,56.084,133.069],[25.837,56.0616,129.1917],[25.821,56.0624,139.1084],[25.8203,56.058,128.5228],[25.8123,56.0583,126.3802],[25.8116,56.0539,129.2021],[25.8196,56.0535,134.3707],[25.8189,56.049,125.4954],[25.8269,56.0486,136.22],[25.8262,56.0441,133.7876],[25.8342,56.0437,129.1608],[25.8336,56.0393,130.9009],[25.8416,56.0389,130.0963],[25.8409,56.0344,127.48],[25.8489,56.034,128.0003],[25.8475,56.0251,129.335],[25.8555,56.0247,124.023],[25.8541,56.0157,127.6712],[25.8621,56.0153,136.5257],[25.8601,56.0019,133.4771],[25.9321,55.9983,131.6124],[25.9314,55.993899999999996,133.543],[25.9554,55.9927,131.5806],[25.9547,55.9882,126.9857],[25.9707,55.9874,137.0657],[25.97,55.9829,131.5907],[25.9859,55.9821,138.2869],[25.9852,55.9776,143.4903],[26.0012,55.9768,148.7632],[26.0005,55.9724,134.1217],[26.0165,55.9715,146.7595],[26.0158,55.9671,150.731],[26.0238,55.9667,142.1243],[26.0231,55.9622,126.8169],[26.0311,55.9618,129.128],[26.0304,55.9573,136.5998],[26.0384,55.9569,145.2993],[26.0377,55.9524,144.3676],[26.0456,55.952,141.1935],[26.0449,55.9476,136.0061],[26.0529,55.9471,135.3677],[26.0515,55.9382,137.5251],[26.0595,55.9378,140.7826],[26.0588,55.9333,142.5554],[26.0668,55.9329,141.7593],[26.066,55.9284,140.7283],[26.074,55.928,140.5034],[26.0733,55.9235,156.7212],[26.0813,55.9231,170.7465],[26.0799,55.9142,179.1842],[26.0879,55.9138,177.4214],[26.0871,55.9093,179.9948],[26.0951,55.9089,180.185],[26.0944,55.9044,177.6992],[26.1024,55.904,173.122],[26.1017,55.8995,168.8674],[26.1096,55.8991,165.1696],[26.1089,55.8947,158.3341],[26.1169,55.8942,149.1563],[26.1162,55.8898,155.5108],[26.1321,55.889,136.4155],[26.1314,55.8845,143.4223],[26.1394,55.8841,154.9875],[26.1387,55.8796,143.0198],[26.1546,55.8788,141.1671],[26.1539,55.8743,143.9561],[26.1619,55.8739,143.0827],[26.1611,55.8694,148.5755],[26.1771,55.8686,141.7536],[26.1764,55.8641,141.2858],[26.1923,55.8633,153.9751],[26.1916,55.8588,151.9476],[26.2075,55.858,156.5197],[26.2068,55.8535,153.5322],[26.2147,55.8531,158.4196],[26.214,55.8486,150.2152],[26.222,55.8482,155.0176],[26.2205,55.8392,151.9142],[26.2285,55.8388,165.6987],[26.2278,55.8343,154.8981],[26.2357,55.8339,153.3851],[26.2335,55.8205,156.6861],[26.2415,55.8201,160.0838],[26.2393,55.8067,180.5889],[26.2473,55.8063,168.0384],[26.2451,55.7928,163.3643],[26.253,55.7924,147.1632],[26.2516,55.7835,149.4046],[26.2595,55.783,135.5698],[26.2588,55.7786,139.6522],[26.2667,55.7782,140.4655],[26.2653,55.7692,141.1565],[26.2732,55.7688,139.9409],[26.2725,55.7643,158.793],[26.2804,55.7639,151.3741],[26.2797,55.7594,138.3112],[26.2877,55.759,125.848],[26.2869,55.7545,132.6491],[26.2949,55.7541,122.5],[26.2941,55.7496,122.5],[26.31,55.7488,141.6644],[26.3093,55.7443,129.921],[26.349,55.7422,157.2874],[26.3483,55.7377,142.8221],[26.3562,55.7373,145.4508],[26.3555,55.7328,142.8372],[26.3634,55.7324,142.1246],[26.3619,55.7234,144.3049],[26.3699,55.723,154.3884],[26.3691,55.7185,153.5472],[26.3771,55.7181,156.7053],[26.3748,55.7047,165.4202],[26.4621,55.7,136.3419],[26.4613,55.6955,140.3183],[26.4772,55.6946,131.5571],[26.4764,55.6901,135.981],[26.4844,55.6897,134.828],[26.4836,55.6852,142.2231],[26.5074,55.6839,138.6783],[26.5066,55.6795,142.6347],[26.5225,55.6786,141.4228],[26.5217,55.6741,141.603],[26.5376,55.6732,149.6361],[26.5368,55.6688,151.9641],[26.5606,55.6674,162.2448],[26.5614,55.6719,153.4151],[26.6168,55.6688,152.6842],[26.6171,55.6703,152.6842],[26.6384,55.6637,151.5847],[26.6398,55.6743,153.8636],[26.6437,55.675,153.3536],[26.6447,55.6796,160.5135],[26.65,55.6873,153.3521],[26.6595,55.6929,167.0739],[26.6595,55.6955,168.2947],[26.655,55.6953,168.4336],[26.6644,55.6982,157.6524],[26.6924,55.6957,147.3801],[26.7253,55.696,145.0],[26.7495,55.6757,155.6207],[26.778,55.6736,167.6826],[26.7876,55.6713,163.6523],[26.792,55.6789,162.6009],[26.8057,55.6893,174.2112],[26.8056,55.6919,163.9498],[26.8245,55.6922,167.5085],[26.8336,55.6975,161.1295],[26.8524,55.7004,169.0729],[26.8711,55.7059,160.4149],[26.8818,55.7194,181.5522],[26.8834,55.7278,178.4341],[26.9104,55.745,169.9997],[26.9058,55.745,168.4702],[26.9063,55.7477,171.7573],[26.9111,55.7478,165.6697],[26.9066,55.7504,157.5952],[26.9221,55.7638,176.777],[26.9331,55.7799,161.2792],[26.9379,55.7799,155.9956],[26.9382,55.7826,160.1611],[26.9477,55.7828,162.2355],[26.9522,55.7802,168.5054],[26.9617,55.7804,174.5529],[26.9619,55.7831,176.8076],[26.9669,55.7858,183.4376],[26.9672,55.7884,182.297],[26.9822,55.7966,163.6984],[26.9827,55.8019,175.8152],[26.9877,55.8047,168.7597],[26.9972,55.8048,163.0333],[27.0025,55.8102,166.5301],[27.0075,55.8103,164.4188]],
[[26.3092,56.1188,109.48],[26.3068,56.118899999999996,107.6655],[26.3083,56.1279,110.8461],[26.3003,56.1283,97.3205],[26.301,56.1328,99.2044],[26.3091,56.1324,108.3409],[26.3106,56.1413,97.8571],[26.3186,56.1409,89.2751],[26.3149,56.1185,89.7882],[26.3092,56.1188,109.48]],
[[26.3134,56.1096,103.938],[26.3141,56.114,105.3918],[26.3221,56.1136,88.9748],[26.3206,56.1047,92.9706],[26.3126,56.1051,107.2757],[26.3134,56.1096,103.938]]]]}}