{"type": "Feature","id": "4850","bbox": [26.43792,55.82656,26.63193,55.96213],"geometry": {"type": "Polygon","coordinates": [[[26.51841,55.82656,100.1271],[26.53247,55.83218,115.0684],[26.55636,55.8378,128.5726],[26.58166,55.84061,141.5152],[26.59712,55.85326,121.3753],[26.60182,55.87372,115.9278],[26.61671,55.88117,137.5896],[26.62493,55.88886,146.2777],[26.63193,55.89741,132.0676],[26.61117,55.90386,121.4901],[26.6168,55.92354,116.3963],[26.61258,55.94602,113.5722],[26.60977,55.95867,109.2272],[26.59492,55.96213,120.0742],[26.54111,55.92709,120.2569],[26.47186,55.93323,115.0378],[26.43792,55.91462,84.4994],[26.44931,55.90571,83.5],[26.48577,55.89289,94.7031],[26.48749,55.86872,91.9579],[26.4903,55.85326,97.2487],[26.50436,55.84061,94.9184],[26.51841,55.82656,100.1271]]]}
,"properties": {"ISO3166-1-Alpha-3": "LVA","country": "Latvia","fill": "#F0F","name": "Daugavpils","area_km2": 95.26406,"hist_schema_id": "Elevation0-9000","hist_area_km2": {"75": 2.36729,"100": 47.32007,"125": 40.01457,"150": 5.56213}}}