{"type":"Feature","properties":{"ISO3166-1-Alpha-3":"LVA","country":"Latvia","fill":"#FF0","id":"1081","name":"Daugavpils"},
"geometry":{"type": "Polygon","coordinates": [[[26.50751,56.13234,103.9868],[26.48451,56.16779,111.2475],[26.45537,56.18045,108.0796],[26.41656,56.18355,101.3657],[26.38085,56.19691,104.8488],[26.33543,56.18975,107.7326],[26.3008,56.18334,110.881],[26.3283,56.16267,89.4756],[26.33656,56.14944,98.0392],[26.34075,56.13425,100.1933],[26.34261,56.10789,88.3719],[26.34535,56.09345,89.6296],[26.3484,56.07319,89.2012],[26.35703,56.05545,89.0063],[26.36964,56.04377,96.7371],[26.36549,56.02167,89.5887],[26.37656,55.99775,100.1498],[26.39297,55.97773,90.2592],[26.37258,55.95383,121.9801],[26.33784,55.96541,113.4527],[26.31798,55.95052,115.2663],[26.29151,55.94059,104.5107],[26.28655,55.92405,110.5993],[26.30309,55.91743,111.3908],[26.31964,55.9075,149.5567],[26.27662,55.88103,194.8414],[26.33618,55.83967,136.0],[26.34942,55.80989,148.483],[26.29151,55.80658,159.5612],[26.25842,55.80492,168.8624],[26.22691,55.79693,151.9354],[26.27972,55.74324,168.3518],[26.34235,55.71634,155.477],[26.48105,55.67831,142.1456],[26.53748,55.66952,151.9641],[26.59453,55.66699,149.406],[26.61562,55.68797,170.7399],[26.64011,55.69557,181.9238],[26.66688,55.69397,164.9494],[26.72011,55.68187,145.0],[26.74305,55.68286,152.3152],[26.82284,55.70611,171.888],[26.84278,55.71934,164.7808],[26.90015,55.77872,166.1414],[26.95782,55.81858,179.9333],[26.97943,55.82629,154.5946],[26.97906,55.82672,154.5946],[26.97875,55.82708,154.5946],[26.97999,55.83892,159.3666],[26.98154,55.84465,143.5887],[26.98061,55.85535,129.8155],[26.97797,55.86421,124.8045],[26.9342,55.8739,105.5021],[26.93436,55.89276,125.1268],[26.93782,55.90387,129.846],[26.94635,55.91132,131.425],[26.95456,55.92759,150.2678],[26.9356,55.93219,152.3549],[26.94448,55.94165,155.634],[26.95565,55.95028,154.3976],[26.94712,55.96007,151.5304],[26.9435,55.96679,155.7796],[26.93265,56.0033,164.5055],[26.96774,56.00785,154.9863],[26.96944,56.01364,166.043],[26.95828,56.02712,150.2301],[26.95363,56.03431,167.2258],[26.95193,56.04102,144.9891],[26.96867,56.0602,152.8754],[26.9311,56.0587,149.6693],[26.89079,56.10505,151.9037],[26.88847,56.12887,157.9747],[26.87229,56.12722,156.5873],[26.84764,56.12396,156.1199],[26.83679,56.12939,152.6018],[26.82325,56.12952,142.6004],[26.80728,56.12732,145.7436],[26.77473,56.11508,137.9582],[26.74817,56.1111,126.1331],[26.7185,56.11125,104.7466],[26.70037,56.11869,100.279],[26.68734,56.12552,103.24],[26.64791,56.13528,105.1478],[26.62481,56.12112,109.8455],[26.62063,56.12495,121.5473],[26.60962,56.13221,105.5916],[26.57624,56.14805,114.5409],[26.57066,56.15396,107.8423],[26.55655,56.15657,114.0019],[26.54394,56.1421,102.5126],[26.54084,56.13391,105.5794],[26.50751,56.13234,103.9868]],
[[26.54111,55.92709,120.2569],[26.59492,55.96213,120.0742],[26.60977,55.95867,109.2272],[26.61258,55.94602,113.5722],[26.6168,55.92354,116.3963],[26.61117,55.90386,121.4901],[26.63193,55.89741,132.0676],[26.62493,55.88886,146.2777],[26.61671,55.88117,137.5896],[26.60182,55.87372,115.9278],[26.59712,55.85326,121.3753],[26.58166,55.84061,141.5152],[26.55636,55.8378,128.5726],[26.53247,55.83218,115.0684],[26.51841,55.82656,100.1271],[26.50436,55.84061,94.9184],[26.4903,55.85326,97.2487],[26.48749,55.86872,91.9579],[26.48577,55.89289,94.7031],[26.44931,55.90571,83.5],[26.43792,55.91462,84.4994],[26.47186,55.93323,115.0378],[26.54111,55.92709,120.2569]]]}}