{"type": "Feature","id": "5727","bbox": [25.55863,56.35101,25.843,56.61727],"geometry": {"type": "Polygon","coordinates": [[[25.75691,56.61226,69.5],[25.74404,56.61727,73.2315],[25.71133,56.60585,76.6662],[25.68833,56.60078,69.5],[25.64673,56.59639,75.9967],[25.60147,56.57892,69.5],[25.5794,56.57629,89.7274],[25.56979,56.5767,88.9355],[25.56033,56.57386,75.459],[25.58018,56.56916,83.5736],[25.59945,56.57029,85.5063],[25.6072,56.56771,90.0046],[25.60581,56.56203,86.6644],[25.59868,56.55182,88.901],[25.57599,56.5397,104.3101],[25.55863,56.51066,99.1396],[25.56607,56.49831,108.5988],[25.58002,56.48839,102.1878],[25.59464,56.46715,104.1987],[25.61593,56.44674,88.3923],[25.61148,56.43115,110.8831],[25.63596,56.40889,101.2427],[25.65823,56.39331,96.0214],[25.67604,56.36659,100.6598],[25.72724,56.36882,98.3064],[25.73392,56.35101,99.4602],[25.79402,56.35992,99.5576],[25.843,56.41334,100.3485],[25.80961,56.44451,83.6854],[25.82074,56.48681,83.5581],[25.82643,56.52717,94.0673],[25.79973,56.5277,79.9502],[25.78688,56.53034,74.0492],[25.76922,56.55414,98.6742],[25.74806,56.56635,78.9297],[25.75611,56.59203,72.8767],[25.75691,56.61226,69.5]]]}
,"properties": {"ISO3166-1-Alpha-3": "LVA","country": "Latvia","fill": "#00F","name": "Salas","area_km2": 321.168,"hist_schema_id": "Elevation0-9000","hist_area_km2": {"75": 83.8251,"100": 205.5416,"125": 30.6437,"150": 1.1575}}}