{"type":"Feature","properties":{"ISO3166-1-Alpha-3":"LVA","country":"Latvia","fill":"#F00","id":"5778","name":"Siguldas"},
"geometry":{"type": "Polygon","coordinates": [[[24.98745,57.12468,121.4815],[24.98404,57.14075,121.9949],[24.98357,57.14501,128.4404],[24.97825,57.15873,128.6442],[24.97566,57.17067,125.6325],[24.97313,57.17775,117.7059],[24.9674,57.18501,117.3066],[24.93438,57.20839,89.7526],[24.90037,57.21868,27.8148],[24.88422,57.19913,74.3852],[24.86197,57.18939,95.5283],[24.82303,57.18244,78.1731],[24.80495,57.16575,65.2123],[24.79661,57.14211,73.8185],[24.77992,57.13515,66.9374],[24.76601,57.11568,70.484],[24.74932,57.099,43.132],[24.75906,57.07814,65.2597],[24.7076,57.06284,52.5694],[24.6784,57.06006,49.828],[24.65058,57.07396,46.6146],[24.63012,57.06102,47.7029],[24.66945,57.01275,60.695],[24.72667,56.98951,65.8506],[24.77494,56.99845,77.6243],[24.81785,56.98951,68.192],[24.84528,56.98496,72.4888],[24.88978,57.01138,83.1225],[24.88005,57.03781,93.9351],[24.88839,57.05589,91.3673],[24.86614,57.09343,96.7471],[24.87866,57.10456,103.4698],[24.89952,57.08787,105.9052],[24.93567,57.08092,104.1416],[24.98404,57.07993,101.6215],[24.98931,57.0606,105.9541],[25.0107,57.04944,103.7845],[25.04036,57.03791,107.765],[25.04811,57.0291,108.8966],[25.05571,57.02494,107.7541],[25.06315,57.02425,107.6146],[25.09214,57.016,114.1831],[25.10072,57.0098,103.3127],[25.12599,57.00159,111.8157],[25.14754,56.98939,104.1735],[25.16729,56.99867,117.098],[25.16885,57.01433,116.9179],[25.15006,57.03312,110.4801],[25.13284,57.0519,115.5889],[25.16885,57.06756,148.2973],[25.13754,57.08948,167.5271],[25.11249,57.10983,162.3151],[25.06708,57.11453,136.4783],[25.02637,57.11923,116.5687],[24.98745,57.12468,121.4815]]]}}