{"type": "Feature","id": "1087","bbox": [25.74815,56.5867,26.95332,57.10039],"geometry": {"type": "Polygon","coordinates": [[[26.04883,57.07677,208.1374],[26.03839,57.07685,213.4232],[26.02258,57.07951,224.2707],[25.94966,57.10039,248.1103],[25.9231,57.09745,252.2477],[25.9076,57.07001,236.3144],[25.9062,57.06143,239.309],[25.899539999999998,57.05016,237.9739],[25.89675,57.03755,219.0178],[25.89566,57.02626,245.1922],[25.90434,57.01396,203.2444],[25.91116,57.00675,198.7452],[25.92,57.00009,218.8487],[25.92357,56.99296,216.5284],[25.92077,56.9819,199.6215],[25.91783,56.97523,207.896],[25.88636,56.96422,196.9615],[25.92038,56.94387,201.4738],[25.94386,56.93291,217.4784],[25.95326,56.92508,218.2859],[25.94699,56.9063,265.282],[25.91568,56.9063,230.9933],[25.89063,56.90003,223.5793],[25.85932,56.9063,198.5],[25.83583,56.90003,206.3469],[25.80765,56.89534,226.3412],[25.77477,56.89064,220.6198],[25.76851,56.87968,191.7472],[25.74815,56.86715,186.9436],[25.75755,56.8515,201.4823],[25.76549,56.82819,179.7952],[25.7858,56.8187,197.6899],[25.79711,56.81183,200.2444],[25.80626,56.80475,203.6084],[25.812,56.8018,190.474],[25.82771,56.80095,192.2095],[25.84274,56.78925,175.2997],[25.8508,56.77033,174.5431],[25.84383,56.76444,164.7662],[25.83732,56.75659,158.0335],[25.82693,56.74933,153.9983],[25.82554,56.74077,151.7418],[25.83437,56.71228,111.9134],[25.90682,56.69726,103.3106],[25.93571,56.68155,93.8113],[25.93333,56.67592,109.7618],[25.92698,56.67148,91.9531],[25.91566,56.66887,92.7034],[25.9138,56.66481,105.8828],[25.91628,56.65902,99.5236],[25.92512,56.65427,97.2604],[25.92982,56.64985,87.166],[25.93209,56.63784,82.9218],[25.98361,56.66564,83.0494],[26.00211,56.6397,92.5528],[26.02289,56.62931,98.8011],[26.03999,56.62647,102.2722],[26.05813,56.62995,93.7788],[26.09224,56.64388,91.5592],[26.13105,56.65391,96.244],[26.15647,56.65013,112.971],[26.17001,56.64502,127.3438],[26.19109,56.64233,120.7159],[26.20489,56.63525,126.5087],[26.19823,56.62714,115.6567],[26.22463,56.60988,109.7445],[26.26199,56.61657,114.5648],[26.28127,56.61091,107.0415],[26.28422,56.6058,99.7765],[26.29135,56.5867,106.0034],[26.34271,56.60383,109.8762],[26.35077,56.60998,114.9272],[26.37558,56.63592,110.0895],[26.38851,56.67771,104.4737],[26.53569,56.67771,111.9386],[26.5764,56.6918,96.3029],[26.60771,56.69023,118.6355],[26.6265,56.70432,119.0014],[26.64842,56.71685,93.4649],[26.68286,56.72155,93.2223],[26.70791,56.72311,102.7809],[26.71104,56.70745,102.0697],[26.74392,56.6965,95.5881],[26.77256,56.68101,100.4747],[26.78294,56.70739,92.4611],[26.90754,56.81798,92.7729],[26.92847,56.83111,92.0088],[26.94402,56.84025,92.1714],[26.95332,56.84668,92.0905],[26.93337,56.86559,94.9999],[26.90988,56.87342,102.0204],[26.88483,56.87342,105.3103],[26.88327,56.88594,110.3075],[26.86135,56.90003,106.1402],[26.83786,56.90003,99.5336],[26.80029,56.89534,104.7685],[26.7267,56.89064,98.5895],[26.71261,56.90316,94.9361],[26.67973,56.88438,97.3553],[26.67347,56.86715,93.8357],[26.62023,56.83271,95.9649],[26.60927,56.81862,93.4474],[26.57796,56.80453,92.9052],[26.56074,56.80922,110.9094],[26.53569,56.8014,107.6144],[26.5122,56.81236,97.4788],[26.5169,56.82488,107.5594],[26.50437,56.83271,110.8551],[26.47306,56.85463,103.2205],[26.56818,56.94841,102.0246],[26.55965,56.9789,107.6097],[26.54425,57.00923,111.9978],[26.53293,57.02525,115.9421],[26.51262,57.04406,111.7152],[26.49728,57.05579,132.6986],[26.46203,57.06127,147.9944],[26.36938,57.04463,134.4913],[26.37599,57.03155,132.0422],[26.38382,57.00493,116.4986],[26.40574,56.98928,109.8432],[26.39321,56.97049,111.5862],[26.37442,56.9564,106.0119],[26.3525,56.94857,120.3436],[26.35877,56.93135,112.4853],[26.32589,56.93135,125.2677],[26.28674,56.94074,206.7662],[26.26796,56.93135,210.0242],[26.24291,56.92978,223.534],[26.22255,56.92822,245.4193],[26.20063,56.9517,257.1824],[26.18184,56.95327,249.0364],[26.17088,56.95327,250.9859],[26.17245,56.96579,247.3935],[26.18654,56.98458,245.8375],[26.17715,57.0065,219.2021],[26.17558,57.03468,172.1841],[26.18654,57.05817,171.248],[26.18319,57.08261,138.7753],[26.11678,57.07807,169.6629],[26.0896,57.08613,181.7609],[26.07704,57.08822,173.6738],[26.06495,57.08871,182.7391],[26.05627,57.08442,197.3675],[26.05286,57.08026,211.4754],[26.04883,57.07677,208.1374]]]}
,"properties": {"ISO3166-1-Alpha-3": "LVA","country": "Latvia","fill": "#F00","name": "Madona","area_km2": 2134.051,"hist_schema_id": "Elevation0-9000","hist_area_km2": {"75": 14.318,"100": 927.85,"125": 412.859,"150": 107.554,"175": 95.135,"200": 221.721,"225": 220.408,"250": 119.861,"275": 13.917,"300": 0.382,"325": 0.046}}}