{"type": "Feature","bbox": [25.496,56.5378,26.9982,57.1111],"geometry": {"type": "MultiPolygon","coordinates": [[[[26.8538,56.9917,99.1004],[26.7799,56.9958,103.1722],[26.7808,57.0003,103.4926],[26.7725,57.0007,101.869],[26.7734,57.0052,99.5096],[26.7652,57.0057,99.9211],[26.7643,57.0012,105.1582],[26.7397,57.0026,106.097],[26.7389,56.9981,108.1217],[26.7225,56.999,100.5418],[26.72,56.9856,103.488],[26.7118,56.986,102.3899],[26.711,56.9816,103.2942],[26.6864,56.9829,110.9036],[26.6856,56.9785,107.3426],[26.6364,56.9812,116.3074],[26.6356,56.9767,115.1789],[26.6274,56.9771,122.0205],[26.6266,56.9727,120.2889],[26.6102,56.9735,109.9182],[26.6094,56.9691,107.8648],[26.6012,56.9695,111.8277],[26.6004,56.9651,109.7775],[26.5922,56.9655,105.0943],[26.5914,56.961,107.5502],[26.5832,56.9615,114.6867],[26.5824,56.957,110.5605],[26.5578,56.9583,106.9425],[26.5602,56.9717,118.5926],[26.552,56.9722,119.4856],[26.5559,56.9945,122.4628],[26.5395,56.9954,118.1778],[26.5419,57.0088,124.7411],[26.5337,57.0093,123.362],[26.5377,57.0316,129.5684],[26.5295,57.032,121.6344],[26.5303,57.0365,134.8524],[26.522,57.037,120.6944],[26.5228,57.0414,117.8606],[26.5146,57.0419,126.6452],[26.5154,57.0463,112.013],[26.5072,57.0468,116.2089],[26.508,57.0512,118.7281],[26.4998,57.0517,123.0515],[26.5006,57.0562,130.6644],[26.4923,57.0566,141.395],[26.4939,57.0655,145.3867],[26.4857,57.066,137.3805],[26.4849,57.0615,139.3589],[26.4685,57.0624,158.1697],[26.4692,57.0668,154.6191],[26.461,57.0673,144.9866],[26.4618,57.0717,151.0433],[26.4371,57.073,156.2178],[26.4363,57.0686,148.6897],[26.4281,57.069,144.8083],[26.4273,57.0645,138.6775],[26.4191,57.065,137.3778],[26.4183,57.0605,134.5547],[26.4101,57.0609,138.4959],[26.4093,57.0565,141.052],[26.3929,57.0573,131.6208],[26.3921,57.0529,135.1588],[26.3592,57.0546,122.3108],[26.36,57.059,130.1235],[26.3518,57.0595,120.0],[26.3525,57.0639,130.9145],[26.3443,57.0644,123.0515],[26.3459,57.0733,140.0338],[26.3294,57.0742,129.0189],[26.3302,57.0786,125.0045],[26.322,57.0791,132.808],[26.3235,57.088,143.8697],[26.3153,57.0884,132.8116],[26.3176,57.1018,128.0115],[26.3093,57.1023,126.8076],[26.3086,57.0978,136.4078],[26.3003,57.0982,145.0528],[26.2988,57.0893,138.1375],[26.2412,57.0922,143.6271],[26.2419,57.0967,158.8688],[26.1843,57.0996,157.7436],[26.1836,57.0952,162.6111],[26.1918,57.0947,158.0404],[26.191,57.0903,138.8067],[26.1416,57.0928,163.0299],[26.1409,57.0883,159.3137],[26.1244,57.0891,170.514],[26.1237,57.0846,167.7562],[26.099,57.0859,179.9193],[26.1005,57.0948,185.3199],[26.0758,57.0961,187.6118],[26.0765,57.1005,188.8285],[26.06,57.1013,186.8852],[26.0571,57.0835,193.6626],[26.0324,57.0847,206.2488],[26.0331,57.0891,209.6685],[26.0084,57.0904,236.5967],[26.0092,57.0948,218.4517],[26.0009,57.0952,227.2547],[26.0016,57.0997,225.9121],[25.9769,57.1009,233.9123],[25.9777,57.1054,230.1273],[25.9694,57.1058,232.5785],[25.9702,57.1103,232.6039],[25.9537,57.1111,249.6012],[25.953,57.1066,250.0017],[25.9365,57.1074,233.072],[25.9343,57.094,244.0503],[25.9261,57.0944,255.6646],[25.9239,57.081,243.6149],[25.9157,57.0814,243.1017],[25.9128,57.0635,244.9206],[25.9046,57.0639,231.7641],[25.901,57.0415,239.5578],[25.8927,57.0419,224.0395],[25.8913,57.0329,201.3365],[25.8995,57.0325,242.0141],[25.8988,57.0281,241.4193],[25.8974,57.0191,222.4373],[25.8891,57.0195,212.9281],[25.8884,57.015,195.6987],[25.9213,57.0135,234.4417],[25.9206,57.009,229.1231],[25.9288,57.0086,222.6513],[25.9259,56.9907,209.7932],[25.9341,56.9903,207.7348],[25.9327,56.9813,194.394],[25.9245,56.9817,194.5399],[25.9238,56.9773,194.0776],[25.9073,56.9781,207.3754],[25.9066,56.9736,190.8599],[25.8984,56.974,195.1165],[25.8977,56.9695,195.6488],[25.8649,56.9711,198.1167],[25.8641,56.9666,197.3636],[25.8477,56.9674,192.4896],[25.8491,56.9764,200.6115],[25.8409,56.9767,198.5142],[25.8416,56.9812,193.02],[25.8334,56.9816,191.6227],[25.8341,56.9861,198.7225],[25.8259,56.9865,183.5222],[25.8273,56.9954,197.5399],[25.7945,56.997,195.485],[25.7931,56.988,193.1153],[25.7602,56.9896,190.5355],[25.7609,56.9941,188.4193],[25.7527,56.9945,183.7354],[25.7541,57.0034,191.3545],[25.7212,57.005,184.9648],[25.7205,57.0005,195.7678],[25.7123,57.0009,194.7319],[25.7102,56.9874,194.9102],[25.702,56.9878,201.1323],[25.7013,56.9834,194.8978],[25.6849,56.9841,193.6944],[25.6842,56.9796,197.5013],[25.676,56.98,201.5509],[25.6753,56.9756,196.3082],[25.6589,56.9763,197.4965],[25.6582,56.9718,207.0217],[25.65,56.9722,198.4816],[25.6493,56.9677,194.6747],[25.6411,56.9681,188.1177],[25.6418,56.9726,191.5055],[25.6336,56.973,188.2665],[25.6363,56.9909,195.9807],[25.6445,56.9905,189.134],[25.6452,56.995,190.8903],[25.637,56.9954,190.4104],[25.6377,56.9998,197.567],[25.6459,56.9995,182.3258],[25.6473,57.0084,187.1451],[25.6391,57.0088,192.53],[25.6384,57.0043,196.1236],[25.6302,57.0047,196.8721],[25.6295,57.0002,199.4744],[25.6212,57.0006,201.7596],[25.6206,56.9961,208.7517],[25.6123,56.9965,198.3167],[25.6117,56.992,193.8337],[25.587,56.9931,206.0449],[25.5863,56.9887,197.9473],[25.5617,56.9898,196.3219],[25.5624,56.9943,196.1927],[25.5542,56.9947,195.3033],[25.5548,56.9991,201.2902],[25.5466,56.9995,199.9646],[25.5473,57.004,199.1785],[25.5226,57.0051,205.7243],[25.5233,57.0096,215.5591],[25.4986,57.0107,223.3387],[25.498,57.0062,210.069],[25.5062,57.0058,203.8083],[25.5048,56.9969,212.6448],[25.4966,56.9973,210.3522],[25.496,56.9928,202.1549],[25.5206,56.9917,212.5466],[25.5193,56.9827,208.4527],[25.5275,56.9823,212.7506],[25.5268,56.9779,196.7285],[25.5255,56.9689,198.6008],[25.5173,56.9693,194.1911],[25.5166,56.9648,188.5546],[25.533,56.9641,189.9958],[25.5303,56.9462,201.3417],[25.5385,56.9458,196.6103],[25.5379,56.9413,198.5919],[25.5461,56.9409,197.2588],[25.5447,56.932,182.2926],[25.5529,56.9316,183.3418],[25.5522,56.9271,196.0361],[25.544,56.9275,187.9064],[25.5427,56.9186,183.5799],[25.5345,56.9189,182.4442],[25.5338,56.9145,185.1826],[25.5256,56.9148,172.4704],[25.5229,56.8969,151.8538],[25.5393,56.8962,154.6265],[25.538,56.8872,144.4272],[25.5462,56.8868,159.197],[25.5455,56.8824,151.1851],[25.5537,56.882,152.7872],[25.553,56.8775,140.4914],[25.5366,56.8783,139.8524],[25.536,56.8738,128.5959],[25.5278,56.8742,125.348],[25.5271,56.8697,127.705],[25.5189,56.8701,122.9674],[25.5196,56.8745,141.7497],[25.5114,56.8749,139.6795],[25.5101,56.866,127.985],[25.5428,56.8645,141.0995],[25.5408,56.851,147.1427],[25.5163,56.8522,143.3701],[25.5149,56.8432,143.385],[25.5067,56.8436,132.2713],[25.5054,56.8346,137.3794],[25.5136,56.8342,143.3999],[25.5116,56.8208,155.3829],[25.5361,56.8197,145.6947],[25.5355,56.8152,161.4436],[25.5436,56.8149,157.5115],[25.543,56.8104,147.5375],[25.5511,56.81,148.9427],[25.5518,56.8145,147.3241],[25.56,56.8141,145.4191],[25.5607,56.8186,158.5915],[25.6097,56.8163,149.8039],[25.609,56.8118,144.9656],[25.6254,56.8111,149.5043],[25.6247,56.8066,148.5175],[25.6411,56.8059,162.2326],[25.6404,56.8014,151.6169],[25.6486,56.801,157.4727],[25.6479,56.7965,150.6958],[25.6806,56.795,172.429],[25.6792,56.7861,157.0453],[25.671,56.7864,152.5193],[25.6703,56.782,148.3359],[25.6785,56.7816,155.0905],[25.6778,56.7771,149.8433],[25.7105,56.7756,160.7322],[25.7112,56.78,160.2471],[25.7357,56.7789,168.8304],[25.7364,56.7834,164.8869],[25.7445,56.783,151.4678],[25.7452,56.7875,172.4223],[25.7289,56.7882,153.4777],[25.7317,56.8061,167.3404],[25.7398,56.8057,167.839],[25.7405,56.8102,174.8582],[25.7487,56.8098,188.4911],[25.7508,56.8233,188.1161],[25.7344,56.824,172.9832],[25.7351,56.8285,169.8687],[25.7433,56.8281,185.5352],[25.744,56.8326,199.7874],[25.7685,56.8314,205.6106],[25.7678,56.827,178.4471],[25.776,56.8266,189.5791],[25.7753,56.8221,182.5185],[25.7917,56.8213,186.2319],[25.791,56.8168,203.0082],[25.8073,56.8161,219.3926],[25.8066,56.8116,208.0644],[25.8148,56.8112,212.0817],[25.8141,56.8067,210.8142],[25.8304,56.8059,192.0919],[25.8297,56.8015,191.6548],[25.8379,56.8011,184.5135],[25.8365,56.7921,193.7999],[25.8447,56.7917,188.0455],[25.8433,56.7828,187.2581],[25.8514,56.7824,188.041],[25.8493,56.769,170.122],[25.833,56.7697,168.3029],[25.8316,56.7608,151.3169],[25.8234,56.7612,158.0281],[25.8227,56.7567,154.2611],[25.8145,56.7571,156.5659],[25.8131,56.7481,144.4513],[25.8213,56.7478,148.0916],[25.8206,56.7433,140.1657],[25.8288,56.7429,148.1159],[25.8245,56.716,111.8266],[25.8327,56.7157,115.3348],[25.832,56.7112,105.5942],[25.8483,56.7104,100.7768],[25.8476,56.7059,106.3453],[25.8802,56.7043,101.2718],[25.8795,56.6999,93.1144],[25.8958,56.6991,92.7577],[25.8965,56.7035,97.2595],[25.9209,56.7024,94.8325],[25.9202,56.6979,94.1411],[25.9365,56.6971,99.4455],[25.9358,56.6926,94.4554],[25.944,56.6922,90.9811],[25.9425,56.6833,97.7927],[25.9344,56.6837,110.8714],[25.933,56.6747,102.0946],[25.9248,56.6751,94.5817],[25.9241,56.6706,98.5719],[25.916,56.671,93.797],[25.9138,56.6576,99.2946],[25.9301,56.6568,87.7051],[25.9287,56.6479,99.7145],[25.945,56.6471,87.63],[25.9457,56.6515,90.4645],[25.9538,56.6511,84.3446],[25.9545,56.6556,91.6456],[25.9627,56.6552,96.0818],[25.9648,56.6686,115.2173],[25.9892,56.6674,85.0975],[25.9871,56.654,89.4855],[25.9952,56.6536,105.4094],[25.9945,56.6491,94.5973],[26.0026,56.6487,90.7761],[26.0033,56.6532,110.1795],[26.0115,56.6528,106.7165],[26.0108,56.6483,112.0217],[26.027,56.6475,113.6109],[26.0256,56.6386,114.3667],[26.0175,56.639,103.8225],[26.0167,56.6345,107.805],[26.0249,56.6341,108.3108],[26.0241,56.6296,98.8011],[26.0404,56.6288,100.3641],[26.0411,56.6333,95.5245],[26.0493,56.6329,101.85],[26.05,56.6373,104.6397],[26.0663,56.6365,97.981],[26.0677,56.6455,123.2233],[26.0759,56.6451,100.3804],[26.0766,56.6495,109.7658],[26.0847,56.6491,112.1069],[26.0854,56.6536,115.4158],[26.0936,56.6532,109.9486],[26.0943,56.6577,110.6737],[26.1187,56.6564,104.485],[26.1195,56.6609,120.0697],[26.1276,56.6605,120.8131],[26.1283,56.665,126.2329],[26.1446,56.6642,106.4154],[26.1439,56.6597,96.1096],[26.152,56.6593,102.7967],[26.1513,56.6548,113.9128],[26.1594,56.6544,107.5109],[26.1587,56.6499,110.6636],[26.1668,56.6495,112.5034],[26.1675,56.654,108.4662],[26.2082,56.6519,128.7813],[26.2075,56.6474,123.8757],[26.2156,56.647,132.8614],[26.2141,56.638,142.1417],[26.206,56.6385,134.1738],[26.2045,56.6295,125.8966],[26.2126,56.6291,122.9131],[26.2111,56.6202,109.2287],[26.2193,56.6197,121.8525],[26.2185,56.6153,111.3856],[26.2348,56.6144,112.1642],[26.2355,56.6189,113.1544],[26.2437,56.6185,106.8335],[26.2444,56.623,112.8714],[26.2688,56.6217,112.9165],[26.2695,56.6262,115.5108],[26.2858,56.6253,107.5085],[26.285,56.6208,108.831],[26.2932,56.6204,106.4313],[26.2924,56.616,102.5454],[26.2843,56.6164,101.3605],[26.2835,56.6119,101.0032],[26.2917,56.6115,105.5145],[26.2902,56.6025,100.131],[26.2983,56.6021,104.5135],[26.2975,56.5976,103.7207],[26.33,56.5959,108.7546],[26.3308,56.6004,110.0208],[26.3389,56.6,110.0204],[26.3397,56.6045,113.6174],[26.3478,56.604,110.5511],[26.3485,56.6085,113.3866],[26.3567,56.6081,110.5159],[26.3582,56.617,108.3986],[26.3663,56.6166,110.1314],[26.3686,56.63,111.0728],[26.3767,56.6296,109.8448],[26.379,56.643,110.3279],[26.3872,56.6426,109.0877],[26.3895,56.656,109.5334],[26.3976,56.6555,106.6251],[26.3968,56.6511,109.5748],[26.405,56.6506,112.2088],[26.4042,56.6462,113.7847],[26.4123,56.6457,112.9145],[26.4116,56.6413,110.8316],[26.4197,56.6408,111.4286],[26.4189,56.6364,111.4951],[26.4352,56.6355,112.0179],[26.4344,56.631,112.0103],[26.4507,56.6302,112.466],[26.4499,56.6257,112.6923],[26.4661,56.6248,110.4649],[26.4654,56.6204,110.7978],[26.4816,56.6195,111.3703],[26.4808,56.615,111.57],[26.489,56.6146,110.9543],[26.4882,56.6101,110.5684],[26.5857,56.6048,107.695],[26.5864,56.6093,108.1509],[26.6027,56.6084,115.5499],[26.5971,56.5771,103.5763],[26.589,56.5776,109.0908],[26.5867,56.5642,119.0983],[26.5948,56.5637,107.5673],[26.594,56.5592,111.4167],[26.6021,56.5588,109.6607],[26.6037,56.5677,106.4238],[26.6199,56.5669,109.4804],[26.6183,56.5579,127.527],[26.6264,56.5575,110.4292],[26.6248,56.5485,119.3815],[26.6816,56.5454,108.525],[26.6824,56.5499,108.9656],[26.731,56.5472,109.6299],[26.7294,56.5382,123.6423],[26.7375,56.5378,109.8677],[26.7383,56.5422,112.2346],[26.7465,56.5418,111.7276],[26.7505,56.5641,126.5933],[26.7586,56.5637,109.5804],[26.7594,56.5681,114.6907],[26.7432,56.5691,109.8111],[26.744,56.5735,104.7576],[26.7278,56.5744,118.9274],[26.7294,56.5834,106.5427],[26.7375,56.5829,104.8893],[26.7407,56.6008,108.6791],[26.7651,56.5994,102.2213],[26.7659,56.6039,99.6687],[26.774,56.6034,101.996],[26.7748,56.6079,105.1773],[26.7829,56.6075,99.2881],[26.7838,56.6119,99.2948],[26.8,56.611,100.3287],[26.8008,56.6155,100.0633],[26.7927,56.6159,102.8408],[26.7935,56.6204,100.742],[26.7773,56.6213,97.53],[26.7797,56.6347,99.9504],[26.7716,56.6352,106.6767],[26.7732,56.6441,98.0097],[26.7813,56.6437,100.9325],[26.7822,56.6481,97.8437],[26.7903,56.6477,95.2956],[26.7911,56.6521,99.0422],[26.783,56.6526,96.129],[26.7846,56.6615,97.9665],[26.7765,56.662,93.6306],[26.7781,56.6709,99.5325],[26.7618,56.6718,97.4915],[26.7635,56.6808,100.2856],[26.7716,56.6803,96.4764],[26.7724,56.6848,94.1043],[26.7805,56.6843,107.0576],[26.7822,56.6933,95.8534],[26.7903,56.6928,95.5755],[26.7928,56.7062,92.8114],[26.8009,56.7058,95.0401],[26.8025,56.7147,90.7046],[26.7781,56.7161,91.8617],[26.7773,56.7116,91.3992],[26.7692,56.712,92.054],[26.7708,56.721,92.0672],[26.7789,56.7205,90.5],[26.7797,56.725,90.5],[26.7716,56.7255,91.9422],[26.7724,56.7299,91.8084],[26.7806,56.7295,90.7152],[26.7814,56.7339,90.8393],[26.7895,56.7335,90.7106],[26.7903,56.7379,90.6771],[26.7985,56.7375,90.5],[26.7993,56.742,90.5],[26.8075,56.7415,90.5],[26.8083,56.746,90.5],[26.8164,56.7455,90.5],[26.8173,56.75,90.5],[26.8254,56.7495,90.5],[26.8262,56.754,91.6149],[26.8344,56.7535,91.2823],[26.8352,56.758,90.5],[26.8434,56.7575,90.5],[26.845,56.7665,90.5],[26.8532,56.766,90.5],[26.8548,56.7749,90.5],[26.863,56.7745,90.5],[26.8646,56.7834,90.9471],[26.8728,56.783,90.8294],[26.8744,56.7919,91.3704],[26.8826,56.7914,90.5],[26.8843,56.8004,90.7871],[26.8924,56.7999,90.5],[26.8941,56.8088,90.5],[26.9022,56.8084,91.0359],[26.9031,56.8128,91.1522],[26.9112,56.8124,91.788],[26.9138,56.8258,92.8915],[26.9219,56.8253,96.0143],[26.9236,56.8342,93.0957],[26.9318,56.8338,93.1201],[26.9326,56.8382,93.1069],[26.9489,56.8373,92.1105],[26.9506,56.8462,92.5376],[26.9588,56.8458,92.0146],[26.9596,56.8502,92.1135],[26.9678,56.8498,92.7544],[26.9686,56.8542,92.5758],[26.9768,56.8538,92.3896],[26.9777,56.8582,91.9394],[26.9858,56.8578,92.3376],[26.9875,56.8667,92.1062],[26.9957,56.8662,96.3553],[26.9982,56.8796,97.4348],[26.9901,56.8801,100.8913],[26.9909,56.8846,95.6809],[26.9827,56.885,95.8655],[26.9853,56.8984,95.8031],[26.9771,56.8989,96.1465],[26.9796,56.9123,94.2222],[26.9714,56.9128,92.7594],[26.974,56.9262,94.8498],[26.9658,56.9266,96.3666],[26.9666,56.9311,95.288],[26.9421,56.9325,106.5279],[26.9429,56.937,96.196],[26.9183,56.9384,93.133],[26.9192,56.9428,93.0196],[26.911,56.9433,93.4601],[26.9135,56.9567,101.0376],[26.9217,56.9562,98.2293],[26.9234,56.9652,102.2254],[26.9316,56.9647,96.8603],[26.9349,56.9826,110.203],[26.9103,56.984,103.4077],[26.9112,56.9884,97.9622],[26.903,56.9889,96.2881],[26.9021,56.9844,96.4852],[26.8857,56.9854,102.3185],[26.8849,56.9809,97.4822],[26.8767,56.9814,99.6124],[26.8775,56.9858,106.9877],[26.8693,56.9863,104.3852],[26.8702,56.9908,104.4131],[26.8538,56.9917,99.1004]]]]}
,"properties": {"GID_2": "LVA.4.4_1","GID_0": "LVA","country": "Latvia","GID_1": "LVA.4_1","province": "Vidzeme","NL_NAME_1": "NA","county": "Madona","VARNAME_2": "NA","NL_NAME_2": "NA","TYPE_2": "Aprinki|rajoni","ENGTYPE_2": "District","CC_2": "NA","HASC_2": "LV.MA","name": "Madona.county","area_km2": 3335.031,"hist_schema_id": "Elevation0-9000","hist_area_km2": {"75": 13.256,"100": 1457.724,"125": 558.463,"150": 213.216,"175": 234.164,"200": 432.666,"225": 275.031,"250": 135.415,"275": 14.634,"300": 0.417,"325": 0.046}}}