{"type":"Feature","properties":{"GID_2":"LVA.4.3_1","GID_0":"LVA","country":"Latvia","GID_1":"LVA.4_1","province":"Vidzeme","NL_NAME_1":"NA","county":"Gulbene","VARNAME_2":"NA","NL_NAME_2":"NA","TYPE_2":"Aprinki|rajoni","ENGTYPE_2":"District","CC_2":"NA","HASC_2":"LV.GU","name":"Gulbene.county"},
"geometry":{"type": "MultiPolygon","coordinates": [[[[27.1502,57.2366,135.4843],[27.1419,57.2371,128.3112],[27.1428,57.2415,129.5151],[27.1015,57.2439,116.8378],[27.1024,57.2484,117.66],[27.0776,57.2498,118.9451],[27.0785,57.2543,117.9289],[27.062,57.2552,121.4898],[27.0637,57.2642,119.5189],[27.072,57.2637,118.6503],[27.0729,57.2682,122.7957],[27.0894,57.2672,116.8336],[27.0911,57.2761,125.6895],[27.0581,57.278,112.5586],[27.0589,57.2825,112.9757],[27.0424,57.2835,113.633],[27.0433,57.2879,132.847],[27.035,57.2884,124.2308],[27.0359,57.2929,123.5059],[27.0193,57.2938,125.2339],[27.0202,57.2983,124.0599],[27.0119,57.2988,133.0327],[27.0128,57.3032,126.4232],[26.9962,57.3042,131.1653],[26.9971,57.3086,123.3109],[26.964,57.3105,128.3003],[26.9631,57.306,118.4497],[26.9466,57.307,120.1105],[26.9475,57.3114,127.7245],[26.9392,57.3119,128.9409],[26.94,57.3164,141.6151],[26.9235,57.3173,143.0123],[26.9209,57.3039,125.2357],[26.8878,57.3058,126.8436],[26.887,57.3013,129.0695],[26.8704,57.3022,147.3563],[26.873,57.3156,129.6488],[26.8647,57.3161,137.793],[26.8656,57.3206,131.3175],[26.8573,57.321,136.3731],[26.8564,57.3166,144.8216],[26.8151,57.3189,134.756],[26.8142,57.3144,130.7953],[26.8059,57.3149,130.2547],[26.8068,57.3193,129.3856],[26.7985,57.3198,131.0987],[26.7993,57.3242,134.7979],[26.7911,57.3247,135.4986],[26.7919,57.3292,132.5247],[26.7671,57.3305,125.3267],[26.7662,57.3261,121.4053],[26.7579,57.3265,115.1666],[26.7571,57.3221,114.9139],[26.7654,57.3216,133.7326],[26.7637,57.3127,119.2159],[26.7389,57.314,126.5608],[26.7381,57.3096,120.3757],[26.7132,57.3109,110.7941],[26.7141,57.3154,108.813],[26.6975,57.3163,112.4816],[26.6983,57.3208,116.6223],[26.6901,57.3212,116.4614],[26.6933,57.3391,117.9488],[26.6436,57.3418,106.7396],[26.6461,57.3552,113.1954],[26.6544,57.3547,110.3946],[26.6552,57.3592,116.1108],[26.6303,57.3605,115.0652],[26.6312,57.365,111.3502],[26.6146,57.3659,109.8973],[26.617,57.3793,108.7804],[26.6087,57.3798,112.1799],[26.6104,57.3887,115.8272],[26.6021,57.3891,118.259],[26.6029,57.3936,129.8342],[26.5946,57.3941,124.4671],[26.5954,57.3985,123.6547],[26.5705,57.3999,111.6991],[26.5697,57.3954,126.9529],[26.5365,57.3972,92.0706],[26.5373,57.4016,95.0654],[26.529,57.4021,94.6577],[26.5306,57.411,98.6491],[26.5223,57.4114,89.1381],[26.5215,57.407,86.6327],[26.5049,57.4078,98.2706],[26.5041,57.4034,99.9582],[26.4875,57.4043,89.1777],[26.4883,57.4087,104.3273],[26.48,57.4092,88.0339],[26.4792,57.4047,86.2343],[26.4709,57.4051,92.5636],[26.4693,57.3962,90.5451],[26.4776,57.3957,99.1481],[26.4768,57.3913,94.6038],[26.4851,57.3908,107.5415],[26.4843,57.3864,96.5327],[26.4926,57.3859,107.3463],[26.4918,57.3815,99.903],[26.5001,57.381,107.8412],[26.4993,57.3766,105.2406],[26.4661,57.3783,100.4165],[26.4653,57.3738,105.1743],[26.4405,57.3751,86.589],[26.4389,57.3662,103.5936],[26.414,57.3675,88.9881],[26.4148,57.372,85.3641],[26.4065,57.3724,93.0767],[26.4057,57.3679,92.5174],[26.3974,57.3684,93.374],[26.395,57.355,101.1426],[26.4033,57.3545,91.8927],[26.4025,57.3501,99.495],[26.4108,57.3496,96.5496],[26.4116,57.3541,91.1715],[26.4199,57.3537,92.1102],[26.4215,57.3626,80.7495],[26.4298,57.3622,92.3146],[26.429,57.3577,85.2538],[26.4373,57.3573,95.3268],[26.4349,57.3439,88.1054],[26.4432,57.3434,98.8445],[26.4416,57.3345,105.1503],[26.425,57.3353,96.3288],[26.4242,57.3309,98.2862],[26.4077,57.3317,115.1639],[26.4069,57.3273,114.2043],[26.3903,57.3281,116.0214],[26.3895,57.3237,123.044],[26.373,57.3245,124.1334],[26.3722,57.3201,120.1189],[26.3473,57.3213,117.7341],[26.3481,57.3258,116.2944],[26.315,57.3275,123.5203],[26.3158,57.332,123.7924],[26.2909,57.3333,126.5785],[26.2917,57.3377,115.3936],[26.2834,57.3382,119.2344],[26.2826,57.3337,121.8163],[26.2743,57.3341,107.0419],[26.2728,57.3252,109.7604],[26.2894,57.3243,116.4421],[26.2886,57.3198,122.0537],[26.2969,57.3194,123.0156],[26.2953,57.3105,129.8422],[26.287,57.3109,115.058],[26.2863,57.3064,118.0023],[26.278,57.3069,118.3682],[26.2697,57.3073,129.8581],[26.2705,57.3118,123.4121],[26.2622,57.3122,115.0998],[26.2614,57.3077,130.7401],[26.2531,57.3081,135.9426],[26.2516,57.2992,136.1031],[26.2599,57.2988,139.7975],[26.2591,57.2943,142.4699],[26.2674,57.2939,140.9104],[26.2659,57.2849,138.8626],[26.2493,57.2858,133.9133],[26.2485,57.2813,138.6776],[26.2072,57.2834,165.0988],[26.2064,57.2789,154.3072],[26.1402,57.2822,143.8532],[26.1387,57.2733,150.2488],[26.1139,57.2745,156.9283],[26.1146,57.279,155.738],[26.1063,57.2794,161.097],[26.1071,57.2839,172.4427],[26.0823,57.2851,171.3067],[26.0815,57.2807,168.9319],[26.0732,57.2811,174.6944],[26.0725,57.2766,173.8985],[26.0642,57.277,169.8967],[26.0635,57.2725,174.1183],[26.0552,57.2729,172.1156],[26.0537,57.264,170.7796],[26.062,57.2636,173.1335],[26.0605,57.2546,169.418],[26.0357,57.2559,184.309],[26.0364,57.2603,176.0877],[26.028199999999998,57.2607,175.8835],[26.0274,57.2563,183.9581],[26.0026,57.2575,176.4901],[25.9989,57.2351,180.2346],[26.0072,57.2347,186.8002],[26.0065,57.2302,188.363],[26.023,57.2294,182.0886],[26.0222,57.225,189.7454],[26.0636,57.2229,159.5598],[26.0643,57.2274,169.4578],[26.0726,57.227,163.7527],[26.0718,57.2225,152.5554],[26.0883,57.2217,153.6402],[26.0876,57.2172,155.2324],[26.1041,57.2164,158.7574],[26.1019,57.203,190.8456],[26.1101,57.2026,168.7277],[26.1094,57.1981,173.3743],[26.1176,57.1977,200.6756],[26.1154,57.1843,177.4191],[26.1237,57.1839,190.1518],[26.1229,57.1794,203.6006],[26.1312,57.179,218.8267],[26.1304,57.1745,219.2246],[26.1387,57.1741,237.865],[26.1379,57.1696,235.739],[26.1462,57.1692,235.0184],[26.1454,57.1647,231.4554],[26.1537,57.1643,213.1619],[26.1514,57.1509,202.7824],[26.1596,57.1505,201.1005],[26.1589,57.146,192.6106],[26.1671,57.1456,200.2524],[26.1656,57.1367,182.313],[26.1574,57.1371,196.5012],[26.1566,57.1326,201.228],[26.1484,57.133,196.0108],[26.1476,57.1285,186.8317],[26.1394,57.129,210.4759],[26.1379,57.12,184.2478],[26.1297,57.1204,191.6205],[26.1282,57.1115,176.2599],[26.1364,57.1111,173.6189],[26.1357,57.1066,165.671],[26.1274,57.107,174.7952],[26.1259,57.0981,186.2507],[26.1177,57.0985,178.162],[26.1162,57.0895,168.7815],[26.0997,57.0904,178.8187],[26.099,57.0859,179.9193],[26.1237,57.0846,167.7562],[26.1244,57.0891,170.514],[26.1409,57.0883,159.3137],[26.1416,57.0928,163.0299],[26.191,57.0903,138.8067],[26.1918,57.0947,158.0404],[26.1836,57.0952,162.6111],[26.1843,57.0996,157.7436],[26.2419,57.0967,158.8688],[26.2412,57.0922,143.6271],[26.2988,57.0893,138.1375],[26.3003,57.0982,145.0528],[26.3086,57.0978,136.4078],[26.3093,57.1023,126.8076],[26.3176,57.1018,128.0115],[26.3153,57.0884,132.8116],[26.3235,57.088,143.8697],[26.322,57.0791,132.808],[26.3302,57.0786,125.0045],[26.3294,57.0742,129.0189],[26.3459,57.0733,140.0338],[26.3443,57.0644,123.0515],[26.3525,57.0639,130.9145],[26.3518,57.0595,120.0],[26.36,57.059,130.1235],[26.3592,57.0546,122.3108],[26.3921,57.0529,135.1588],[26.3929,57.0573,131.6208],[26.4093,57.0565,141.052],[26.4101,57.0609,138.4959],[26.4183,57.0605,134.5547],[26.4191,57.065,137.3778],[26.4273,57.0645,138.6775],[26.4281,57.069,144.8083],[26.4363,57.0686,148.6897],[26.4371,57.073,156.2178],[26.4618,57.0717,151.0433],[26.461,57.0673,144.9866],[26.4692,57.0668,154.6191],[26.4685,57.0624,158.1697],[26.4849,57.0615,139.3589],[26.4857,57.066,137.3805],[26.4939,57.0655,145.3867],[26.4923,57.0566,141.395],[26.5006,57.0562,130.6644],[26.4998,57.0517,123.0515],[26.508,57.0512,118.7281],[26.5072,57.0468,116.2089],[26.5154,57.0463,112.013],[26.5146,57.0419,126.6452],[26.5228,57.0414,117.8606],[26.522,57.037,120.6944],[26.5303,57.0365,134.8524],[26.5295,57.032,121.6344],[26.5377,57.0316,129.5684],[26.5337,57.0093,123.362],[26.5419,57.0088,124.7411],[26.5395,56.9954,118.1778],[26.5559,56.9945,122.4628],[26.552,56.9722,119.4856],[26.5602,56.9717,118.5926],[26.5578,56.9583,106.9425],[26.5824,56.957,110.5605],[26.5832,56.9615,114.6867],[26.5914,56.961,107.5502],[26.5922,56.9655,105.0943],[26.6004,56.9651,109.7775],[26.6012,56.9695,111.8277],[26.6094,56.9691,107.8648],[26.6102,56.9735,109.9182],[26.6266,56.9727,120.2889],[26.6274,56.9771,122.0205],[26.6356,56.9767,115.1789],[26.6364,56.9812,116.3074],[26.6856,56.9785,107.3426],[26.6864,56.9829,110.9036],[26.711,56.9816,103.2942],[26.7118,56.986,102.3899],[26.72,56.9856,103.488],[26.7225,56.999,100.5418],[26.7389,56.9981,108.1217],[26.7397,57.0026,106.097],[26.7643,57.0012,105.1582],[26.7652,57.0057,99.9211],[26.7734,57.0052,99.5096],[26.7725,57.0007,101.869],[26.7808,57.0003,103.4926],[26.7799,56.9958,103.1722],[26.8538,56.9917,99.1004],[26.8579,57.014,100.2358],[26.8497,57.0145,104.4289],[26.8506,57.019,100.2164],[26.8514,57.0234,101.0205],[26.8596,57.023,95.6989],[26.8613,57.0319,111.0435],[26.8695,57.0314,97.6914],[26.8703,57.0359,98.4348],[26.8785,57.0354,96.8522],[26.8802,57.0444,100.2892],[26.8884,57.0439,97.5842],[26.8893,57.0484,98.7545],[26.9139,57.047,113.7581],[26.9147,57.0514,103.7797],[26.923,57.051,110.2006],[26.9238,57.0555,102.8708],[26.932,57.055,109.7884],[26.9337,57.0639,102.7608],[26.9419,57.0634,109.4108],[26.9428,57.0679,109.9155],[26.951,57.0674,105.4361],[26.9527,57.0764,108.0135],[26.9609,57.0759,107.1328],[26.966,57.1027,105.614],[26.9742,57.1022,111.238],[26.9751,57.1067,114.3886],[26.9833,57.1062,112.9057],[26.985,57.1152,117.5534],[26.9932,57.1147,115.126],[26.9941,57.1192,108.5179],[27.0023,57.1187,111.685],[27.004,57.1276,111.5724],[27.0123,57.1272,111.8208],[27.0131,57.1316,114.4958],[27.0214,57.1311,109.8712],[27.0231,57.1401,107.4032],[27.0313,57.1396,110.9928],[27.0347,57.1575,106.1703],[27.043,57.157,101.4733],[27.0447,57.1659,117.8328],[27.0529,57.1655,108.2706],[27.0547,57.1744,105.8359],[27.0794,57.173,117.8262],[27.0803,57.1774,123.6839],[27.0885,57.1769,125.0329],[27.092,57.1948,118.7195],[27.1002,57.1943,117.5908],[27.1011,57.1988,120.5158],[27.1093,57.1983,126.8904],[27.1102,57.2028,130.3169],[27.1185,57.2023,138.9991],[27.1193,57.2068,119.9195],[27.1276,57.2063,129.5583],[27.1302,57.2197,129.9108],[27.1384,57.2192,129.5459],[27.1393,57.2237,139.6372],[27.1476,57.2232,127.654],[27.1502,57.2366,135.4843]],
[[26.9383,57.3072,125.4957],[26.9375,57.303,120.2801],[26.9292,57.3034,124.4963],[26.9301,57.3079,134.5602],[26.9383,57.3072,125.4957]]]]}}