{"type":"Feature","properties":{"ISO3166-1-Alpha-3":"LVA","country":"Latvia","fill":"#00F","id":"1083","name":"Gulbene"},
"geometry":{"type": "Polygon","coordinates": [[[26.54441,57.39562,109.0864],[26.53107,57.39887,89.8927],[26.5258,57.40187,91.6449],[26.52022,57.40647,88.3305],[26.47583,57.40508,89.0649],[26.48064,57.3874,91.9704],[26.47924,57.38239,81.4368],[26.47475,57.37505,98.5645],[26.44684,57.36916,100.2057],[26.43315,57.36141,97.1675],[26.42105,57.35795,101.9645],[26.39702,57.35428,101.1426],[26.39392,57.35071,97.0952],[26.3947,57.34715,103.0588],[26.39904,57.34402,92.8698],[26.40447,57.34224,92.5046],[26.41113,57.34286,94.5486],[26.42415,57.34699,97.8189],[26.43005,57.34601,89.4126],[26.43005,57.3397,89.3548],[26.42353,57.33216,105.9142],[26.35946,57.32255,121.7882],[26.27615,57.33102,116.8687],[26.27708,57.32296,125.135],[26.28034,57.31787,129.195],[26.27569,57.30834,121.1421],[26.26499,57.30095,148.6617],[26.26665,57.28885,132.6789],[26.26199,57.28193,148.0275],[26.13027,57.27648,150.7608],[26.10128,57.27816,166.0733],[26.0758,57.27413,167.8891],[26.0586,57.26529,177.6264],[26.0586,57.25129,166.1878],[26.04914,57.24999,183.4617],[26.01436,57.24987,171.0501],[26.00847,57.24674,174.6026],[26.00413,57.24384,178.4797],[26.01343,57.22106,197.0638],[26.06216,57.21718,152.6743],[26.07611,57.21473,163.2245],[26.08929,57.20989,171.689],[26.10252,57.20126,177.4393],[26.13167,57.17201,228.6699],[26.16815,57.14344,188.0985],[26.16582,57.13424,186.2168],[26.16133,57.12884,182.6012],[26.13988,57.10845,163.1375],[26.13322,57.09708,171.1099],[26.11678,57.07807,169.6629],[26.18319,57.08261,138.7753],[26.21518,57.08913,154.9891],[26.27166,57.08711,139.6437],[26.32132,57.09791,125.5153],[26.32892,57.07187,130.9179],[26.36938,57.04463,134.4913],[26.46203,57.06127,147.9944],[26.49728,57.05579,132.6986],[26.51262,57.04406,111.7152],[26.53293,57.02525,115.9421],[26.54425,57.00923,111.9978],[26.55965,56.9789,107.6097],[26.56818,56.94841,102.0246],[26.60368,56.9536,111.3382],[26.6352,56.965,106.3605],[26.69106,56.9782,107.7459],[26.69742,56.97347,101.157],[26.70378,56.9742,109.0011],[26.726,56.98262,99.9873],[26.73483,56.9882,96.0807],[26.75762,56.99296,98.2911],[26.78155,56.99254,97.9175],[26.79581,56.98913,102.2132],[26.86005,56.98301,97.2314],[26.87121,57.00264,98.0789],[26.86842,57.0059,98.7575],[26.86051,57.01802,98.5601],[26.90196,57.03926,103.3492],[26.92955,57.0498,107.3176],[26.95317,57.06484,115.9289],[26.97906,57.09559,102.8118],[26.99518,57.10515,113.519],[27.0081,57.1145,120.4677],[27.06505,57.15574,109.3356],[27.09125,57.1701,106.0521],[27.13021,57.19964,131.4824],[27.15656,57.22638,135.3628],[27.05616,57.2487,120.66],[27.04593,57.2503,119.5661],[27.04655,57.25335,128.5941],[27.04856,57.25643,120.152],[27.06009,57.26322,123.7793],[27.06691,57.2687,122.9261],[27.05993,57.27276,126.958],[27.02081,57.28674,118.7806],[26.98851,57.30441,125.4183],[26.90552,57.30374,127.9012],[26.86501,57.29953,137.9572],[26.84935,57.31526,141.8355],[26.84547,57.31593,140.9852],[26.84005,57.3163,132.087],[26.83617,57.31531,131.465],[26.79023,57.31841,133.7175],[26.76072,57.32167,118.0789],[26.7477,57.31896,112.9651],[26.71478,57.30648,107.4829],[26.68223,57.32002,113.4387],[26.68145,57.32368,111.0014],[26.67758,57.33433,117.4847],[26.63319,57.3503,106.2798],[26.61815,57.36249,110.2003],[26.59422,57.3913,127.7261],[26.56771,57.39743,105.764],[26.54441,57.39562,109.0864]]]}}