{"type": "Feature","id": "5742","bbox": [27.40295,57.01842,27.84613,57.35638],"geometry": {"type": "Polygon","coordinates": [[[27.74578,57.03146,112.2948],[27.75074,57.04236,94.2105],[27.74547,57.06799,85.1246],[27.72206,57.07799,89.3774],[27.69607,57.08546,93.2436],[27.68222,57.1037,98.8281],[27.70098,57.11879,93.3448],[27.79404,57.14339,93.205],[27.82433,57.15907,80.9187],[27.83394,57.18049,83.5163],[27.84117,57.21121,79.5553],[27.84613,57.26731,92.7226],[27.8403,57.29064,102.5584],[27.82774,57.30495,100.7536],[27.80913,57.31394,86.0513],[27.70795,57.34813,118.0127],[27.69441,57.35638,111.9879],[27.68852,57.33257,118.0182],[27.68186,57.32676,126.8905],[27.67235,57.32022,114.0691],[27.66227,57.31841,120.7732],[27.65235,57.31369,108.9787],[27.60021,57.29779,126.9616],[27.58734,57.28255,122.9845],[27.57122,57.27697,114.1156],[27.55556,57.25891,115.0849],[27.52683,57.25986,111.9453],[27.51892,57.25935,126.4606],[27.50171,57.26477,134.7198],[27.48709,57.27387,136.7814],[27.44624,57.24398,126.3686],[27.42573,57.21208,122.8417],[27.40295,57.15968,122.2747],[27.45535,57.11411,143.4741],[27.51459,57.07993,144.843],[27.54193,57.07766,125.9708],[27.55332,57.03892,121.3436],[27.58978,57.04348,112.3904],[27.63079,57.03892,94.1788],[27.63762,57.01842,106.8732],[27.69003,57.02297,110.0244],[27.74578,57.03146,112.2948]]]}
,"properties": {"ISO3166-1-Alpha-3": "LVA","country": "Latvia","fill": "#00F","name": "Vilakas","area_km2": 598.331,"hist_schema_id": "Elevation0-9000","hist_area_km2": {"75": 39.191,"100": 263.9714,"125": 257.3349,"150": 37.7761,"175": 0.0576}}}