{"type": "Feature","bbox": [20.9719,56.0643,23.1397,57.759],"geometry": {"type": "MultiPolygon","coordinates": [[[[22.0373,56.416,98.8404],[22.0617,56.4156,80.4116],[22.0619,56.4201,74.8539],[22.0863,56.4197,73.1649],[22.0865,56.4242,71.5349],[22.1271,56.4235,64.7932],[22.1273,56.428,67.3086],[22.1517,56.4275,64.8965],[22.1514,56.423,66.6478],[22.1758,56.4226,65.5235],[22.1755,56.4181,70.8602],[22.2161,56.4174,43.4355],[22.2158,56.4129,43.089],[22.2239,56.4127,57.4494],[22.2237,56.4083,45.0063],[22.2399,56.408,60.6686],[22.2396,56.4035,50.9551],[22.2639,56.403,53.3044],[22.2642,56.4075,61.5832],[22.2885,56.407,64.5311],[22.2888,56.4115,64.1602],[22.3212,56.4109,67.4629],[22.321,56.4064,54.5271],[22.3291,56.4063,68.1996],[22.3288,56.4018,57.9414],[22.3369,56.4016,64.4403],[22.3366,56.3971,67.6235],[22.3609,56.3966,67.8374],[22.3612,56.4011,56.8236],[22.3774,56.4008,58.5308],[22.3777,56.4053,61.9545],[22.4021,56.4048,62.9821],[22.4023,56.4093,63.6216],[22.4429,56.4085,71.7274],[22.4426,56.404,64.1082],[22.4912,56.403,68.6915],[22.4909,56.3985,61.3071],[22.5072,56.3982,69.0868],[22.5069,56.3937,70.9498],[22.5879,56.392,77.2178],[22.5876,56.3875,73.2227],[22.5957,56.3873,89.0939],[22.5954,56.3828,66.8469],[22.6197,56.3823,72.8863],[22.6194,56.3778,74.8939],[22.6356,56.3775,73.5261],[22.6347,56.364,74.2135],[22.6752,56.3631,77.2451],[22.6748,56.3586,76.146],[22.6829,56.3584,77.4476],[22.6826,56.3539,75.0715],[22.6907,56.3538,77.2289],[22.691,56.3582,75.0114],[22.7072,56.3579,76.3868],[22.7075,56.3624,70.6044],[22.7156,56.3622,76.0638],[22.716,56.3667,70.4039],[22.7241,56.3665,75.2764],[22.7244,56.371,73.3898],[22.7325,56.3708,74.2832],[22.7328,56.3753,75.3208],[22.7409,56.3751,74.7165],[22.7406,56.3706,73.8833],[22.773,56.3699,78.1127],[22.7727,56.3654,77.5215],[22.7808,56.3652,78.3203],[22.7811,56.3697,78.2593],[22.854,56.368,77.0844],[22.8543,56.3725,78.5784],[22.8867,56.3717,79.4193],[22.8871,56.3762,78.4462],[22.9114,56.3756,83.3546],[22.9117,56.3801,79.1944],[22.9198,56.3799,78.5886],[22.9202,56.3844,81.3618],[22.9283,56.3842,80.0516],[22.9297,56.4021,83.875],[22.8972,56.4029,82.0793],[22.8969,56.3984,81.6703],[22.8888,56.3986,84.681],[22.8884,56.3941,83.3437],[22.8803,56.3943,82.0256],[22.8807,56.3988,85.6958],[22.8645,56.3992,81.8478],[22.8648,56.4037,84.1606],[22.8243,56.4047,92.6885],[22.8246,56.4092,85.1867],[22.8165,56.4093,88.3334],[22.8168,56.4138,87.6606],[22.8087,56.414,88.5007],[22.8091,56.4185,87.2962],[22.7928,56.4189,88.8601],[22.7932,56.4234,89.5631],[22.7688,56.4239,95.7256],[22.7692,56.4284,101.2728],[22.7611,56.4286,100.3479],[22.7607,56.4241,95.8973],[22.7364,56.4247,105.2378],[22.7384,56.4516,93.605],[22.7546,56.4512,99.4535],[22.7553,56.4602,101.2037],[22.7471,56.4604,99.5651],[22.7475,56.4649,101.1042],[22.7556,56.4647,101.9297],[22.7562,56.4737,97.1647],[22.7644,56.4735,102.7092],[22.7647,56.478,108.7492],[22.7566,56.4782,100.266],[22.7569,56.4827,109.2318],[22.7488,56.4829,102.5009],[22.7491,56.4873,102.6682],[22.7166,56.4881,107.6953],[22.7173,56.4971,106.3972],[22.6929,56.4976,110.5271],[22.6932,56.5021,106.6051],[22.6851,56.5023,120.5103],[22.6848,56.4978,123.3531],[22.6766,56.498,101.3893],[22.6769,56.5025,118.7549],[22.6363,56.5034,118.7533],[22.6366,56.5078,107.5051],[22.6285,56.508,122.3059],[22.6288,56.5125,114.3891],[22.5963,56.5132,113.7094],[22.5969,56.5222,125.6028],[22.6213,56.5217,115.6186],[22.6226,56.5396,110.299],[22.6388,56.5393,125.3328],[22.6391,56.5438,128.9272],[22.6473,56.5436,105.6255],[22.6476,56.5481,130.5676],[22.6557,56.5479,132.7901],[22.6561,56.5524,126.502],[22.6642,56.5522,129.7325],[22.6652,56.5657,124.2646],[22.6733,56.5655,129.3097],[22.6736,56.57,126.1084],[22.6818,56.5698,134.1481],[22.6821,56.5743,138.8369],[22.6984,56.5739,122.9024],[22.698,56.5694,120.9892],[22.7388,56.5685,132.1428],[22.7391,56.573,129.4419],[22.7472,56.5728,133.2967],[22.7469,56.5683,117.2992],[22.755,56.5682,118.1981],[22.7547,56.5637,120.1316],[22.7791,56.5631,108.723],[22.7795,56.5676,119.9798],[22.7876,56.5674,110.26],[22.7883,56.5764,113.3891],[22.7964,56.5762,113.8793],[22.7961,56.5717,123.2037],[22.8124,56.5713,103.4488],[22.813,56.5803,108.5773],[22.7968,56.5807,110.6689],[22.7978,56.5942,108.9346],[22.7896,56.5943,114.386],[22.7906,56.6078,109.7534],[22.7825,56.608,118.8487],[22.7831,56.617,109.1152],[22.7994,56.6166,123.5111],[22.7991,56.6121,118.3168],[22.8073,56.6119,111.2459],[22.8076,56.6164,119.6015],[22.8158,56.6162,113.7659],[22.8154,56.6117,119.1177],[22.8236,56.6115,114.4821],[22.8239,56.616,112.6725],[22.8321,56.6158,103.768],[22.8317,56.6114,103.9546],[22.848,56.611,99.6685],[22.849,56.6244,98.1605],[22.8572,56.6242,98.0622],[22.8586,56.6422,91.0561],[22.8667,56.642,109.9167],[22.8671,56.6465,90.6419],[22.8752,56.6463,94.2468],[22.8756,56.6508,92.9139],[22.8674,56.651,104.3187],[22.8681,56.66,94.8314],[22.8518,56.6604,112.4121],[22.8535,56.6828,111.4653],[22.8372,56.6832,122.698],[22.8375,56.6877,131.4034],[22.816,56.6882,124.6107],[22.8129,56.6863,125.5428],[22.8127,56.6838,119.9395],[22.8045,56.6839,113.7299],[22.8048,56.6884,125.1011],[22.8077,56.6884,123.8257],[22.8133,56.6927,117.9637],[22.8137,56.6972,127.9919],[22.8219,56.697,118.1786],[22.8232,56.715,108.0752],[22.8069,56.7154,119.6087],[22.8072,56.7198,126.4058],[22.8154,56.7197,120.9978],[22.8157,56.7242,111.6183],[22.8321,56.7238,105.7216],[22.8324,56.7283,103.6365],[22.8242,56.7285,108.8724],[22.8259,56.7509,128.6634],[22.8178,56.7511,117.5608],[22.8184,56.7601,103.1209],[22.8266,56.7599,118.8726],[22.8277,56.7733,105.2827],[22.8195,56.7735,98.4285],[22.8201,56.7825,99.6301],[22.812,56.7827,100.6822],[22.8123,56.7872,108.5962],[22.8041,56.7874,134.1056],[22.8048,56.7964,121.3296],[22.7966,56.7965,128.7851],[22.7969,56.801,126.588],[22.7887,56.8012,130.8832],[22.7897,56.8147,120.9396],[22.7816,56.8149,125.1583],[22.7809,56.8059,123.0638],[22.7645,56.8063,140.8757],[22.7648,56.8108,137.7837],[22.7566,56.8109,136.627],[22.7563,56.8065,136.6781],[22.7235,56.8072,131.9842],[22.7232,56.8027,131.8433],[22.715,56.8029,136.5051],[22.7147,56.7984,142.14],[22.7065,56.7986,132.581],[22.7068,56.8031,124.7321],[22.6904,56.8034,129.0404],[22.6911,56.8124,124.1374],[22.6829,56.8126,130.3176],[22.6832,56.8171,129.9817],[22.675,56.8173,123.7536],[22.6747,56.8128,131.8262],[22.6419,56.8135,107.2227],[22.6428,56.827,119.3056],[22.6346,56.8271,128.0049],[22.635,56.8316,112.3701],[22.6186,56.832,112.4872],[22.6182,56.8275,128.4933],[22.61,56.8277,115.9802],[22.611,56.8411,111.8558],[22.6028,56.8413,113.6069],[22.6031,56.8458,112.1674],[22.5785,56.8463,102.4616],[22.5788,56.8508,90.8808],[22.5706,56.851,99.2445],[22.5624,56.8512,97.5949],[22.5621,56.8467,107.6369],[22.5211,56.8475,101.6217],[22.5214,56.852,101.5638],[22.5132,56.8522,94.0161],[22.5135,56.8567,94.8647],[22.5053,56.8568,107.0424],[22.5056,56.8613,100.8915],[22.4974,56.8615,90.1561],[22.4983,56.875,100.9876],[22.5065,56.8748,120.3751],[22.5068,56.8793,104.1377],[22.5232,56.8789,99.8627],[22.5235,56.8834,100.838],[22.5153,56.8836,94.1809],[22.5159,56.8926,91.9917],[22.5241,56.8924,91.8654],[22.525,56.9059,94.1788],[22.5168,56.9061,100.8406],[22.5171,56.9105,95.9701],[22.5253,56.9104,96.4664],[22.5257,56.9149,93.0252],[22.5421,56.9145,86.0227],[22.5427,56.9235,93.0852],[22.5345,56.9237,94.5305],[22.5348,56.9282,99.604],[22.5184,56.9285,93.0458],[22.518,56.924,92.7046],[22.4934,56.9245,99.8064],[22.4937,56.929,98.2752],[22.469,56.9295,107.0034],[22.4687,56.925,103.6766],[22.4523,56.9254,109.6247],[22.4532,56.9388,100.9588],[22.4449,56.939,92.7341],[22.4458,56.9525,104.3571],[22.4623,56.9521,102.9744],[22.4629,56.9611,96.2302],[22.4547,56.9613,99.876],[22.455,56.9658,97.1308],[22.4553,56.9702,90.3028],[22.4635,56.9701,87.675],[22.4647,56.988,82.2184],[22.4812,56.9877,94.7545],[22.4821,57.0012,88.4277],[22.4903,57.001,89.2116],[22.4909,57.01,91.8428],[22.4991,57.0098,87.2895],[22.4995,57.0143,89.3646],[22.5077,57.0141,98.5715],[22.5086,57.0276,86.2348],[22.5251,57.0273,84.0507],[22.5248,57.0228,84.6307],[22.533,57.0226,85.879],[22.5327,57.0181,92.4574],[22.541,57.018,86.3018],[22.5407,57.0135,86.4157],[22.5736,57.0128,86.0876],[22.5739,57.0173,92.0862],[22.5822,57.0171,102.9461],[22.5825,57.0216,88.0935],[22.5743,57.0218,84.489],[22.5744,57.0234,80.9917],[22.5698,57.0263,82.6369],[22.5581,57.0266,82.9696],[22.5584,57.0311,80.9936],[22.5749,57.0307,75.6393],[22.5765,57.0262,81.1021],[22.5828,57.0261,80.4449],[22.5831,57.0306,49.624],[22.5914,57.0304,29.8426],[22.5917,57.0349,44.1324],[22.5999,57.0347,85.8807],[22.5996,57.0302,41.8216],[22.6079,57.03,64.5736],[22.6075,57.0255,56.3324],[22.6323,57.025,97.3847],[22.632,57.0205,82.8296],[22.6484,57.0202,35.8825],[22.6497,57.0381,83.0878],[22.658,57.0379,77.3605],[22.6586,57.0469,88.7967],[22.6504,57.0471,86.6687],[22.6517,57.0651,76.0441],[22.6434,57.0652,88.8076],[22.6437,57.0697,89.3477],[22.6355,57.0699,87.5812],[22.6377,57.1013,91.1229],[22.646,57.1012,91.2547],[22.6463,57.1056,97.9323],[22.6546,57.1055,94.8765],[22.6543,57.101,91.6334],[22.6625,57.1008,93.7437],[22.6628,57.1053,93.3192],[22.6711,57.1051,95.1403],[22.6714,57.1096,93.8509],[22.7127,57.1087,89.9083],[22.7131,57.1132,83.5285],[22.7296,57.1128,83.5435],[22.7299,57.1173,83.8803],[22.7382,57.1171,81.3222],[22.7379,57.1126,77.7113],[22.7461,57.1124,73.7208],[22.7465,57.1169,82.7813],[22.7713,57.1164,84.9858],[22.7723,57.1298,88.8348],[22.7888,57.1295,103.9187],[22.7891,57.1339,107.4787],[22.7974,57.1338,104.3716],[22.7978,57.1382,113.5452],[22.806,57.1381,96.5309],[22.8067,57.147,119.9534],[22.815,57.1468,124.8837],[22.8146,57.1424,121.317],[22.8229,57.1422,108.4919],[22.8232,57.1467,112.121],[22.8315,57.1465,103.7113],[22.8319,57.151,95.6111],[22.8484,57.1506,61.7279],[22.8481,57.1461,68.5085],[22.8563,57.1459,75.0535],[22.8646,57.1457,61.0693],[22.8649,57.1502,59.4443],[22.8732,57.15,62.7983],[22.8729,57.1455,68.1115],[22.8977,57.1449,47.681399999999996],[22.8973,57.1404,56.2312],[22.9304,57.1396,31.2132],[22.9322,57.1621,43.0362],[22.9405,57.1619,26.8021],[22.9408,57.1664,31.1004],[22.9491,57.1662,39.5974],[22.9495,57.1707,34.4426],[22.9577,57.1705,44.1284],[22.9581,57.175,42.267],[22.9664,57.1748,31.0667],[22.9671,57.1837,26.2171],[22.9754,57.1835,23.339],[22.9761,57.1925,32.6874],[22.9844,57.1923,23.0111],[22.9847,57.1968,34.7679],[22.993,57.1966,33.1172],[22.9934,57.2011,33.9394],[23.0017,57.2009,26.6751],[23.002,57.2054,27.1083],[23.0269,57.2048,13.1513],[23.0273,57.2092,22.5847],[23.0355,57.209,20.0271],[23.0359,57.2135,10.8058],[23.0525,57.2131,5.9916],[23.0532,57.2221,13.9044],[23.0615,57.2219,20.3813],[23.0623,57.2309,11.75],[23.0706,57.2307,4.4218],[23.0709,57.2351,0.3281],[23.0875,57.2347,0.2413],[23.0887,57.2482,-1.0],[23.0804,57.2484,-1.0],[23.0807,57.2529,-0.1072],[23.089,57.2527,0.2719],[23.0894,57.2572,-1.0],[23.1143,57.2565,-0.8051],[23.1151,57.2655,-0.3068],[23.1068,57.2657,-0.6235],[23.1091,57.2926,-0.0949],[23.1008,57.2929,8.5074],[23.1027,57.3153,3.175],[23.111,57.3151,9.5909],[23.1114,57.3196,23.2496],[23.1363,57.3189,15.8579],[23.1367,57.3234,2.0562],[23.1397,57.3233,2.0562],[23.1364,57.3262,0.0563],[23.1347,57.3249,2.8419],[23.1319,57.3285,11.1768],[23.1319,57.3307,2.8154],[23.1386,57.3335,0.374],[23.1303,57.3349,1.3525],[23.1353,57.3363,0.0],[23.1314,57.3393,-0.0072],[23.1286,57.3393,0.1059],[23.1286,57.3418,-0.0382],[23.1308,57.3418,0.012],[23.1292,57.3496,0.0389],[23.1269,57.3485,0.0257],[23.1269,57.3504,0.0389],[23.1303,57.3551,0.0],[23.1331,57.3563,0.2131],[23.1325,57.3601,0.1195],[23.1219,57.3671,0.0],[23.1119,57.366,3.533],[23.0892,57.3668,9.6113],[23.0686,57.3729,2.215],[23.0281,57.3807,2.3798],[23.0086,57.3946,2.2188],[22.9881,57.3996,7.2774],[22.9431,57.4149,4.2098],[22.9158,57.4304,7.8915],[22.9103,57.4368,5.5942],[22.9103,57.4412,0.2115],[22.9075,57.4449,4.167],[22.9008,57.4482,4.2777],[22.8997,57.451,0.0],[22.8969,57.4512,5.2991],[22.8881,57.4571,0.7998],[22.8708,57.4751,1.8787],[22.8542,57.4837,20.7065],[22.8475,57.489,2.1019],[22.8475,57.4915,0.0],[22.8253,57.4982,5.7361],[22.8142,57.5043,2.0125],[22.8103,57.5082,0.0],[22.8019,57.5099,7.0108],[22.7719,57.5218,7.9465],[22.7464,57.5288,3.4504],[22.6964,57.5488,0.0],[22.6647,57.5654,10.7005],[22.6336,57.5863,12.781],[22.6092,57.6079,12.9909],[22.5931,57.6287,15.7575],[22.5892,57.6374,0.0],[22.5869,57.639,0.0],[22.5875,57.6413,0.0],[22.5792,57.6582,0.0],[22.5747,57.6768,0.0],[22.5753,57.7038,0.0],[22.5792,57.7182,0.0],[22.5853,57.731,1.2829],[22.5908,57.7368,0.0],[22.5958,57.7457,3.5308],[22.6069,57.7571,0.0],[22.6058,57.759,0.0],[22.5808,57.7576,0.0],[22.5536,57.7535,3.578],[22.4725,57.7343,1.976],[22.2658,57.6749,11.9646],[22.2103,57.6596,7.9519],[22.1575,57.6474,0.0],[22.1353,57.6382,5.6736],[22.1281,57.6379,1.7825],[22.0803,57.6229,5.6003],[22.0192,57.6076,5.92],[21.9981,57.6037,9.4889],[21.9575,57.5999,6.4682],[21.8464,57.5982,2.8081],[21.8142,57.5913,4.0673],[21.7397,57.5801,7.7951],[21.7236,57.576,1.4571],[21.7036,57.5685,2.4646],[21.6897,57.559,0.5638],[21.6858,57.5546,0.0],[21.6836,57.544,10.2256],[21.6764,57.5288,0.0],[21.6647,57.514,0.0],[21.6614,57.5065,0.9163],[21.6508,57.499,0.0],[21.6331,57.4826,0.0],[21.6247,57.4699,12.3769],[21.6081,57.4538,0.0],[21.6031,57.4437,12.1458],[21.5914,57.4285,21.4776],[21.5764,57.4179,1.0999],[21.5519,57.4054,5.6814],[21.5342,57.4087,3.1858],[21.5264,57.4085,0.0],[21.5297,57.4074,1.6235],[21.5292,57.4054,0.0],[21.5308,57.4049,0.0],[21.5314,57.4063,0.0],[21.5381,57.4063,0.0],[21.5492,57.4032,0.0],[21.5425,57.4032,0.0],[21.5481,57.4007,0.6151],[21.5414,57.401,0.0],[21.5458,57.3985,0.691],[21.5397,57.399,0.0],[21.5442,57.3965,1.0125],[21.5414,57.3951,3.2967],[21.5353,57.3974,1.642],[21.5347,57.399,0.0],[21.5275,57.4024,0.0],[21.5258,57.4054,0.0],[21.5236,57.4054,0.0],[21.5247,57.4021,0.0],[21.5325,57.3985,1.642],[21.5308,57.3915,5.1762],[21.5181,57.3799,1.6956],[21.5086,57.369,2.5835],[21.5086,57.3674,3.5113],[21.4975,57.3563,5.7317],[21.4803,57.3468,1.423],[21.4692,57.3329,2.7613],[21.4553,57.3193,2.3147],[21.4275,57.3015,3.3538],[21.4192,57.291,0.0],[21.4142,57.2801,2.8111],[21.4119,57.2696,5.7284],[21.4136,57.249,0.0],[21.4119,57.2432,1.604],[21.4147,57.2235,6.1771],[21.4125,57.2068,9.1591],[21.4092,57.199,0.0],[21.4092,57.1832,0.0],[21.4058,57.1751,0.0],[21.4081,57.1674,2.5392],[21.4064,57.159,0.0],[21.4119,57.1421,23.1704],[21.4131,57.1246,0.0],[21.4169,57.1121,13.7099],[21.4158,57.1043,0.0],[21.4175,57.0796,6.2293],[21.4125,57.0635,1.2848],[21.4119,57.0565,14.7635],[21.4103,57.0549,0.0],[21.4108,57.0529,2.2506],[21.3942,57.0268,0.0],[21.3831,57.0171,0.0],[21.3719,56.9993,1.6079],[21.3631,56.994,1.6331],[21.3553,56.9857,5.232],[21.3442,56.979,10.3614],[21.3242,56.971,5.451],[21.3203,56.9668,11.9727],[21.3119,56.9635,8.7411],[21.3047,56.9579,1.7473],[21.2869,56.9524,2.8458],[21.2803,56.9474,0.0],[21.2786,56.9443,0.0],[21.2797,56.9437,4.9744],[21.2697,56.9346,1.0841],[21.2475,56.9204,9.8617],[21.2469,56.9188,1.0993],[21.2247,56.9085,10.9137],[21.2197,56.9079,4.9043],[21.2058,56.9007,2.9171],[21.1964,56.8982,0.0],[21.1953,56.8965,5.5321],[21.1919,56.8968,1.7901],[21.1847,56.8932,3.9335],[21.1731,56.8901,3.0168],[21.1681,56.8901,3.5103],[21.1653,56.8868,9.1235],[21.1569,56.8826,8.0709],[21.1264,56.8721,0.0],[21.1142,56.8662,6.2036],[21.0964,56.8537,6.4859],[21.0658,56.8426,0.5847],[21.0558,56.8321,0.0],[21.0564,56.8288,6.9859],[21.0536,56.8232,1.7426],[21.0542,56.8115,5.8894],[21.0558,56.7985,1.1775],[21.0592,56.791,2.3676],[21.0581,56.7807,1.4395],[21.0603,56.7496,9.0052],[21.0592,56.746,0.0],[21.0608,56.7432,11.4483],[21.0586,56.7012,3.0975],[21.0558,56.6946,1.2195],[21.0525,56.6724,4.7135],[21.0453,56.6593,0.6741],[21.0408,56.6454,1.5479],[21.0403,56.6365,4.8286],[21.0347,56.6282,0.0],[21.0342,56.6235,1.8335],[21.0297,56.616,3.3686],[21.0286,56.6107,4.1963],[21.0258,56.6079,1.6626],[21.0331,56.6071,6.2262],[21.0264,56.6049,4.3764],[21.0192,56.5999,3.3066],[21.0114,56.5863,0.0],[21.0069,56.5687,15.5881],[21.0031,56.5674,1.0382],[21.0014,56.5649,0.0],[21.0031,56.5593,5.6387],[20.9947,56.5574,0.0],[20.9992,56.5551,5.0893],[20.9986,56.546,0.0],[21.0142,56.5454,0.0],[21.0308,56.5418,0.0],[21.0336,56.5426,0.662],[21.0358,56.5462,0.0],[21.0347,56.5499,4.3402],[21.0386,56.5507,3.7827],[21.0392,56.5488,0.0],[21.0375,56.5482,0.5944],[21.0381,56.5451,2.5867],[21.0364,56.5435,0.0],[21.0442,56.5412,0.0],[21.0514,56.5421,1.9162],[21.0519,56.5407,3.8748],[21.0264,56.5407,2.0995],[21.0125,56.5443,1.0191],[20.9986,56.5451,0.0],[20.9981,56.5324,2.7648],[20.9953,56.5318,1.3152],[20.9958,56.5285,0.9481],[20.9936,56.5276,0.3582],[20.9953,56.5268,1.6672],[20.9953,56.5246,1.1174],[20.9875,56.5218,2.2443],[20.9819,56.5238,0.0989],[20.9836,56.521,0.6862],[20.9886,56.5196,0.3916],[20.9986,56.5221,2.2655],[20.9919,56.5185,1.1055],[20.9858,56.5193,1.0148],[20.9847,56.5179,1.9834],[20.9919,56.506,1.1994],[20.9981,56.4813,0.8044],[21.0008,56.4785,2.6486],[21.0031,56.4549,6.1127],[21.0008,56.4524,1.7211],[21.0008,56.4443,5.2952],[20.9986,56.4412,6.8939],[20.9903,56.4126,5.0994],[20.9797,56.391,0.0],[20.9786,56.3824,1.5887],[20.9742,56.3765,11.7183],[20.9719,56.3696,6.3918],[20.9719,56.3465,6.5584],[20.9842,56.3112,4.7473],[20.9864,56.2921,4.4882],[20.9853,56.2729,7.1862],[20.9803,56.249,4.1921],[20.9808,56.2285,0.0],[20.9836,56.216,0.0],[20.9903,56.2049,6.6541],[20.9903,56.2024,1.495],[20.9942,56.1987,12.6768],[20.9986,56.189,3.0922],[21.0008,56.1888,7.5765],[21.0075,56.1768,1.6708],[21.0181,56.1637,2.1117],[21.0192,56.1601,2.2521],[21.0225,56.1576,4.5952],[21.0225,56.1543,1.8277],[21.0253,56.1529,4.9926],[21.0281,56.1451,0.0],[21.0347,56.1374,1.82],[21.0336,56.1362,0.0],[21.0436,56.1199,9.9047],[21.0514,56.099,0.0],[21.0586,56.0863,2.4112],[21.0664,56.0645,2.3332],[21.0855,56.0643,0.5827],[21.0857,56.0688,0.3116],[21.0937,56.0687,0.2929],[21.0938,56.0732,0.3853],[21.1099,56.0731,19.0858],[21.11,56.0776,5.8413],[21.1261,56.0774,18.5641],[21.1263,56.0819,22.7519],[21.1665,56.0815,20.4366],[21.1663,56.077,26.5806],[21.1985,56.0767,14.5125],[21.1986,56.0812,12.2183],[21.2147,56.0811,21.3254],[21.215,56.09,11.4403],[21.2231,56.09,24.561],[21.2235,56.1034,12.7262],[21.2315,56.1034,25.5613],[21.2318,56.1124,12.8593],[21.2399,56.1123,28.5763],[21.2405,56.1302,21.8025],[21.2324,56.1303,27.8211],[21.2329,56.1438,26.9013],[21.2248,56.1439,20.8588],[21.2251,56.1529,20.3352],[21.2331,56.1528,25.9117],[21.2334,56.1618,28.633],[21.2576,56.1615,44.2754],[21.2578,56.166,17.5962],[21.2739,56.1658,32.7118],[21.2742,56.1748,19.3678],[21.2823,56.1747,23.5103],[21.2824,56.1792,20.2695],[21.2905,56.1792,47.6162],[21.2906,56.1836,46.9623],[21.2987,56.1836,38.8028],[21.299,56.1925,24.5131],[21.3071,56.1925,28.2081],[21.3072,56.1969,22.9268],[21.3153,56.1969,31.3944],[21.3156,56.2058,26.88],[21.3237,56.2058,26.8183],[21.3238,56.2103,25.2299],[21.3319,56.2102,30.8396],[21.332,56.2147,24.7113],[21.3401,56.2146,27.2306],[21.3403,56.2191,33.2919],[21.3484,56.219,29.2757],[21.3485,56.2235,30.8307],[21.3566,56.2234,28.6475],[21.3567,56.2279,43.214],[21.381,56.2276,30.3199],[21.3811,56.2321,46.8608],[21.3973,56.2319,31.7254],[21.3974,56.2364,49.2656],[21.4136,56.2362,32.2472],[21.4138,56.2407,30.4514],[21.4299,56.2405,39.1147],[21.4301,56.245,45.7949],[21.4462,56.2448,35.0553],[21.4464,56.2493,44.6056],[21.4545,56.2492,34.5386],[21.4547,56.2537,43.2201],[21.4627,56.2536,30.287],[21.4633,56.2671,31.355],[21.4713,56.267,30.424],[21.4719,56.2804,33.6748],[21.48,56.2803,22.852],[21.4803,56.2893,15.9951],[21.4965,56.2891,17.7432],[21.4967,56.2936,17.3782],[21.5128,56.2934,35.094],[21.5126,56.2889,22.6299],[21.5207,56.2888,18.4382],[21.5288,56.2887,20.0414],[21.529,56.2932,26.334],[21.5452,56.293,23.1897],[21.5454,56.2975,21.9624],[21.5535,56.2974,24.2662],[21.5536,56.3019,25.5474],[21.5617,56.3018,24.4266],[21.5619,56.3063,20.3199],[21.57,56.3062,21.8745],[21.5702,56.3107,24.2116],[21.5783,56.3106,22.2596],[21.5785,56.315,29.7086],[21.5946,56.3148,33.1035],[21.5948,56.3193,33.9858],[21.6029,56.3192,20.9627],[21.6031,56.3237,21.3687],[21.6112,56.3236,23.6505],[21.611,56.3191,23.0549],[21.6596,56.3185,36.376],[21.6594,56.314,33.5354],[21.6917,56.3135,30.6752],[21.6915,56.309,34.5622],[21.6996,56.3089,40.6249],[21.6998,56.3134,32.4375],[21.7241,56.313,36.1051],[21.7243,56.3175,45.2702],[21.7324,56.3174,42.5341],[21.7326,56.3219,59.4935],[21.7407,56.3218,58.1233],[21.7409,56.3263,65.0781],[21.749,56.3262,70.2926],[21.7492,56.3307,78.7505],[21.7654,56.3304,99.3782],[21.7656,56.3349,115.5913],[21.7737,56.3348,119.1552],[21.7739,56.3393,108.017],[21.7901,56.3391,116.2236],[21.7903,56.3435,107.0643],[21.8065,56.3433,113.9704],[21.807,56.3523,109.3048],[21.8151,56.3522,115.7456],[21.8153,56.3567,117.2205],[21.8234,56.3565,116.032],[21.8236,56.361,118.0359],[21.8398,56.3608,128.2451],[21.84,56.3653,119.7923],[21.8562,56.365,126.336],[21.8564,56.3695,126.6352],[21.8645,56.3694,132.2292],[21.8643,56.3649,118.9421],[21.8805,56.3646,117.6242],[21.8803,56.3602,119.0549],[21.8884,56.36,123.2344],[21.9046,56.3598,125.1353],[21.9048,56.3643,119.4393],[21.9291,56.3639,128.3656],[21.9294,56.3684,123.2061],[21.9456,56.3681,119.448],[21.9458,56.3726,118.821],[21.9539,56.3725,113.5755],[21.9541,56.377,112.0129],[21.9703,56.3767,101.2018],[21.9706,56.3812,112.8323],[21.9787,56.3811,97.7357],[21.9789,56.3855,98.2954],[21.987,56.3854,98.8521],[21.9875,56.3944,105.3254],[21.9956,56.3943,110.3919],[21.9968,56.4167,113.7738],[22.0373,56.416,98.8404]]]]}
,"properties": {"GID_1": "LVA.1_1","GID_0": "LVA","country": "Latvia","province": "Kurzeme","VARNAME_1": "NA","NL_NAME_1": "NA","TYPE_1": "Province","ENGTYPE_1": "Province","CC_1": "NA","HASC_1": "K","ISO_1": "NA","name": "Kurzeme.province","area_km2": 13489.73,"hist_schema_id": "Elevation0-9000","hist_area_km2": {"0": 1128.58,"25": 4361.6,"50": 3292.61,"75": 2089.44,"100": 1566.47,"125": 860.12,"150": 161.78,"175": 27.22,"200": 1.91}}}