{"type":"Feature","properties":{"ISO3166-1-Alpha-3":"LVA","country":"Latvia","fill":"#FF0","id":"5764","name":"Jurmala"},
"geometry":{"type": "Polygon","coordinates": [[[23.95445,56.99138,13.7719],[23.93428,56.99699,0.0],[23.9287,57.0059,0.1109],[23.92816,57.00666,0.4484],[23.92693,57.00633,0.4484],[23.86606,56.99018,8.022],[23.69516,56.96727,0.0],[23.63201,56.97093,0.0],[23.58513,56.97907,0.0],[23.57862,56.98208,0.0],[23.5786,56.98209,0.0],[23.57585,56.98053,0.0],[23.49979,56.96138,11.6182],[23.48382,56.94965,12.2713],[23.47343,56.94348,23.9826],[23.47514,56.94068,18.7217],[23.47715,56.93647,24.3823],[23.49203,56.93464,22.5462],[23.54927,56.92475,4.3176],[23.59039,56.92296,0.4096],[23.61363,56.9319,0.0],[23.63866,56.92833,1.7521],[23.67263,56.92833,15.8892],[23.7066,56.9319,3.2125],[23.76739,56.94263,18.6906],[23.7799,56.95693,1.837],[23.80136,56.94978,10.9899],[23.86393,56.95514,-0.6487],[23.90326,56.9623,0.5246],[23.93723,56.97302,3.5239],[23.95445,56.99138,13.7719]]]}}