{"type":"Feature","properties":{"ISO3166-1-Alpha-3":"LVA","country":"Latvia","fill":"#F0F","id":"5745","name":"Ciblas"},
"geometry":{"type": "Polygon","coordinates": [[[27.86546,56.74269,114.9078],[27.84381,56.74336,120.4673],[27.82051,56.72782,109.7728],[27.82051,56.68899,110.5371],[27.80239,56.66569,114.5731],[27.76097,56.69158,113.5884],[27.64448,56.6864,116.857],[27.5927,56.65534,135.4674],[27.58021,56.61944,154.1736],[27.56145,56.59965,149.8024],[27.56114,56.57593,141.598],[27.60306,56.57509,138.2535],[27.65742,56.56732,138.0919],[27.69108,56.56732,135.2555],[27.72473,56.53367,139.2814],[27.75579,56.52072,135.0643],[27.7765,56.54143,141.0054],[27.81275,56.55179,152.6034],[27.86452,56.52849,142.4029],[27.88523,56.49743,142.789],[27.91889,56.48189,163.3444],[27.94477,56.5026,151.0058],[27.98878,56.52331,122.0794],[28.0535,56.51814,109.7581],[28.09325,56.50159,109.9704],[28.09925,56.5134,105.1594],[28.12524,56.52715,112.9066],[28.13222,56.53598,115.1435],[28.12612,56.54776,104.4768],[28.10865,56.55518,108.8641],[28.02866,56.57675,111.1861],[28.01098,56.58755,113.1165],[27.99744,56.60383,109.9556],[27.99217,56.62499,115.7179],[27.99135,56.66998,116.7895],[27.98101,56.68701,104.3421],[27.88262,56.72548,109.6332],[27.86546,56.74269,114.9078]]]}}