{"type":"Feature","properties":{"ISO3166-1-Alpha-3":"LVA","country":"Latvia","fill":"#F0F","id":"5780","name":"Stopinu"},
"geometry":{"type": "Polygon","coordinates": [[[24.37168,56.94442,8.4972],[24.35201,56.95693,2.2894],[24.3202,56.96903,3.9334],[24.29906,56.95554,24.9127],[24.25845,56.94601,8.6598],[24.24651,56.94097,9.0005],[24.23468,56.9304,32.2548],[24.29659,56.92118,20.6683],[24.32519,56.91581,27.2437],[24.33592,56.89615,26.8252],[24.3538,56.91045,10.0],[24.40565,56.92654,25.8104],[24.37168,56.94442,8.4972]]]}}