{"type": "Feature","id": "5718","bbox": [20.96909,56.0726,21.48549,56.35594],"geometry": {"type": "Polygon","coordinates": [[[21.22635,56.35168,30.3168],[21.17944,56.35594,27.7627],[21.18371,56.32396,17.9063],[21.17944,56.28772,21.7323],[21.16452,56.26426,23.4737],[21.10909,56.21949,28.9664],[21.08563,56.22802,4.5581],[21.0835,56.19178,1.9239],[21.0835,56.16619,0.7176],[21.05579,56.16832,0.9657],[21.03447,56.2664,6.7973],[20.97104,56.25967,0.0],[20.96909,56.25349,0.0],[20.9734,56.232,0.0],[20.98406,56.21044,1.4822],[21.02882,56.14741,3.3996],[21.04274,56.11457,0.0],[21.05258,56.07754,0.0],[21.0534,56.07294,0.0],[21.0534,56.07262,0.0],[21.0534,56.0726,0.0],[21.09135,56.0779,0.737],[21.15016,56.07818,18.0493],[21.19037,56.08446,27.0606],[21.20535,56.10342,31.6304],[21.21259,56.13099,36.3126],[21.22964,56.16319,22.936],[21.25486,56.1852,29.6199],[21.29041,56.20693,44.0276],[21.32762,56.22437,52.7753],[21.35831,56.23324,40.9829],[21.40369,56.23448,31.3712],[21.41929,56.2374,30.9718],[21.48549,56.26579,27.2068],[21.45234,56.30264,25.8892],[21.37985,56.32822,12.0891],[21.26259,56.32609,24.7057],[21.22635,56.35168,30.3168]]]}
,"properties": {"ISO3166-1-Alpha-3": "LVA","country": "Latvia","fill": "#FF0","name": "Rucavas","area_km2": 426.1843,"hist_schema_id": "Elevation0-9000","hist_area_km2": {"0": 77.9816,"25": 271.2287,"50": 75.8788,"75": 1.0953}}}