{"type":"Feature","properties":{"ISO3166-1-Alpha-3":"LVA","country":"Latvia","fill":"#0F0","id":"1077","name":"Valkas"},
"geometry":{"type": "Polygon","coordinates": [[[26.35133,57.5802,57.6193],[26.33863,57.58315,55.6521],[26.29719,57.59915,78.3453],[26.26318,57.62083,67.8251],[26.16851,57.70405,78.8273],[26.13523,57.72477,72.8702],[26.02475,57.77436,52.8393],[26.01607,57.78668,58.2405],[26.01307,57.8073,93.5169],[26.01607,57.81647,79.3603],[26.02175,57.82241,77.9012],[26.02526,57.82841,74.5614],[26.02196,57.83794,83.3065],[26.01452,57.84283,69.8262],[26.00273,57.84598,79.1801],[25.79262,57.85598,76.3967],[25.7675,57.86892,87.3939],[25.75469,57.8889,88.0887],[25.74538,57.90918,99.3961],[25.73029,57.92313,96.9398],[25.715,57.92339,88.8425],[25.7038,57.92133,99.9854],[25.66608,57.91437,85.7908],[25.66047,57.89267,85.7571],[25.65734,57.87858,84.5739],[25.65337,57.86365,69.1167],[25.6135,57.86606,78.0017],[25.58281,57.88313,59.6076],[25.57413,57.88083,69.5735],[25.56591,57.87993,70.4302],[25.55661,57.88003,56.5752],[25.54653,57.87688,68.1463],[25.53501,57.8744,68.8836],[25.5223,57.86887,49.706],[25.50121,57.86823,48.2924],[25.46946,57.87388,52.7463],[25.46633,57.85979,51.891],[25.51114,57.84099,59.4056],[25.52602,57.82996,55.0314],[25.54235,57.82066,68.0856],[25.55537,57.81606,58.127],[25.56018,57.80758,54.588],[25.55506,57.79957,62.8275],[25.55289,57.79239,59.8477],[25.56483,57.78265,46.0921],[25.59628,57.77368,51.1517],[25.61664,57.75802,60.7993],[25.66047,57.7502,68.4989],[25.68866,57.73767,53.9245],[25.73509,57.73038,53.5748],[25.84742,57.75236,53.9076],[25.82788,57.70596,65.0324],[25.85718,57.70352,72.1185],[25.85963,57.68398,65.2728],[25.98905,57.67177,62.7092],[25.97928,57.6498,46.2832],[25.95974,57.6205,54.3102],[25.93288,57.60829,63.0526],[25.87672,57.6034,53.9731],[25.90114,57.58875,66.685],[25.90358,57.56922,71.5603],[25.88893,57.54968,56.7781],[25.89625,57.53014,59.0697],[25.94509,57.53014,63.9646],[25.97684,57.54968,63.5242],[26.05009,57.55945,78.9045],[26.09405,57.55945,77.4522],[26.12335,57.56922,67.3854],[26.1551,57.54724,71.7135],[26.1844,57.54724,88.0209],[26.24056,57.54235,64.8471],[26.24545,57.52282,77.9893],[26.28207,57.52526,72.0015],[26.30161,57.5277,73.1927],[26.3115,57.49933,79.6056],[26.36178,57.51282,88.2988],[26.36287,57.51564,89.2448],[26.36256,57.51985,84.8906],[26.3545,57.52282,83.5955],[26.34984,57.52967,74.4815],[26.34426,57.53323,72.2292],[26.34116,57.53778,64.2655],[26.34411,57.54238,65.2455],[26.34566,57.55191,70.9255],[26.35217,57.56088,68.2896],[26.35698,57.5707,57.5049],[26.35263,57.57623,57.2695],[26.35133,57.5802,57.6193]]]}}