{"type":"Feature","properties":{"GID_2":"LVA.4.5_1","GID_0":"LVA","country":"Latvia","GID_1":"LVA.4_1","province":"Vidzeme","NL_NAME_1":"NA","county":"Valka","VARNAME_2":"NA","NL_NAME_2":"NA","TYPE_2":"Aprinki|rajoni","ENGTYPE_2":"District","CC_2":"NA","HASC_2":"LV.VK","name":"Valka.county"},
"geometry":{"type": "MultiPolygon","coordinates": [[[[25.6954,57.9037,86.8971],[25.6946,57.8987,88.2547],[25.6861,57.899,88.6435],[25.6847,57.8901,80.9257],[25.6931,57.8897,89.0477],[25.6917,57.8808,73.6736],[25.6833,57.8811,73.8321],[25.6804,57.8632,76.8514],[25.6552,57.8644,78.3312],[25.6559,57.868899999999996,73.1597],[25.6475,57.8692,73.7035],[25.6482,57.8737,73.8741],[25.6229,57.8749,72.6008],[25.6236,57.8793,72.7685],[25.6152,57.8797,71.366],[25.6159,57.8842,82.57],[25.6075,57.8846,74.2935],[25.6082,57.889,78.0575],[25.5998,57.8894,70.7086],[25.6005,57.8939,85.4666],[25.5752,57.895,64.0393],[25.5738,57.8861,62.7868],[25.5654,57.8865,65.2145],[25.5661,57.8909,67.0964],[25.5408,57.8921,63.5026],[25.5401,57.8876,59.5836],[25.5317,57.888,65.9546],[25.5303,57.879,54.0555],[25.5219,57.8794,52.8854],[25.5212,57.8749,56.2602],[25.5044,57.8756,59.867],[25.5051,57.8801,50.5977],[25.4967,57.8805,56.0693],[25.4973,57.885,49.5638],[25.4889,57.8853,63.5603],[25.4875,57.8764,54.066],[25.4791,57.8768,52.9992],[25.4778,57.8678,62.3764],[25.4862,57.8674,59.1343],[25.4855,57.863,56.4821],[25.4939,57.8626,59.016],[25.4932,57.8581,54.5372],[25.5016,57.8577,66.3025],[25.5009,57.8533,49.4467],[25.5093,57.8529,55.6816],[25.5087,57.8484,65.8154],[25.5171,57.848,64.0177],[25.5164,57.8436,53.1052],[25.5248,57.8432,55.7571],[25.5241,57.8387,53.8444],[25.5325,57.8383,55.5716],[25.5318,57.8339,53.6443],[25.5402,57.8335,62.9468],[25.5395,57.829,53.5171],[25.5647,57.8279,53.3927],[25.5641,57.8234,51.2802],[25.5725,57.8231,55.8111],[25.5704,57.8096,55.2238],[25.5536,57.8104,53.8309],[25.5515,57.797,64.6005],[25.5599,57.7966,73.5565],[25.5585,57.7876,72.7081],[25.5417,57.7884,65.6087],[25.541,57.7839,50.0681],[25.5242,57.7846,61.3963],[25.5235,57.7802,59.0729],[25.5151,57.7805,69.7629],[25.5137,57.7716,60.0946],[25.5221,57.7712,76.7612],[25.5214,57.7667,59.3355],[25.5298,57.7664,66.7337],[25.5291,57.7619,53.7543],[25.5459,57.7611,62.2794],[25.5438,57.7477,62.601],[25.5606,57.747,61.5739],[25.5599,57.7425,64.052],[25.5515,57.7429,59.0733],[25.5488,57.725,87.3946],[25.5404,57.7253,86.5157],[25.5397,57.7209,79.0443],[25.5145,57.722,82.6219],[25.5139,57.7175,81.7683],[25.4887,57.7186,83.5823],[25.4873,57.7097,78.3993],[25.479,57.71,83.6202],[25.4783,57.7056,85.6513],[25.4867,57.7052,79.264],[25.486,57.7007,82.1485],[25.4944,57.7003,77.9892],[25.4923,57.6869,87.7792],[25.5007,57.6865,76.3573],[25.5,57.6821,82.9495],[25.5084,57.6817,82.5661],[25.5077,57.6772,87.3192],[25.5244,57.6765,68.4734],[25.521,57.6541,64.5424],[25.5126,57.6545,66.3902],[25.5119,57.65,79.8347],[25.5203,57.6496,64.1861],[25.5189,57.6407,64.9154],[25.5356,57.6399,64.8896],[25.535,57.6355,65.7646],[25.5684,57.634,60.529],[25.5677,57.6295,61.8013],[25.5928,57.6284,53.1494],[25.5921,57.6239,53.1219],[25.6005,57.6235,60.2124],[25.5991,57.6146,46.4222],[25.590699999999998,57.6149,47.0479],[25.5893,57.606,49.7595],[25.5977,57.6056,48.0041],[25.597,57.6011,55.781],[25.6053,57.6007,50.9981],[25.6046,57.5963,63.6526],[25.6213,57.5955,62.301],[25.6206,57.591,57.6667],[25.6457,57.5899,68.9312],[25.6464,57.5944,54.8032],[25.6547,57.594,66.0239],[25.654,57.5895,52.3898],[25.6624,57.5891,64.4309],[25.661,57.5802,47.4567],[25.6693,57.5798,60.2393],[25.6672,57.5664,63.2765],[25.6756,57.566,60.1739],[25.6735,57.5526,55.8664],[25.6651,57.553,65.4321],[25.6644,57.5485,62.0596],[25.6561,57.5489,51.0337],[25.6554,57.5444,61.5186],[25.6387,57.5452,56.8027],[25.6373,57.5362,87.8298],[25.6206,57.537,62.901],[25.6192,57.528,74.0952],[25.6109,57.5284,71.8587],[25.6095,57.5194,69.9807],[25.6178,57.5191,75.4014],[25.6157,57.5056,80.2057],[25.6241,57.5053,74.4634],[25.6227,57.4963,79.994],[25.6477,57.4952,60.8326],[25.647,57.4907,53.1227],[25.6636,57.4899,60.5699],[25.6629,57.4855,72.6796],[25.6713,57.4851,74.3487],[25.6699,57.4761,68.7746],[25.6615,57.4765,62.4299],[25.6608,57.472,65.0227],[25.6594,57.4631,73.2229],[25.6677,57.4627,67.0857],[25.6649,57.4448,76.3012],[25.6733,57.4444,75.4124],[25.6726,57.4399,66.1586],[25.6809,57.4396,67.9333],[25.6802,57.4351,70.1067],[25.6885,57.4347,71.5089],[25.6871,57.4258,92.0444],[25.6954,57.4254,97.7853],[25.694,57.4164,96.4585],[25.7023,57.416,118.1],[25.7016,57.4116,108.6873],[25.7099,57.4112,126.2758],[25.7092,57.4067,139.1766],[25.7009,57.4071,124.1341],[25.7002,57.4026,127.264],[25.6919,57.403,118.7485],[25.6905,57.394,125.5996],[25.7071,57.3933,145.2238],[25.705,57.3798,186.2086],[25.7133,57.3795,174.1504],[25.7126,57.375,186.7731],[25.7209,57.3746,181.8679],[25.7181,57.3567,199.7881],[25.7347,57.3559,196.2612],[25.7339,57.3515,210.4709],[25.7422,57.3511,203.9192],[25.7415,57.3466,227.2094],[25.7498,57.3462,213.0003],[25.7491,57.3417,229.4131],[25.7574,57.3413,225.5404],[25.7567,57.3369,224.9631],[25.7484,57.3373,236.7371],[25.7477,57.3328,222.0475],[25.7311,57.3336,221.2326],[25.7304,57.3291,218.6137],[25.7221,57.3295,218.2629],[25.7207,57.3205,202.5147],[25.729,57.3201,221.814],[25.7241,57.2888,208.7676],[25.7324,57.2884,219.8042],[25.7317,57.284,213.3293],[25.7565,57.2828,207.7816],[25.7572,57.2873,210.8159],[25.782,57.2861,207.906],[25.7828,57.2906,208.8216],[25.8242,57.2886,200.9043],[25.8234,57.2841,211.6818],[25.84,57.2834,215.9873],[25.8393,57.2789,200.4076],[25.8476,57.2785,196.4166],[25.849,57.2874,202.5069],[25.8656,57.2867,198.2609],[25.8663,57.2911,219.9781],[25.8994,57.2895,207.268],[25.9001,57.294,210.6336],[25.9333,57.2924,197.0103],[25.934,57.2969,186.6725],[25.9423,57.2965,193.0708],[25.9415,57.292,199.1945],[25.9498,57.2916,202.1575],[25.9746,57.2904,196.9716],[25.9754,57.2949,202.2032],[26.0168,57.2929,188.5075],[26.016,57.2884,179.904],[26.0243,57.288,187.3143],[26.0236,57.2835,195.6235],[26.0484,57.2823,181.0558],[26.0462,57.2689,176.4786],[26.0545,57.2685,174.096],[26.0552,57.2729,172.1156],[26.0635,57.2725,174.1183],[26.0642,57.277,169.8967],[26.0725,57.2766,173.8985],[26.0732,57.2811,174.6944],[26.0815,57.2807,168.9319],[26.0823,57.2851,171.3067],[26.1071,57.2839,172.4427],[26.1063,57.2794,161.097],[26.1146,57.279,155.738],[26.1139,57.2745,156.9283],[26.1387,57.2733,150.2488],[26.1402,57.2822,143.8532],[26.2064,57.2789,154.3072],[26.2072,57.2834,165.0988],[26.2485,57.2813,138.6776],[26.2493,57.2858,133.9133],[26.2659,57.2849,138.8626],[26.2666,57.2894,132.6789],[26.2674,57.2939,140.9104],[26.2591,57.2943,142.4699],[26.2599,57.2988,139.7975],[26.2516,57.2992,136.1031],[26.2531,57.3081,135.9426],[26.2614,57.3077,130.7401],[26.2622,57.3122,115.0998],[26.2705,57.3118,123.4121],[26.2697,57.3073,129.8581],[26.278,57.3069,118.3682],[26.2863,57.3064,118.0023],[26.287,57.3109,115.058],[26.2953,57.3105,129.8422],[26.2969,57.3194,123.0156],[26.2886,57.3198,122.0537],[26.2894,57.3243,116.4421],[26.2728,57.3252,109.7604],[26.2743,57.3341,107.0419],[26.2826,57.3337,121.8163],[26.2865,57.356,115.752],[26.2873,57.3605,111.4876],[26.279,57.3609,115.4548],[26.2797,57.3654,106.4882],[26.288,57.365,108.1166],[26.2896,57.3739,118.2715],[26.2979,57.3735,117.0603],[26.2987,57.378,106.1348],[26.3153,57.3771,101.7029],[26.316,57.3816,107.567],[26.3077,57.382,101.368],[26.3085,57.3865,109.7373],[26.3002,57.3869,109.9416],[26.3025,57.4003,97.2382],[26.3108,57.3999,101.5171],[26.3116,57.4044,103.6868],[26.3033,57.4048,97.92],[26.3041,57.4093,96.0052],[26.3124,57.4088,104.8934],[26.3155,57.4267,84.1201],[26.3238,57.4263,97.3514],[26.3246,57.4308,98.6433],[26.3163,57.4312,96.038],[26.3171,57.4357,85.8783],[26.3088,57.4361,85.0309],[26.3096,57.4406,87.8769],[26.3012,57.441,90.1692],[26.3005,57.4365,84.28],[26.2922,57.4369,90.9983],[26.296,57.4593,80.0443],[26.3127,57.4584,80.4137],[26.3119,57.454,82.0968],[26.3202,57.4536,85.9634],[26.3225,57.467,83.4304],[26.3309,57.4665,89.9574],[26.3316,57.471,93.5415],[26.315,57.4719,85.1959],[26.3189,57.4942,77.7885],[26.3106,57.4946,76.0113],[26.3122,57.5036,89.0397],[26.3288,57.5027,73.6504],[26.3296,57.5072,79.9224],[26.3546,57.5059,89.0983],[26.3554,57.5104,83.7074],[26.372,57.5095,85.5781],[26.3736,57.5185,80.8685],[26.3819,57.518,85.0934],[26.3827,57.5225,57.9962],[26.3577,57.5238,75.9335],[26.3601,57.5372,61.4728],[26.3434,57.5381,62.9727],[26.3442,57.5425,65.2455],[26.3525,57.5421,63.8982],[26.3533,57.5466,69.3774],[26.345,57.547,66.9295],[26.3458,57.5515,70.9255],[26.3374,57.5519,71.0712],[26.3382,57.5564,66.6236],[26.3466,57.556,59.6936],[26.3481,57.5649,65.7941],[26.3565,57.5645,61.8185],[26.3573,57.5689,57.2606],[26.3656,57.5685,60.3609],[26.3672,57.5774,68.4931],[26.3755,57.577,66.8493],[26.3763,57.5815,71.7359],[26.3513,57.5828,57.8847],[26.3521,57.5872,59.2751],[26.3187,57.5889,55.6064],[26.3195,57.5934,53.904],[26.3111,57.5938,57.9928],[26.3119,57.5983,77.9053],[26.2869,57.5996,70.7653],[26.2877,57.6041,71.9442],[26.271,57.6049,54.1559],[26.2718,57.6094,58.2478],[26.2634,57.6103,56.0569],[26.2608,57.6131,56.6087],[26.2551,57.614,56.378],[26.2564,57.618,56.0901],[26.2522,57.6183,55.8458],[26.2564,57.6209,56.3086],[26.2477,57.6205,55.3519],[26.2498,57.6225,54.5896],[26.2496,57.6276,54.7786],[26.2405,57.6338,52.8621],[26.2425,57.6352,59.6108],[26.2453,57.6513,66.9122],[26.2431,57.6514,50.4085],[26.2383,57.6554,56.2725],[26.2397,57.6577,57.0466],[26.2381,57.6581,56.0503],[26.2385,57.6607,57.5765],[26.2223,57.6618,55.8673],[26.2234,57.6704,54.25],[26.215,57.6709,59.3703],[26.2158,57.6753,58.6895],[26.2074,57.6758,63.384],[26.2082,57.6801,57.8902],[26.2016,57.6811,51.4585],[26.2001,57.6836,56.0351],[26.196,57.6852,54.4209],[26.1863,57.6851,52.7709],[26.1793,57.6876,55.5731],[26.1823,57.6916,50.6563],[26.1885,57.6945,76.5141],[26.1986,57.7091,71.0937],[26.2057,57.715,70.5647],[26.1969,57.7204,67.9429],[26.1901,57.7221,68.4046],[26.1908,57.7262,60.2397],[26.1824,57.7266,61.3858],[26.1832,57.7311,70.9759],[26.1581,57.7323,83.8876],[26.1588,57.7368,70.5439],[26.1421,57.7376,77.3523],[26.1428,57.7421,87.0843],[26.1385,57.7423,90.4051],[26.1413,57.7439,93.8674],[26.1414,57.7455,86.6139],[26.1366,57.7508,77.6798],[26.1286,57.7531,73.6236],[26.1092,57.7569,78.3342],[26.0787,57.7668,77.3293],[26.078,57.7647,71.7101],[26.0747,57.7646,72.1498],[26.0706,57.767,73.2433],[26.0618,57.7626,61.0888],[26.062,57.7641,63.0419],[26.0475,57.7648,57.6756],[26.0456,57.7667,61.9673],[26.046,57.7694,58.5799],[26.0377,57.7702,57.5481],[26.0384,57.7743,65.7909],[26.0264,57.7754,50.2872],[26.0274,57.7815,55.2548],[26.0247,57.7833,66.0813],[26.0289,57.789,63.5057],[26.0329,57.7898,62.7432],[26.0353,57.8001,69.6079],[26.0388,57.8058,71.7976],[26.0386,57.8101,75.9949],[26.0505,57.8226,84.8062],[26.055,57.8307,82.8334],[26.0549,57.8335,73.855],[26.0586,57.8368,74.7879],[26.0581,57.8465,78.7749],[26.0565,57.8484,78.9519],[26.0476,57.8492,78.7293],[26.047,57.8505,80.8889],[26.0159,57.852,67.5594],[26.0109,57.8582,86.7246],[26.0018,57.8588,84.8421],[26.0023,57.8617,86.0391],[25.9939,57.8621,86.9177],[25.9931,57.8576,77.2841],[25.9847,57.858,84.9142],[25.984,57.8535,80.0086],[25.9672,57.8544,79.2932],[25.9664,57.8499,75.2895],[25.9407,57.8511,79.2171],[25.9315,57.8534,77.2644],[25.9167,57.8523,82.9872],[25.8907,57.8535,65.2247],[25.8915,57.858,67.3322],[25.8768,57.859,69.2278],[25.8761,57.8651,66.0434],[25.8635,57.8593,91.9868],[25.8578,57.8595,91.5246],[25.8586,57.864,80.3776],[25.8417,57.8648,79.8347],[25.8425,57.8693,79.8123],[25.8341,57.8697,74.7687],[25.8348,57.8741,79.7428],[25.818,57.8749,78.5552],[25.8187,57.8794,79.2279],[25.8103,57.8798,85.4055],[25.811,57.8843,87.6682],[25.8026,57.8847,81.7994],[25.8033,57.8891,82.9469],[25.795,57.8895,80.3746],[25.7956,57.894,82.9819],[25.7902,57.8943,80.583],[25.7861,57.8983,81.5733],[25.7879,57.8989,89.0451],[25.7851,57.8992,88.4165],[25.7883,57.9046,90.8213],[25.7733,57.9131,88.625],[25.765,57.9145,91.5562],[25.7656,57.9179,106.2691],[25.75,57.9186,89.6211],[25.7385,57.9237,87.82],[25.727,57.9221,91.1178],[25.7208,57.9131,94.5052],[25.7174,57.9111,92.9969],[25.7136,57.9113,94.7414],[25.7132,57.9088,97.5087],[25.7098,57.907,87.1933],[25.696,57.9076,91.188],[25.6954,57.9037,86.8971]]]]}}