{"type": "Feature","bbox": [24.7712,56.9402,26.1671,57.5208],"geometry": {"type": "MultiPolygon","coordinates": [[[[24.8856,57.316,57.1417],[24.8939,57.3156,47.4891],[24.8933,57.3112,45.4162],[24.9099,57.3105,64.1217],[24.9093,57.306,57.2066],[24.9259,57.3054,53.3346],[24.9253,57.3009,54.7977],[24.9336,57.3005,54.3365],[24.933,57.2961,49.0108],[24.9413,57.2957,83.4574],[24.9407,57.2912,72.1222],[24.949,57.2909,87.4358],[24.9471,57.2775,74.3566],[24.9388,57.2778,78.1542],[24.9382,57.2733,85.6012],[24.9376,57.2688,92.1515],[24.9459,57.2685,29.7161],[24.9447,57.2596,38.4513],[24.9364,57.2599,61.2254],[24.9352,57.2509,56.2543],[24.9187,57.2516,90.0978],[24.918,57.2471,72.6781],[24.9263,57.2468,19.8198],[24.9257,57.2423,21.5245],[24.9174,57.2426,49.3552],[24.9168,57.2382,26.5681],[24.9086,57.2385,68.7993],[24.908,57.234,36.2505],[24.8997,57.2343,60.2924],[24.8991,57.2299,66.6613],[24.9156,57.2292,34.357],[24.915,57.2247,61.2547],[24.9233,57.2244,82.5322],[24.9239,57.2289,60.4345],[24.9322,57.2285,79.9018],[24.9316,57.2241,85.8069],[24.9399,57.2237,89.3559],[24.9392,57.2192,83.9192],[24.9475,57.2189,85.7819],[24.9463,57.21,93.405],[24.9546,57.2096,101.5256],[24.954,57.2051,105.6257],[24.9705,57.2045,111.2819],[24.9699,57.2,120.4561],[24.9782,57.1997,115.8728],[24.9769,57.1907,122.4524],[24.9852,57.1904,124.6335],[24.9809,57.159,123.9067],[24.9892,57.1587,122.4477],[24.9886,57.1542,122.8982],[24.9803,57.1545,124.6506],[24.9797,57.15,123.052],[24.9715,57.1504,126.3233],[24.9709,57.1459,135.9387],[24.9791,57.1456,126.1982],[24.9779,57.1366,123.3787],[24.9861,57.1363,122.9852],[24.9801,57.0915,111.9156],[24.9883,57.0911,103.4372],[24.9877,57.0867,99.1238],[24.9795,57.087,107.686],[24.9782,57.078,104.2955],[24.9865,57.0777,102.6137],[24.9847,57.0643,114.7617],[24.9929,57.0639,112.1919],[24.9923,57.0595,104.8571],[25.0088,57.0588,115.2132],[25.0081,57.0543,108.0866],[25.0329,57.0533,111.3218],[25.0322,57.0488,108.8771],[25.0487,57.0481,128.02],[25.0462,57.0302,109.4845],[25.0545,57.0299,107.2566],[25.0551,57.0344,109.0998],[25.0715,57.0337,102.7296],[25.0709,57.0292,106.2062],[25.0792,57.0289,107.7903],[25.0785,57.0244,103.6487],[25.095,57.0237,105.1649],[25.0938,57.0147,115.3159],[25.1102,57.014,124.7893],[25.1096,57.0096,112.3408],[25.126,57.0089,112.871],[25.1254,57.0044,115.5797],[25.1336,57.004,117.672],[25.133,56.9996,113.8192],[25.1412,56.9992,130.9441],[25.1387,56.9813,109.4704],[25.1469,56.981,108.4433],[25.1444,56.9631,106.8329],[25.1362,56.9634,109.0118],[25.1356,56.9589,106.5085],[25.1438,56.9586,110.5594],[25.1426,56.9496,103.4436],[25.1508,56.9493,107.7388],[25.152,56.9582,114.9805],[25.1602,56.9579,105.0914],[25.1596,56.9534,124.2445],[25.2007,56.9517,106.278],[25.2,56.9472,113.6728],[25.2411,56.9454,113.2401],[25.2405,56.9409,111.3702],[25.2569,56.9402,126.7249],[25.2588,56.9537,146.9831],[25.267,56.9533,157.804],[25.2676,56.9578,160.678],[25.2594,56.9581,149.9934],[25.2601,56.9626,153.5161],[25.2683,56.9623,159.3497],[25.2689,56.9667,156.4993],[25.2853,56.966,165.4516],[25.2873,56.9795,170.2044],[25.3119,56.9784,197.5442],[25.3126,56.9829,197.5627],[25.3208,56.9825,199.3866],[25.3221,56.9915,193.8716],[25.3632,56.9897,177.1364],[25.3625,56.9852,164.9976],[25.3707,56.9848,176.6005],[25.3694,56.9759,173.021],[25.3776,56.9755,174.9402],[25.3763,56.9666,176.6549],[25.3845,56.9662,182.7262],[25.3819,56.9483,191.2963],[25.3983,56.9476,153.9107],[25.3977,56.9431,161.796],[25.4223,56.942,158.125],[25.4236,56.951,156.6928],[25.4318,56.9506,167.3131],[25.4325,56.9551,169.2528],[25.4407,56.9547,184.0557],[25.4414,56.9592,187.5488],[25.4496,56.9588,194.6921],[25.4502,56.9633,205.9854],[25.442,56.9636,181.8574],[25.4427,56.9681,185.654],[25.4591,56.9674,187.7281],[25.4598,56.9719,191.8126],[25.468,56.9715,192.536],[25.4693,56.9805,193.9927],[25.4775,56.9801,188.3219],[25.4782,56.9846,218.8632],[25.47,56.9849,210.8864],[25.4706,56.9894,216.7669],[25.446,56.9905,191.5914],[25.4467,56.995,188.882],[25.4549,56.9946,196.6292],[25.4555,56.9991,196.6378],[25.4802,56.998,220.2048],[25.4815,57.0069,206.0761],[25.498,57.0062,210.069],[25.4986,57.0107,223.3387],[25.5233,57.0096,215.5591],[25.5226,57.0051,205.7243],[25.5473,57.004,199.1785],[25.5466,56.9995,199.9646],[25.5548,56.9991,201.2902],[25.5542,56.9947,195.3033],[25.5624,56.9943,196.1927],[25.5617,56.9898,196.3219],[25.5863,56.9887,197.9473],[25.587,56.9931,206.0449],[25.6117,56.992,193.8337],[25.6123,56.9965,198.3167],[25.6206,56.9961,208.7517],[25.6212,57.0006,201.7596],[25.6295,57.0002,199.4744],[25.6302,57.0047,196.8721],[25.6384,57.0043,196.1236],[25.6391,57.0088,192.53],[25.6473,57.0084,187.1451],[25.6459,56.9995,182.3258],[25.6377,56.9998,197.567],[25.6375,56.9985,191.565],[25.637,56.9954,190.4104],[25.6452,56.995,190.8903],[25.6445,56.9905,189.134],[25.6363,56.9909,195.9807],[25.6336,56.973,188.2665],[25.6418,56.9726,191.5055],[25.6411,56.9681,188.1177],[25.6493,56.9677,194.6747],[25.65,56.9722,198.4816],[25.6582,56.9718,207.0217],[25.6589,56.9763,197.4965],[25.6753,56.9756,196.3082],[25.676,56.98,201.5509],[25.6842,56.9796,197.5013],[25.6849,56.9841,193.6944],[25.7013,56.9834,194.8978],[25.702,56.9878,201.1323],[25.7102,56.9874,194.9102],[25.7123,57.0009,194.7319],[25.7205,57.0005,195.7678],[25.7212,57.005,184.9648],[25.7541,57.0034,191.3545],[25.7527,56.9945,183.7354],[25.7609,56.9941,188.4193],[25.7602,56.9896,190.5355],[25.7931,56.988,193.1153],[25.7945,56.997,195.485],[25.8273,56.9954,197.5399],[25.8259,56.9865,183.5222],[25.8341,56.9861,198.7225],[25.8334,56.9816,191.6227],[25.8416,56.9812,193.02],[25.8409,56.9767,198.5142],[25.8491,56.9764,200.6115],[25.8477,56.9674,192.4896],[25.8641,56.9666,197.3636],[25.8649,56.9711,198.1167],[25.8977,56.9695,195.6488],[25.8984,56.974,195.1165],[25.9066,56.9736,190.8599],[25.9073,56.9781,207.3754],[25.9238,56.9773,194.0776],[25.9245,56.9817,194.5399],[25.9327,56.9813,194.394],[25.9341,56.9903,207.7348],[25.9259,56.9907,209.7932],[25.9288,57.0086,222.6513],[25.9206,57.009,229.1231],[25.9213,57.0135,234.4417],[25.8884,57.015,195.6987],[25.8891,57.0195,212.9281],[25.8974,57.0191,222.4373],[25.8988,57.0281,241.4193],[25.8995,57.0325,242.0141],[25.8913,57.0329,201.3365],[25.8927,57.0419,224.0395],[25.901,57.0415,239.5578],[25.9046,57.0639,231.7641],[25.9128,57.0635,244.9206],[25.9157,57.0814,243.1017],[25.9239,57.081,243.6149],[25.9261,57.0944,255.6646],[25.9343,57.094,244.0503],[25.9365,57.1074,233.072],[25.953,57.1066,250.0017],[25.9537,57.1111,249.6012],[25.9702,57.1103,232.6039],[25.9694,57.1058,232.5785],[25.9777,57.1054,230.1273],[25.9769,57.1009,233.9123],[26.0016,57.0997,225.9121],[26.0009,57.0952,227.2547],[26.0092,57.0948,218.4517],[26.0084,57.0904,236.5967],[26.0331,57.0891,209.6685],[26.0324,57.0847,206.2488],[26.0571,57.0835,193.6626],[26.06,57.1013,186.8852],[26.0765,57.1005,188.8285],[26.0758,57.0961,187.6118],[26.1005,57.0948,185.3199],[26.0997,57.0904,178.8187],[26.1162,57.0895,168.7815],[26.1177,57.0985,178.162],[26.1259,57.0981,186.2507],[26.1274,57.107,174.7952],[26.1357,57.1066,165.671],[26.1364,57.1111,173.6189],[26.1282,57.1115,176.2599],[26.1297,57.1204,191.6205],[26.1379,57.12,184.2478],[26.1394,57.129,210.4759],[26.1476,57.1285,186.8317],[26.1484,57.133,196.0108],[26.1566,57.1326,201.228],[26.1574,57.1371,196.5012],[26.1656,57.1367,182.313],[26.1671,57.1456,200.2524],[26.1589,57.146,192.6106],[26.1596,57.1505,201.1005],[26.1514,57.1509,202.7824],[26.1537,57.1643,213.1619],[26.1454,57.1647,231.4554],[26.1462,57.1692,235.0184],[26.1379,57.1696,235.739],[26.1387,57.1741,237.865],[26.1304,57.1745,219.2246],[26.1312,57.179,218.8267],[26.1229,57.1794,203.6006],[26.1237,57.1839,190.1518],[26.1154,57.1843,177.4191],[26.1176,57.1977,200.6756],[26.1094,57.1981,173.3743],[26.1101,57.2026,168.7277],[26.1019,57.203,190.8456],[26.1041,57.2164,158.7574],[26.0876,57.2172,155.2324],[26.0883,57.2217,153.6402],[26.0718,57.2225,152.5554],[26.0726,57.227,163.7527],[26.0643,57.2274,169.4578],[26.0636,57.2229,159.5598],[26.0222,57.225,189.7454],[26.023,57.2294,182.0886],[26.0065,57.2302,188.363],[26.0072,57.2347,186.8002],[25.9989,57.2351,180.2346],[26.0026,57.2575,176.4901],[26.0274,57.2563,183.9581],[26.028199999999998,57.2607,175.8835],[26.0364,57.2603,176.0877],[26.0357,57.2559,184.309],[26.0605,57.2546,169.418],[26.062,57.2636,173.1335],[26.0537,57.264,170.7796],[26.0545,57.2685,174.096],[26.0462,57.2689,176.4786],[26.0484,57.2823,181.0558],[26.0236,57.2835,195.6235],[26.0243,57.288,187.3143],[26.016,57.2884,179.904],[26.0168,57.2929,188.5075],[25.9754,57.2949,202.2032],[25.9746,57.2904,196.9716],[25.9498,57.2916,202.1575],[25.9415,57.292,199.1945],[25.9423,57.2965,193.0708],[25.934,57.2969,186.6725],[25.9333,57.2924,197.0103],[25.9001,57.294,210.6336],[25.8994,57.2895,207.268],[25.8663,57.2911,219.9781],[25.8656,57.2867,198.2609],[25.849,57.2874,202.5069],[25.8476,57.2785,196.4166],[25.8393,57.2789,200.4076],[25.84,57.2834,215.9873],[25.8234,57.2841,211.6818],[25.8242,57.2886,200.9043],[25.7828,57.2906,208.8216],[25.782,57.2861,207.906],[25.7572,57.2873,210.8159],[25.7565,57.2828,207.7816],[25.7317,57.284,213.3293],[25.7324,57.2884,219.8042],[25.7241,57.2888,208.7676],[25.729,57.3201,221.814],[25.7207,57.3205,202.5147],[25.7221,57.3295,218.2629],[25.7304,57.3291,218.6137],[25.7311,57.3336,221.2326],[25.7477,57.3328,222.0475],[25.7484,57.3373,236.7371],[25.7567,57.3369,224.9631],[25.7574,57.3413,225.5404],[25.7491,57.3417,229.4131],[25.7498,57.3462,213.0003],[25.7415,57.3466,227.2094],[25.7422,57.3511,203.9192],[25.7339,57.3515,210.4709],[25.7347,57.3559,196.2612],[25.7181,57.3567,199.7881],[25.7209,57.3746,181.8679],[25.7126,57.375,186.7731],[25.7133,57.3795,174.1504],[25.705,57.3798,186.2086],[25.7071,57.3933,145.2238],[25.6905,57.394,125.5996],[25.6919,57.403,118.7485],[25.7002,57.4026,127.264],[25.7009,57.4071,124.1341],[25.7092,57.4067,139.1766],[25.7099,57.4112,126.2758],[25.7016,57.4116,108.6873],[25.7023,57.416,118.1],[25.694,57.4164,96.4585],[25.6954,57.4254,97.7853],[25.6871,57.4258,92.0444],[25.6885,57.4347,71.5089],[25.6802,57.4351,70.1067],[25.6809,57.4396,67.9333],[25.6726,57.4399,66.1586],[25.6733,57.4444,75.4124],[25.6649,57.4448,76.3012],[25.6677,57.4627,67.0857],[25.6511,57.4635,65.9508],[25.6518,57.4679,66.7668],[25.6435,57.4683,71.0261],[25.6428,57.4638,78.7674],[25.6095,57.4654,67.7757],[25.6088,57.4609,67.7529],[25.6005,57.4613,66.9444],[25.6012,57.4657,68.351],[25.5928,57.4661,68.9055],[25.5922,57.4616,65.1198],[25.5838,57.462,71.9099],[25.5831,57.4575,75.513],[25.5665,57.4583,68.2865],[25.5658,57.4538,80.4554],[25.5575,57.4542,75.0388],[25.5547,57.4363,66.8777],[25.5464,57.4367,69.0489],[25.5457,57.4322,68.1364],[25.5208,57.4333,68.9918],[25.5215,57.4378,75.4328],[25.5132,57.4381,73.092],[25.5152,57.4516,64.5895],[25.4902,57.4527,66.3027],[25.4896,57.4482,79.7082],[25.4812,57.4486,68.1382],[25.4806,57.4441,79.4052],[25.4722,57.4445,70.631],[25.4716,57.44,64.9377],[25.4383,57.4415,63.9859],[25.439,57.4459,75.1591],[25.4307,57.4463,59.1647],[25.43,57.4418,60.9725],[25.4217,57.4422,63.7323],[25.4223,57.4467,51.6525],[25.414,57.447,68.927],[25.4133,57.4426,81.7868],[25.3884,57.4437,69.3663],[25.3877,57.4392,56.3393],[25.4044,57.4385,33.3294],[25.403,57.4295,51.6374],[25.3864,57.4302,61.214],[25.3844,57.4168,68.1408],[25.3927,57.4164,29.0542],[25.3914,57.4075,34.3577],[25.3907,57.403,50.0022],[25.3824,57.4034,53.0367],[25.3811,57.3944,38.6978],[25.3894,57.3941,27.6743],[25.3887,57.3896,43.8594],[25.3804,57.3899,32.7332],[25.3797,57.3855,40.8769],[25.3465,57.3869,83.0109],[25.3485,57.4003,70.9952],[25.3236,57.4014,75.6339],[25.3249,57.4104,84.3542],[25.3083,57.4111,70.5294],[25.3069,57.4021,72.8411],[25.2986,57.4025,72.5002],[25.298,57.398,82.2677],[25.2897,57.3984,69.7678],[25.2903,57.4028,76.7843],[25.282,57.4032,73.0926],[25.2814,57.3987,79.9484],[25.273,57.3991,63.4166],[25.2737,57.4036,66.8703],[25.2654,57.4039,65.7622],[25.2667,57.4129,65.4122],[25.2584,57.4132,53.1226],[25.259,57.4177,53.0904],[25.2424,57.4184,68.0952],[25.243,57.4229,68.1975],[25.2264,57.4236,68.9686],[25.2251,57.4146,65.9548],[25.1919,57.416,60.0],[25.1931,57.425,66.7905],[25.1848,57.4254,60.0],[25.1867,57.4388,71.6201],[25.1784,57.4391,61.1302],[25.1791,57.4436,68.5133],[25.1707,57.444,64.6799],[25.1714,57.4484,71.6818],[25.1631,57.4488,69.1084],[25.1637,57.4533,66.6772],[25.1387,57.4543,66.3582],[25.1438,57.4901,67.2456],[25.1355,57.4905,70.777],[25.1361,57.495,67.9766],[25.1278,57.4953,75.1179],[25.1284,57.4998,67.5337],[25.1201,57.5001,71.1666],[25.1194,57.4956,71.7667],[25.1028,57.4963,75.6771],[25.1021,57.4919,65.2454],[25.0938,57.4922,80.4804],[25.0944,57.4967,82.3611],[25.0861,57.497,77.3521],[25.0867,57.5015,82.4927],[25.0784,57.5018,81.8013],[25.079,57.5063,87.8081],[25.0957,57.5056,83.9908],[25.097,57.5146,82.8286],[25.0636,57.516,89.1112],[25.0642,57.5204,85.5802],[25.0559,57.5208,97.5829],[25.0553,57.5163,85.3658],[25.0469,57.5166,86.2148],[25.0463,57.5122,87.2698],[25.038,57.5125,104.3187],[25.0367,57.5035,101.7036],[25.0284,57.5039,88.1895],[25.0265,57.4905,88.1798],[25.0015,57.4915,101.6781],[25.0009,57.487,92.9098],[25.0092,57.4866,89.7253],[25.0086,57.4822,90.0688],[25.0169,57.4818,90.0198],[25.0151,57.4684,85.5217],[24.9901,57.4694,83.9433],[24.9895,57.4649,87.2925],[24.9811,57.4653,82.5373],[24.9805,57.4608,78.7751],[24.9722,57.4611,72.7967],[24.9716,57.4566,74.3],[24.9549,57.4573,71.3871],[24.9543,57.4528,69.4487],[24.9377,57.4535,80.1403],[24.9371,57.449,73.6703],[24.9287,57.4494,71.3509],[24.9281,57.4449,70.1378],[24.9198,57.4452,60.5646],[24.9192,57.4407,67.2514],[24.9109,57.4411,63.407],[24.9103,57.4366,67.2776],[24.8853,57.4376,76.4258],[24.8847,57.4331,79.3045],[24.868,57.4337,84.1479],[24.8668,57.4248,82.7745],[24.8585,57.4251,73.5197],[24.8579,57.4206,71.9748],[24.8413,57.4213,62.4432],[24.8419,57.4258,80.3536],[24.8252,57.4264,66.52],[24.8258,57.4309,76.4439],[24.8092,57.4315,59.9895],[24.8098,57.436,75.7051],[24.7848,57.437,62.5897],[24.7842,57.4325,62.1339],[24.7759,57.4328,64.1035],[24.7712,57.397,66.9527],[24.7795,57.3967,67.9278],[24.7789,57.3922,67.8506],[24.8205,57.3906,70.7127],[24.8199,57.3861,70.502],[24.8282,57.3858,69.9697],[24.8276,57.3813,69.7208],[24.8442,57.3806,68.1834],[24.8436,57.3762,67.9039],[24.8602,57.3755,73.0341],[24.8584,57.3621,65.7037],[24.8668,57.3617,63.5832],[24.8655,57.3528,61.8549],[24.8822,57.3521,65.1126],[24.8816,57.3476,61.8721],[24.8733,57.348,65.6409],[24.8727,57.3435,64.5272],[24.8976,57.3425,63.5204],[24.8951,57.3246,55.4345],[24.8868,57.3249,56.4697],[24.8862,57.3204,56.6982],[24.878,57.3208,51.9448],[24.8774,57.3163,73.3273],[24.8856,57.316,57.1417]]]]}
,"properties": {"GID_2": "LVA.4.2_1","GID_0": "LVA","country": "Latvia","GID_1": "LVA.4_1","province": "Vidzeme","NL_NAME_1": "NA","county": "Cesis","VARNAME_2": "Wenden","NL_NAME_2": "NA","TYPE_2": "Aprinki|rajoni","ENGTYPE_2": "District","CC_2": "NA","HASC_2": "LV.CE","name": "Cesis.county","area_km2": 3051.862,"hist_schema_id": "Elevation0-9000","hist_area_km2": {"25": 21.887,"50": 134.895,"75": 556.547,"100": 240.598,"125": 284.735,"150": 164.374,"175": 408.1,"200": 766.303,"225": 418.071,"250": 55.271,"275": 1.082}}}