{"type":"Feature","properties":{"ISO3166-1-Alpha-3":"LVA","country":"Latvia","fill":"#FF0","id":"1080","name":"Cesu"},
"geometry":{"type": "Polygon","coordinates": [[[25.33168,57.29145,143.3573],[25.31133,57.29615,127.4307],[25.32385,57.30868,130.401],[25.31133,57.31337,121.0322],[25.27375,57.31807,82.2309],[25.25496,57.3259,78.2544],[25.23148,57.33059,28.7302],[25.23148,57.29615,107.9114],[25.28784,57.28049,134.7951],[25.31916,57.25857,122.5835],[25.31759,57.23196,159.3804],[25.35986,57.23196,196.4734],[25.36926,57.21943,181.1653],[25.36456,57.20534,160.7512],[25.38022,57.18812,161.4693],[25.41153,57.18655,171.694],[25.44441,57.1709,193.0582],[25.4585,57.1568,198.9563],[25.49608,57.15211,199.9545],[25.5086,57.1568,200.8106],[25.53209,57.1568,216.3064],[25.5634,57.14741,215.7065],[25.5728,57.1709,215.5194],[25.57593,57.20377,227.4967],[25.56027,57.22256,229.6035],[25.54618,57.21317,233.2092],[25.52269,57.20847,229.2335],[25.50077,57.2163,217.2593],[25.50077,57.24918,192.4257],[25.48982,57.26327,175.0687],[25.46633,57.27736,174.5515],[25.42719,57.28989,115.4917],[25.39431,57.30241,94.1017],[25.363,57.29615,100.1159],[25.33168,57.29145,143.3573]]]}}