{"type": "Feature","id": 105383.0,"bbox": [26.980113151958733,56.171087957806577,27.109629753521233,56.214850164837827],"geometry": {"type": "Polygon","coordinates": [[[27.061900261333733,56.209967352337827,159.5891],[27.061900261333733,56.209967352337827,159.5891],[27.045420769146233,56.213629461712827,152.7627],[27.032725456646233,56.214850164837827,157.9082],[27.017100456646233,56.212408758587827,174.9298],[27.001963737896233,56.207892157025327,178.2363],[26.991709831646233,56.203314520306577,159.9473],[26.980113151958733,56.192999578900327,157.0718],[26.983775261333733,56.182379461712827,144.5],[27.014414909771233,56.176275946087827,144.5],[27.041758659771233,56.178107000775327,144.5],[27.053721550396233,56.176581121869077,147.8964],[27.072764519146233,56.171087957806577,144.5],[27.098033073833733,56.172308660931577,144.5],[27.109629753521233,56.179632879681577,157.0101],[27.105357292583733,56.190252996869077,155.0968],[27.104136589458733,56.200567938275327,169.8693],[27.105723503521233,56.207892157025327,175.3158],[27.094004753521233,56.209723211712827,159.4982],[27.080699089458733,56.210943914837827,164.2354],[27.073985222271233,56.209112860150327,157.688],[27.061900261333733,56.209967352337827,159.5891]],
[[27.064219597271233,56.189642645306577,161.0185],[27.064219597271233,56.189642645306577,161.0185],[27.055796745708733,56.183600164837827,172.2508],[27.048838737896233,56.193609930462827,153.9763],[27.057383659771233,56.199652410931577,172.8899],[27.064219597271233,56.189642645306577,161.0185]]]}
,"properties": {"fillOpacity": 1,"fill": "#F0F","name": "Lake~Rusanu","title": "Lake~Rusanu","lge_id": null,"pfafstette": 32933.0,"lke_type": "N","altitude": 146,"objectid": 58356,"scalerank": 12,"featurecla": "Lake","note": "_untitled_58356","funkyname": 0,"min_zoom": 7.0,"min_label": 8.0,"area_km2": 27.97035,"hist_schema_id": "Elevation0-9000","hist_area_km2": {"150": 22.01338,"175": 5.8272,"200": 0.12976}}}