{"type":"Feature","properties":{"ISO3166-1-Alpha-3":"LVA","country":"Latvia","fill":"#000","id":"5791","name":"Mazsalacas"},
"geometry":{"type": "Polygon","coordinates": [[[25.24557,57.8003,46.1554],[25.25027,57.82065,54.0591],[25.24714,57.85197,45.5214],[25.21739,57.87232,43.807],[25.21269,57.88798,42.4891],[25.19547,57.9052,48.2124],[25.16729,57.91459,46.8473],[25.13441,57.93025,59.0983],[25.12501,57.9506,66.075],[25.13754,57.95687,69.2],[25.13284,57.97722,74.1744],[25.10466,57.98192,73.5277],[25.09526,58.00384,67.9029],[25.10466,58.02576,64.0172],[25.10936,58.04454,64.6434],[25.09421,58.06731,67.546],[25.07064,58.06361,79.5169],[25.04884,58.0562,73.8332],[25.03486,58.04857,77.2976],[24.97484,58.01584,61.7833],[24.94931,58.00643,76.654],[24.87252,58.00044,68.041],[24.84833,57.99215,68.821],[24.82742,57.98188,56.4442],[24.82761,57.98013,52.5652],[24.84234,57.90094,66.7791],[24.86404,57.90032,51.7889],[24.8734,57.89802,47.1058],[24.88192,57.893,50.6634],[24.88502,57.88908,57.8225],[24.88347,57.88375,59.2048],[24.88518,57.87153,55.3812],[24.88781,57.85854,58.469],[24.8934,57.84337,58.971],[24.89572,57.8312,56.9782],[24.90115,57.82551,66.4722],[24.90936,57.82066,62.1949],[24.92616,57.81709,57.7704],[24.93313,57.81756,70.9682],[24.93825,57.81906,67.635],[24.94197,57.81862,66.9778],[24.946,57.81753,66.1164],[24.95329,57.80009,69.4818],[24.96569,57.80831,67.4797],[25.00745,57.80138,68.9043],[25.01747,57.79647,69.5671],[25.0342,57.81439,59.7125],[25.06082,57.81282,74.6638],[25.09213,57.81282,58.5252],[25.11249,57.8003,53.5962],[25.12814,57.79873,54.9469],[25.13284,57.80813,43.0043],[25.12345,57.82691,50.1218],[25.11249,57.83787,52.3044],[25.14223,57.84414,57.9559],[25.15789,57.83318,51.903],[25.22365,57.80499,47.8971],[25.24557,57.8003,46.1554]]]}}