{"type": "Feature","id": "5714","bbox": [21.31589,56.54995,21.82438,56.86759],"geometry": {"type": "Polygon","coordinates": [[[21.526,56.84203,24.8172],[21.51577,56.84397,29.9197],[21.49309,56.86469,36.5758],[21.43645,56.86759,35.9437],[21.43955,56.8399,26.996],[21.4097,56.83138,28.4813],[21.34574,56.82072,33.4684],[21.32016,56.80792,29.5375],[21.32442,56.75889,35.6004],[21.31589,56.7397,22.3042],[21.33721,56.71838,37.8754],[21.39904,56.6928,41.7947],[21.4033,56.67148,45.6568],[21.43102,56.67361,62.4746],[21.45234,56.64589,67.2252],[21.49072,56.65229,74.04],[21.51843,56.65229,95.8121],[21.57173,56.65868,61.0438],[21.60798,56.64376,79.7404],[21.61864,56.61391,94.9354],[21.61864,56.58833,100.5187],[21.57173,56.56061,71.7963],[21.58452,56.54995,86.5746],[21.66128,56.56061,122.8682],[21.71244,56.54995,116.6747],[21.75295,56.56274,103.9102],[21.79539,56.57334,90.1718],[21.79369,56.58342,98.1419],[21.79524,56.58864,117.605],[21.79059,56.59706,107.852],[21.77772,56.61019,120.8813],[21.77674,56.6137,111.7228],[21.80299,56.62285,113.4568],[21.81384,56.62964,113.1931],[21.82051,56.63915,113.0103],[21.82438,56.64714,106.9982],[21.81524,56.66192,115.0326],[21.80935,56.66933,116.6663],[21.82299,56.68786,110.4173],[21.80144,56.69065,95.1949],[21.77612,56.69866,88.0495],[21.76759,56.70478,86.4817],[21.77178,56.71302,93.4102],[21.77054,56.72302,117.2709],[21.76279,56.73199,83.9181],[21.76124,56.74119,66.522],[21.73845,56.76413,53.7821],[21.6801,56.79157,58.4506],[21.67375,56.79059,45.9041],[21.65168,56.79007,39.5397],[21.64424,56.79116,43.7841],[21.62967,56.79989,45.3819],[21.62254,56.81136,48.0902],[21.61029,56.82273,50.4179],[21.60869,56.83289,54.5483],[21.59303,56.84514,30.1109],[21.56667,56.84222,33.7136],[21.526,56.84203,24.8172]]]}
,"properties": {"ISO3166-1-Alpha-3": "LVA","country": "Latvia","fill": "#F0F","name": "Aizputes","area_km2": 608.5411,"hist_schema_id": "Elevation0-9000","hist_area_km2": {"25": 124.7043,"50": 214.4819,"75": 102.9765,"100": 135.0164,"125": 30.8837,"150": 0.4783}}}