{"type":"Feature","properties":{"ISO3166-1-Alpha-3":"LVA","country":"Latvia","fill":"#000","id":"1066","name":"Rezeknes"},
"geometry":{"type": "Polygon","coordinates": [[[26.98402,56.80594,94.8588],[26.96619,56.80956,96.3739],[26.92847,56.83111,92.0088],[26.90754,56.81798,92.7729],[26.78294,56.70739,92.4611],[26.77256,56.68101,100.4747],[26.80831,56.66569,95.8835],[26.85232,56.65793,105.6019],[26.88338,56.63722,104.6453],[26.91445,56.60098,114.9148],[26.98175,56.59321,128.8619],[27.00505,56.56214,114.4231],[27.00764,56.52331,127.9547],[27.0413,56.46636,143.9344],[27.03353,56.44824,135.7937],[26.99211,56.45083,136.5197],[26.92536,56.44761,131.9291],[26.91467,56.4334,127.2683],[26.91002,56.42508,128.6381],[26.89994,56.41847,129.405],[26.89761,56.41131,129.7072],[26.95177,56.37263,151.1929],[26.9665,56.35907,160.4939],[26.99115,56.3315,160.3678],[26.9758,56.32013,169.5111],[26.95084,56.31966,158.1602],[26.94433,56.31295,164.0996],[26.9465,56.30432,165.8303],[26.94914,56.29775,159.668],[26.95983,56.28403,160.3455],[26.98619,56.26323,160.2667],[26.98851,56.24794,169.7166],[26.99725,56.23858,160.033],[27.00159,56.23057,158.0926],[27.0157,56.22417,160.2169],[27.02887,56.21543,166.3749],[27.0343,56.20778,161.9894],[27.03569,56.19812,144.5],[27.03461,56.18665,144.5],[27.03802,56.18011,144.5],[27.04407,56.17595,144.5],[27.05419,56.17332,144.5],[27.0776,56.17091,145.2316],[27.10163,56.17076,151.7181],[27.09822,56.17957,154.1072],[27.0976,56.182,144.5],[27.09962,56.18639,156.2161],[27.10241,56.18908,156.8567],[27.12587,56.19585,160.8623],[27.15083,56.20843,174.2125],[27.1623,56.21078,166.7393],[27.17305,56.2083,163.8163],[27.29594,56.20303,166.8713],[27.33909,56.21026,181.4354],[27.412,56.20716,164.0],[27.42068,56.21057,170.6809],[27.44787,56.20939,180.8344],[27.44068,56.22367,179.276],[27.44724,56.2299,179.4145],[27.46693,56.23347,199.8126],[27.48895,56.23502,199.2953],[27.509,56.24112,225.4015],[27.52357,56.24825,227.7225],[27.52807,56.25739,193.8338],[27.53504,56.26111,198.6671],[27.54822,56.24825,196.9795],[27.55163,56.24548,195.9233],[27.56812,56.2423,213.9713],[27.65157,56.24975,220.3715],[27.66759,56.24024,202.2617],[27.68356,56.24726,192.226],[27.69255,56.24982,199.6987],[27.70046,56.25502,193.6189],[27.69891,56.25807,184.3351],[27.69426,56.26075,184.0776],[27.68682,56.26287,205.8968],[27.68682,56.27631,218.9094],[27.7155,56.29848,206.8547],[27.711,56.31114,207.6815],[27.69891,56.32199,201.2614],[27.69023,56.33238,212.528],[27.68759,56.34726,194.4993],[27.68961,56.3547,193.0256],[27.68992,56.36062,186.3987],[27.67038,56.3718,193.2354],[27.64041,56.37878,161.2637],[27.62243,56.39248,180.5677],[27.62398,56.40108,163.0374],[27.62041,56.40715,183.3443],[27.62181,56.42069,161.8414],[27.60796,56.42048,150.5235],[27.60253,56.41857,156.935],[27.59649,56.41899,158.8276],[27.59106,56.42183,154.7191],[27.59215,56.42439,161.573],[27.58967,56.42831,160.9432],[27.5816,56.43361,154.7919],[27.57168,56.44281,156.9239],[27.55969,56.4571,148.7948],[27.55938,56.46446,147.6628],[27.54993,56.47857,144.4944],[27.50869,56.46017,146.2055],[27.49639,56.47792,143.7741],[27.49546,56.48803,147.424],[27.48709,56.4995,152.6647],[27.486,56.50885,151.3155],[27.48678,56.5149,149.7194],[27.49375,56.52087,148.3321],[27.50683,56.52807,155.1505],[27.52512,56.52929,163.5081],[27.53845,56.53154,151.9053],[27.55117,56.5351,145.3393],[27.56657,56.54172,143.0863],[27.57432,56.55696,141.9913],[27.56114,56.57593,141.598],[27.56145,56.59965,149.8024],[27.58021,56.61944,154.1736],[27.55163,56.63675,154.7822],[27.54155,56.64507,145.4762],[27.52481,56.65179,145.7],[27.51241,56.65484,143.4958],[27.50182,56.65577,146.3985],[27.48802,56.65331,139.6904],[27.47639,56.65845,145.4987],[27.47205,56.66326,143.9479],[27.47034,56.67422,131.7771],[27.48027,56.68083,123.304],[27.48631,56.69339,118.7842],[27.47103,56.74077,106.8195],[27.4555,56.77183,105.0862],[27.40372,56.78478,108.0143],[27.33986,56.78268,98.2628],[27.24317,56.7892,97.7982],[27.18607,56.79379,105.5037],[27.16075,56.81136,94.2459],[27.13316,56.80821,100.2798],[27.12137,56.81062,93.3394],[27.09559,56.80925,94.1029],[27.06753,56.80532,95.8988],[27.05791,56.80036,98.5164],[27.03228,56.80134,100.8148],[27.01756,56.80651,95.2094],[26.98402,56.80594,94.8588]],
[[27.33907,56.47491,152.4609],[27.28464,56.48966,144.1263],[27.27428,56.51555,141.5096],[27.31006,56.55335,147.6343],[27.34017,56.56076,156.9279],[27.36371,56.55522,153.9295],[27.36554,56.53879,165.3164],[27.36097,56.52054,148.7583],[27.3555,56.49498,156.3563],[27.33907,56.47491,152.4609]]]}}