{"type": "Feature","bbox": [24.3325,57.2331,25.0971,57.9866],"geometry": {"type": "MultiPolygon","coordinates": [[[[24.354,57.8758,0.375],[24.3514,57.8693,0.2398],[24.3452,57.8666,0.1097],[24.3431,57.8638,0.0],[24.3447,57.8621,0.582],[24.3436,57.8604,0.0],[24.3447,57.8576,0.5634],[24.3475,57.8551,8.6678],[24.3447,57.8543,1.5862],[24.3447,57.8504,11.8108],[24.3419,57.849,0.0],[24.3408,57.8446,1.623],[24.3375,57.8418,0.3751],[24.3386,57.8396,1.6867],[24.3347,57.8368,0.217],[24.3347,57.8335,0.066],[24.3369,57.8321,0.4022],[24.3347,57.8299,0.058],[24.3364,57.8282,1.4624],[24.3325,57.8271,0.2194],[24.3331,57.8168,0.0],[24.3475,57.7924,1.4805],[24.3475,57.7907,0.9812],[24.3442,57.7887,0.276],[24.3464,57.7879,2.2192],[24.3475,57.7846,1.8096],[24.3464,57.7771,10.076],[24.3486,57.7696,5.6111],[24.3475,57.7679,4.4059],[24.3492,57.7657,2.6401],[24.3481,57.7643,1.8426],[24.3486,57.7568,0.0],[24.3664,57.7532,0.0],[24.3775,57.7532,2.6598],[24.3814,57.7507,4.2402],[24.3775,57.7521,2.6598],[24.3625,57.7521,2.8953],[24.3575,57.7549,0.7161],[24.3519,57.7554,2.4605],[24.3497,57.7551,0.0],[24.3492,57.7526,0.8065],[24.3442,57.7526,0.1369],[24.3464,57.7468,7.7961],[24.3436,57.7399,0.0],[24.3453,57.7335,3.6044],[24.3436,57.7326,0.0],[24.3419,57.7232,0.0],[24.3436,57.7088,1.3071],[24.3419,57.7068,0.0],[24.3442,57.6976,0.5071],[24.3553,57.6907,8.2228],[24.3597,57.681,5.358],[24.3592,57.6793,1.3956],[24.3636,57.6754,0.131],[24.3681,57.6579,0.6051],[24.3703,57.6549,9.8655],[24.3703,57.6521,9.2665],[24.3675,57.6479,2.9732],[24.3703,57.6451,7.0863],[24.3708,57.6396,0.0],[24.3742,57.6368,0.4562],[24.3747,57.6338,0.0],[24.3808,57.6293,8.4539],[24.3814,57.626,8.1702],[24.3853,57.6224,7.6476],[24.3858,57.6179,0.0],[24.3875,57.6171,9.9921],[24.3864,57.6118,3.6558],[24.3819,57.6107,0.0],[24.3814,57.6079,5.5747],[24.3719,57.6007,4.9568],[24.3731,57.5954,4.9458],[24.3719,57.591,10.2872],[24.3692,57.5887,8.3756],[24.3681,57.5829,8.5021],[24.3642,57.5815,0.0],[24.3636,57.5757,0.6759],[24.3692,57.5649,6.6743],[24.3692,57.5604,9.45],[24.3653,57.5465,7.9511],[24.3614,57.5412,0.0],[24.372,57.533,15.3859],[24.3775,57.5207,6.3874],[24.3786,57.5137,0.0],[24.3808,57.5129,5.0224],[24.3792,57.5046,2.051],[24.3803,57.5043,2.051],[24.3819,57.4924,7.4126],[24.3792,57.4912,2.1331],[24.3814,57.4863,9.7549],[24.3792,57.4813,3.7838],[24.3814,57.4785,15.3129],[24.3819,57.4715,9.3619],[24.3858,57.4651,3.5231],[24.3847,57.4493,0.0],[24.3886,57.4385,2.6336],[24.3886,57.434,0.407],[24.3919,57.4276,7.8358],[24.3936,57.4143,7.9489],[24.3981,57.406,10.725],[24.3997,57.3985,9.0303],[24.4003,57.3918,5.6409],[24.3986,57.3849,0.0],[24.4019,57.3635,14.8058],[24.4003,57.3568,1.786],[24.4036,57.3501,2.7091],[24.4053,57.3421,6.3663],[24.4042,57.3382,5.7103],[24.4047,57.3201,7.0977],[24.4031,57.3168,0.0],[24.4069,57.3149,4.4144],[24.4092,57.3115,1.2114],[24.4086,57.307,4.3674],[24.4259,57.3063,21.2378],[24.4265,57.3108,23.5995],[24.4431,57.3102,28.8138],[24.4436,57.3147,22.4058],[24.4685,57.3138,38.6076],[24.4691,57.3183,33.5158],[24.4857,57.3177,30.4706],[24.4862,57.3222,29.2209],[24.5028,57.3216,47.8058],[24.5034,57.326,30.1895],[24.52,57.3254,33.4485],[24.5205,57.3299,36.3993],[24.5454,57.329,40.0331],[24.5438,57.3155,40.9362],[24.5521,57.3152,41.9724],[24.5515,57.3108,41.3223],[24.5432,57.3111,39.4715],[24.5421,57.3021,32.8757],[24.5504,57.3018,32.6189],[24.5498,57.2973,33.3377],[24.5581,57.297,46.5352],[24.5587,57.3015,39.9695],[24.567,57.3012,43.3799],[24.5675,57.3057,46.5064],[24.5841,57.305,44.5687],[24.583,57.2961,45.1543],[24.5913,57.2958,46.0577],[24.5902,57.2868,46.0195],[24.6067,57.2862,51.3393],[24.6062,57.2817,46.7453],[24.6227,57.2811,52.483],[24.6222,57.2766,45.9636],[24.6305,57.2763,41.4044],[24.6271,57.2494,50.3833],[24.6353,57.2491,39.1544],[24.6342,57.2401,58.0215],[24.659,57.2392,58.3638],[24.6585,57.2347,40.4372],[24.6999,57.2331,60.6236],[24.7004,57.2376,54.0808],[24.7087,57.2373,49.633],[24.7093,57.2418,53.8613],[24.7176,57.2415,48.2802],[24.7187,57.2504,60.8913],[24.727,57.2501,51.8046],[24.7282,57.2591,58.5254],[24.7613,57.2578,62.8007],[24.7619,57.2623,62.3144],[24.7702,57.262,75.6828],[24.7708,57.2664,71.2007],[24.7873,57.2658,70.3407],[24.7879,57.2703,65.6156],[24.8045,57.2696,60.7928],[24.8051,57.2741,66.2005],[24.8134,57.2738,61.0],[24.814,57.2783,67.0286],[24.8222,57.2779,58.311],[24.8228,57.2824,67.4257],[24.8311,57.2821,57.9444],[24.8317,57.2866,63.5068],[24.8566,57.2856,66.1446],[24.8572,57.2901,59.4404],[24.8655,57.2897,68.0266],[24.8667,57.2987,64.0834],[24.875,57.2984,72.6854],[24.8762,57.3073,66.2958],[24.8844,57.307,70.354],[24.8856,57.316,57.1417],[24.8774,57.3163,73.3273],[24.878,57.3208,51.9448],[24.8862,57.3204,56.6982],[24.8868,57.3249,56.4697],[24.8951,57.3246,55.4345],[24.8976,57.3425,63.5204],[24.8727,57.3435,64.5272],[24.8733,57.348,65.6409],[24.8816,57.3476,61.8721],[24.8822,57.3521,65.1126],[24.8655,57.3528,61.8549],[24.8668,57.3617,63.5832],[24.8584,57.3621,65.7037],[24.8602,57.3755,73.0341],[24.8436,57.3762,67.9039],[24.8442,57.3806,68.1834],[24.8276,57.3813,69.7208],[24.8282,57.3858,69.9697],[24.8199,57.3861,70.502],[24.8205,57.3906,70.7127],[24.7789,57.3922,67.8506],[24.7795,57.3967,67.9278],[24.7712,57.397,66.9527],[24.7759,57.4328,64.1035],[24.7842,57.4325,62.1339],[24.7848,57.437,62.5897],[24.8098,57.436,75.7051],[24.8092,57.4315,59.9895],[24.8258,57.4309,76.4439],[24.8252,57.4264,66.52],[24.8419,57.4258,80.3536],[24.8413,57.4213,62.4432],[24.8579,57.4206,71.9748],[24.8585,57.4251,73.5197],[24.8668,57.4248,82.7745],[24.868,57.4337,84.1479],[24.8847,57.4331,79.3045],[24.8853,57.4376,76.4258],[24.9103,57.4366,67.2776],[24.9109,57.4411,63.407],[24.9192,57.4407,67.2514],[24.9198,57.4452,60.5646],[24.9281,57.4449,70.1378],[24.9287,57.4494,71.3509],[24.9371,57.449,73.6703],[24.9377,57.4535,80.1403],[24.9543,57.4528,69.4487],[24.9549,57.4573,71.3871],[24.9716,57.4566,74.3],[24.9722,57.4611,72.7967],[24.9805,57.4608,78.7751],[24.9811,57.4653,82.5373],[24.9895,57.4649,87.2925],[24.9901,57.4694,83.9433],[25.0151,57.4684,85.5217],[25.0169,57.4818,90.0198],[25.0086,57.4822,90.0688],[25.0092,57.4866,89.7253],[25.0009,57.487,92.9098],[25.0015,57.4915,101.6781],[25.0265,57.4905,88.1798],[25.0284,57.5039,88.1895],[25.0367,57.5035,101.7036],[25.038,57.5125,104.3187],[25.0463,57.5122,87.2698],[25.0469,57.5166,86.2148],[25.0386,57.517,85.752],[25.0392,57.5215,105.0734],[25.0309,57.5218,88.8795],[25.0315,57.5263,82.2345],[25.0565,57.5253,89.4783],[25.0578,57.5342,80.1256],[25.0411,57.5349,96.204],[25.0423,57.5439,78.8068],[25.034,57.5442,78.2974],[25.0346,57.5487,79.3509],[25.0179,57.5494,81.1445],[25.0185,57.5538,81.661],[25.0269,57.5535,79.5019],[25.0275,57.558,80.5234],[25.0192,57.5583,79.5449],[25.0204,57.5673,82.859],[25.0037,57.5679,80.7634],[25.005,57.5769,82.9054],[24.9882,57.5776,82.8005],[24.9876,57.5731,85.849],[24.9626,57.5741,106.8152],[24.962,57.5696,94.2003],[24.9369,57.5706,90.1431],[24.9363,57.5661,87.2758],[24.9279,57.5665,85.4428],[24.9292,57.5754,91.5105],[24.9208,57.5758,86.5718],[24.922,57.5847,86.7077],[24.9137,57.5851,88.2865],[24.9149,57.594,87.1047],[24.9065,57.5943,96.4721],[24.9077,57.6033,85.5202],[24.8994,57.6036,102.3211],[24.9012,57.6171,95.0512],[24.9096,57.6167,92.0338],[24.9102,57.6212,106.408],[24.9186,57.6209,93.6878],[24.9269,57.6206,89.0751],[24.9263,57.6161,90.519],[24.9347,57.6157,91.9372],[24.9353,57.6202,94.3015],[24.9436,57.6199,89.7587],[24.9443,57.6244,93.2397],[24.9526,57.624,95.7721],[24.9532,57.6285,91.0671],[24.9616,57.6282,84.9095],[24.9622,57.6327,90.1964],[24.9706,57.6323,84.7971],[24.9724,57.6458,82.1938],[25.0143,57.6441,86.76],[25.0137,57.6396,90.6003],[25.022,57.6393,88.7766],[25.0214,57.6348,91.9438],[25.0298,57.6344,87.5442],[25.0292,57.63,85.118],[25.0626,57.6286,82.7912],[25.0639,57.6376,81.6624],[25.0722,57.6372,74.9492],[25.0729,57.6417,76.504],[25.0645,57.642,82.8787],[25.0651,57.6465,79.7471],[25.0568,57.6469,93.4577],[25.0574,57.6513,79.659],[25.049,57.6517,81.3983],[25.0497,57.6562,90.315],[25.0413,57.6565,77.8177],[25.0419,57.661,81.4257],[25.0838,57.6593,75.3729],[25.0844,57.6637,88.2753],[25.076,57.6641,97.6813],[25.0767,57.6686,87.3931],[25.0683,57.6689,93.587],[25.0696,57.6779,86.4065],[25.0528,57.6785,84.4931],[25.0553,57.6965,85.5371],[25.0637,57.6961,85.7694],[25.065,57.7051,79.358],[25.0566,57.7054,85.2776],[25.0585,57.7189,70.396],[25.0669,57.7185,72.8856],[25.0675,57.723,72.5219],[25.0759,57.7227,73.2195],[25.0772,57.7316,67.053],[25.0855,57.7313,77.1633],[25.0874,57.7447,62.992],[25.0958,57.7444,61.7026],[25.0971,57.7533,63.1772],[25.0887,57.7537,62.5689],[25.0894,57.7581,66.3196],[25.081,57.7585,75.6264],[25.0816,57.763,64.1752],[25.0732,57.7633,72.4037],[25.0757,57.7812,61.6232],[25.0589,57.7819,56.4561],[25.0596,57.7864,61.5321],[25.0428,57.7871,56.6744],[25.0434,57.7915,61.1656],[25.0182,57.7925,73.6718],[25.0194,57.8015,68.2191],[25.011,57.8018,69.578],[25.0117,57.8063,70.468],[24.9948,57.807,66.9292],[24.9961,57.816,63.7335],[24.9877,57.8163,66.6],[24.9883,57.8208,66.674],[24.9631,57.8218,66.6833],[24.9618,57.8128,66.0597],[24.945,57.8135,68.4228],[24.9456,57.818,66.1164],[24.954,57.8176,64.0762],[24.9553,57.8266,75.6626],[24.9469,57.8269,68.9398],[24.9481,57.8359,80.8867],[24.9397,57.8362,62.4855],[24.9385,57.8273,63.2004],[24.9301,57.8276,64.9204],[24.9307,57.8321,63.757],[24.897,57.8334,57.2557],[24.9007,57.8603,58.3778],[24.8923,57.8606,58.325],[24.8941,57.874,56.0912],[24.8857,57.8744,56.4138],[24.8875,57.8878,69.2342],[24.8791,57.8881,55.7519],[24.8809,57.9016,49.5825],[24.8894,57.9012,60.2841],[24.89,57.9057,64.6481],[24.8647,57.9067,58.3744],[24.8659,57.9157,54.3548],[24.849,57.9163,55.9579],[24.8497,57.9208,52.9899],[24.8328,57.9215,58.9504],[24.834,57.9304,52.8353],[24.8256,57.9307,52.5974],[24.8268,57.9397,73.4791],[24.8437,57.939,59.6565],[24.8443,57.9435,57.5637],[24.8358,57.9439,78.4797],[24.837,57.9528,64.1996],[24.8286,57.9531,63.9185],[24.8304,57.9666,63.5845],[24.8389,57.9662,68.0546],[24.8395,57.9707,70.2386],[24.831,57.9711,57.2253],[24.8323,57.98,65.8694],[24.8238,57.9803,52.5652],[24.8244,57.9848,60.9835],[24.7777,57.9866,51.8422],[24.7421,57.982,54.9052],[24.7435,57.9649,51.8368],[24.7326,57.9624,55.7886],[24.7151,57.9625,57.3862],[24.696,57.9492,50.8013],[24.6923,57.9493,51.3776],[24.6929,57.9538,55.3298],[24.6845,57.9541,62.5104],[24.685,57.9586,50.2401],[24.6766,57.9589,54.2079],[24.6772,57.9634,50.5877],[24.6687,57.9637,48.537],[24.6682,57.9592,51.118899999999996],[24.6513,57.9599,52.6855],[24.6501,57.9509,59.7225],[24.6432,57.9511,48.1147],[24.6296,57.9426,49.9759],[24.6236,57.9429,49.0975],[24.6242,57.9474,49.1687],[24.6157,57.9477,45.4324],[24.6163,57.9521,52.26],[24.6079,57.9525,49.6181],[24.6085,57.9569,43.9203],[24.6043,57.9571,46.6355],[24.6018,57.9547,54.7729],[24.5957,57.9574,48.368],[24.5747,57.9582,44.6],[24.5731,57.9543,43.9019],[24.5482,57.9501,49.1022],[24.5442,57.9458,42.1019],[24.531,57.9469,43.9737],[24.5207,57.9435,39.0868],[24.5183,57.9367,40.5774],[24.5099,57.935,40.65],[24.5118,57.9305,40.0583],[24.4623,57.925,27.3924],[24.4455,57.908,25.6928],[24.4595,57.9065,22.6704],[24.4524,57.8995,23.3297],[24.4599,57.8801,29.5761],[24.4505,57.8771,23.9584],[24.4373,57.8776,18.8779],[24.4368,57.8731,24.8222],[24.4199,57.8737,18.2125],[24.4194,57.8692,15.7063],[24.4099,57.8696,15.0433],[24.4093,57.8717,12.2654],[24.3737,57.8753,7.0308],[24.354,57.8758,0.375]]]]}
,"properties": {"GID_2": "LVA.3.1_1","GID_0": "LVA","country": "Latvia","GID_1": "LVA.3_1","province": "Riga","NL_NAME_1": "NA","county": "Limbaži","VARNAME_2": "Limbazi","NL_NAME_2": "NA","TYPE_2": "Aprinki|rajoni","ENGTYPE_2": "District","CC_2": "NA","HASC_2": "LV.LM","name": "Limbaži.county","area_km2": 2538.81,"hist_schema_id": "Elevation0-9000","hist_area_km2": {"0": 83.621,"25": 352.563,"50": 1105.924,"75": 823.316,"100": 168.859,"125": 4.528}}}