{"type": "Feature","id": "1086","bbox": [24.39489,57.22307,25.0878,57.7707],"geometry": {"type": "Polygon","coordinates": [[[24.74793,57.73176,76.023],[24.7076,57.74983,63.0396],[24.6923,57.76096,61.4894],[24.64919,57.7707,58.2599],[24.59913,57.75262,40.9726],[24.60886,57.71507,44.9396],[24.56297,57.71785,46.4118],[24.5588,57.68864,39.9442],[24.56436,57.67335,51.1634],[24.54072,57.66639,47.3988],[24.51569,57.67891,54.3501],[24.41834,57.67057,25.3036],[24.42668,57.6205,31.1681],[24.4239,57.58991,35.6695],[24.43503,57.58852,29.8131],[24.43364,57.56766,33.7864],[24.46006,57.56487,33.6649],[24.47814,57.56766,29.9087],[24.49761,57.55514,35.4233],[24.49066,57.54401,42.3447],[24.55324,57.54123,37.938],[24.52959,57.52176,50.6832],[24.54906,57.48978,50.7408],[24.56575,57.47448,51.2038],[24.57827,57.46475,57.6879],[24.5588,57.45223,39.9387],[24.51152,57.44806,51.7991],[24.50178,57.4272,45.1247],[24.48648,57.41607,49.4076],[24.44754,57.40773,30.8478],[24.39489,57.40001,0.0],[24.40484,57.34808,16.8409],[24.40516,57.3479,16.8409],[24.41079,57.34467,10.0746],[24.42557,57.33397,12.3884],[24.42929,57.32854,29.7564],[24.43239,57.32022,11.6003],[24.43022,57.30839,15.5129],[24.42619,57.29883,20.6899],[24.42681,57.29459,30.0622],[24.42789,57.29139,32.6616],[24.45022,57.29583,36.7442],[24.46129,57.29477,23.1007],[24.47223,57.29371,32.0466],[24.55001,57.31635,42.0381],[24.56628,57.31004,50.9901],[24.57373,57.29573,42.7737],[24.57543,57.29087,42.7311],[24.57807,57.28875,44.0574],[24.58912,57.28534,40.492],[24.60153,57.27898,56.0944],[24.62215,57.26557,43.0212],[24.64328,57.23718,45.4167],[24.68157,57.22307,41.4041],[24.7131,57.22705,59.1771],[24.70621,57.24224,55.0379],[24.68535,57.28674,59.5307],[24.6478,57.30065,63.1653],[24.63668,57.32011,58.8715],[24.68396,57.32846,75.6319],[24.70204,57.34932,68.8528],[24.68813,57.38965,60.9538],[24.74793,57.41051,79.8115],[24.75071,57.3966,75.6919],[24.83164,57.39552,71.9249],[24.79996,57.41143,80.0261],[24.7995,57.41712,71.6242],[24.81268,57.41903,71.1469],[24.84668,57.41221,56.1624],[24.87588,57.41303,54.8738],[24.88688,57.42089,77.6288],[24.98032,57.45288,67.7984],[24.98884,57.4613,83.6193],[25.00295,57.4675,83.9733],[25.01256,57.4761,93.1729],[25.04563,57.4828,89.7985],[25.05323,57.49184,95.6976],[25.06191,57.49822,88.2683],[25.07959,57.50021,88.7405],[25.0878,57.50373,88.4032],[25.08708,57.50724,90.6083],[25.08083,57.51083,89.0051],[25.06672,57.51269,92.8058],[25.05385,57.51176,89.1602],[25.0478,57.51409,84.6657],[25.04703,57.51577,86.2148],[25.05137,57.51835,86.6252],[25.05137,57.5245,85.2676],[25.04641,57.53535,112.767],[25.02233,57.5553,80.2631],[25.00434,57.5622,88.1833],[24.98435,57.5639,87.7871],[24.93298,57.55644,91.6188],[24.91618,57.55579,88.826],[24.89495,57.56716,92.4068],[24.88005,57.58295,104.6384],[24.88144,57.62467,83.3803],[24.89256,57.65249,83.6441],[24.83137,57.66639,71.6665],[24.82442,57.69977,84.8975],[24.82859,57.71924,76.0973],[24.79939,57.73315,74.9453],[24.74793,57.73176,76.023]]]}
,"properties": {"ISO3166-1-Alpha-3": "LVA","country": "Latvia","fill": "#F0F","name": "Limbaži","area_km2": 1170.531,"hist_schema_id": "Elevation0-9000","hist_area_km2": {"0": 3.7038,"25": 114.6775,"50": 502.7472,"75": 415.9746,"100": 128.6828,"125": 4.7337,"150": 0.0114}}}