{"type": "Feature","id": "5747","bbox": [27.24063,55.97542,28.07754,56.26111],"geometry": {"type": "Polygon","coordinates": [[[27.56812,56.2423,213.9713],[27.55163,56.24548,195.9233],[27.54822,56.24825,196.9795],[27.53504,56.26111,198.6671],[27.52807,56.25739,193.8338],[27.52357,56.24825,227.7225],[27.509,56.24112,225.4015],[27.48895,56.23502,199.2953],[27.46693,56.23347,199.8126],[27.44724,56.2299,179.4145],[27.44068,56.22367,179.276],[27.44787,56.20939,180.8344],[27.42068,56.21057,170.6809],[27.412,56.20716,164.0],[27.33909,56.21026,181.4354],[27.29594,56.20303,166.8713],[27.30017,56.1816,172.2189],[27.33124,56.16089,212.4576],[27.339,56.14018,193.419],[27.30794,56.12464,181.7774],[27.24063,56.1117,160.7177],[27.26393,56.07287,173.925],[27.3157,56.08063,165.6004],[27.37007,56.08063,200.7901],[27.37525,56.05734,163.5],[27.36748,56.02368,157.5],[27.3856,56.02109,157.5],[27.41408,56.03663,168.811],[27.46068,56.03663,163.0254],[27.57199,55.99779,171.7979],[27.61859,55.99003,157.1067],[27.64448,55.98744,158.2839],[27.64189,56.01592,156.2868],[27.65483,56.02109,164.1339],[27.68072,56.00815,159.5769],[27.72473,55.99521,156.7247],[27.76006,55.97542,160.9662],[27.77699,55.9924,151.1095],[27.78123,56.01638,145.1596],[27.81254,56.03451,160.9407],[27.88065,56.06387,152.6338],[27.89275,56.0771,152.6718],[27.90153,56.08934,158.9685],[27.91145,56.10025,165.4179],[27.92706,56.10937,165.4986],[27.93967,56.11306,156.3269],[27.98101,56.11802,183.3524],[28.0238,56.12965,146.2507],[28.0511,56.14067,145.4011],[28.05093,56.14112,145.4011],[28.04726,56.15089,172.3721],[28.04369,56.15802,169.2087],[28.06261,56.1821,166.6692],[28.07754,56.19673,164.0929],[28.07041,56.20851,158.2136],[28.06509,56.20329,176.2731],[28.06126,56.20355,167.2495],[28.0561,56.20696,161.8302],[28.05269,56.21107,157.4171],[28.04804,56.2144,177.2721],[28.03982,56.21569,174.5394],[28.03145,56.21448,160.2106],[28.0209,56.20964,167.5689],[28.00132,56.20329,155.8036],[27.91306,56.1837,182.7747],[27.89848,56.18324,169.7553],[27.88758,56.18665,176.472],[27.85285,56.18195,165.9614],[27.83844,56.18231,173.0989],[27.82242,56.18567,169.5212],[27.81094,56.19626,165.9543],[27.77849,56.19564,171.2109],[27.74392,56.19977,177.8338],[27.72247,56.20665,182.7846],[27.70185,56.21949,179.4069],[27.68713,56.2251,186.5427],[27.66759,56.24024,202.2617],[27.65157,56.24975,220.3715],[27.56812,56.2423,213.9713]]]}
,"properties": {"ISO3166-1-Alpha-3": "LVA","country": "Latvia","fill": "#FF0","name": "Dagdas","area_km2": 885.8948,"hist_schema_id": "Elevation0-9000","hist_area_km2": {"150": 126.9662,"175": 555.9615,"200": 170.3233,"225": 29.8973,"250": 2.7111,"275": 0.0354}}}